{"type":"FeatureCollection","features":[{"type":"Feature","id":0,"geometry":{"type":"Point","coordinates":[58.591199999581661,22.663100000442274]},"properties":{"FID":0,"NAMEEN":"Blood Bank, Ibra Hospital","WILLAYAT":"Wilayat Ibra","GOV":"Ash Sharqiyah North Governorate","LATITUDE":22.6631,"LONGITUDE":58.591200000000001}},{"type":"Feature","id":1,"geometry":{"type":"Point","coordinates":[55.80490000007056,24.252100000262086]},"properties":{"FID":1,"NAMEEN":"Blood Bank, Al Buraymi Hospital","WILLAYAT":"Wilayat Al Buraymi","GOV":"Al Buraymi Governorate","LATITUDE":24.252099999999999,"LONGITUDE":55.804900000000004}},{"type":"Feature","id":2,"geometry":{"type":"Point","coordinates":[57.457400000487475,23.483999999099051]},"properties":{"FID":2,"NAMEEN":"Blood Bank, Ar Rustaq Hospital","WILLAYAT":"Wilayat Ar Rustaq","GOV":"Al Batinah South Governorate","LATITUDE":23.484000000000002,"LONGITUDE":57.4574}},{"type":"Feature","id":3,"geometry":{"type":"Point","coordinates":[54.055099999596216,17.006700000411776]},"properties":{"FID":3,"NAMEEN":"Blood Bank, Sultan Qaboos Hospital","WILLAYAT":"Wilayat Salalah","GOV":"Dhofar Governorate","LATITUDE":17.006699999999999,"LONGITUDE":54.055100000000003}},{"type":"Feature","id":4,"geometry":{"type":"Point","coordinates":[59.328200000451197,22.017200000753231]},"properties":{"FID":4,"NAMEEN":"Blood Bank, Jaalan Bani Bu Ali Hospital","WILLAYAT":"Wilayat Jaalan Bani Bu Ali","GOV":"Ash Sharqiyah South Governorate","LATITUDE":22.017199999999999,"LONGITUDE":59.328200000000002}},{"type":"Feature","id":5,"geometry":{"type":"Point","coordinates":[56.25220000013384,26.182700001243528]},"properties":{"FID":5,"NAMEEN":"Blood Bank, Khasab Hospital","WILLAYAT":"Wilayat Khasab","GOV":"Musandam Governorate","LATITUDE":26.182700000000001,"LONGITUDE":56.252200000000002}},{"type":"Feature","id":6,"geometry":{"type":"Point","coordinates":[56.249900000335721,25.643200001016691]},"properties":{"FID":6,"NAMEEN":"Blood Bank, Dibba Hospital","WILLAYAT":"Wilayat Daba","GOV":"Musandam Governorate","LATITUDE":25.6432,"LONGITUDE":56.249899999999997}},{"type":"Feature","id":7,"geometry":{"type":"Point","coordinates":[57.960599999816559,23.292699999912813]},"properties":{"FID":7,"NAMEEN":"Blood Bank, Samail Hospital","WILLAYAT":"Wilayat Samail","GOV":"Ad Dakhliyah Governorate","LATITUDE":23.2927,"LONGITUDE":57.960599999999999}},{"type":"Feature","id":8,"geometry":{"type":"Point","coordinates":[56.678400000364555,24.326800000010596]},"properties":{"FID":8,"NAMEEN":"Blood Bank, Sohar Hospital","WILLAYAT":"Wilayat Sohar","GOV":"Al Batinah North Governorate","LATITUDE":24.326799999999999,"LONGITUDE":56.678400000000003}},{"type":"Feature","id":9,"geometry":{"type":"Point","coordinates":[59.4416000001901,22.510500001029389]},"properties":{"FID":9,"NAMEEN":"Blood Bank, Sur Hospital","WILLAYAT":"Wilayat Sur","GOV":"Ash Sharqiyah South Governorate","LATITUDE":22.5105,"LONGITUDE":59.441600000000001}},{"type":"Feature","id":10,"geometry":{"type":"Point","coordinates":[56.428299999956096,23.231199999932908]},"properties":{"FID":10,"NAMEEN":"Blood Bank, Ibri Hospital","WILLAYAT":"Wilayat Ibri","GOV":"Adh Dhahirah Governorate","LATITUDE":23.231200000000001,"LONGITUDE":56.4283}},{"type":"Feature","id":11,"geometry":{"type":"Point","coordinates":[58.848200000045644,20.588099998780422]},"properties":{"FID":11,"NAMEEN":"Blood Bank, Masirah Hospital","WILLAYAT":"Wilayat Masirah","GOV":"Ash Sharqiyah South Governorate","LATITUDE":20.588100000000001,"LONGITUDE":58.848199999999999}},{"type":"Feature","id":12,"geometry":{"type":"Point","coordinates":[57.521099999604765,22.855000000286807]},"properties":{"FID":12,"NAMEEN":"Blood Bank, Nizwa Hospital","WILLAYAT":"Wilayat Nizwa","GOV":"Ad Dakhliyah Governorate","LATITUDE":22.855,"LONGITUDE":57.521099999999997}},{"type":"Feature","id":13,"geometry":{"type":"Point","coordinates":[58.389199999816427,23.572699999062259]},"properties":{"FID":13,"NAMEEN":"Central Blood Bank, Bowshar","WILLAYAT":"Wilayat Bawshar","GOV":"Muscat Governorate","LATITUDE":23.572700000000001,"LONGITUDE":58.389200000000002}}]}