{"type":"FeatureCollection","features":[{"type":"Feature","id":0,"geometry":{"type":"Point","coordinates":[54.087859443460061,17.013957485735364]},"properties":{"FID":0,"NAMEEN":"Abu Al Dahab Clinic - Salalah","WILLAYAT":"Wilayat Salalah","GOV":" Dhofar Governorate","LATITUDE":17.013957489999999,"LONGITUDE":54}},{"type":"Feature","id":1,"geometry":{"type":"Point","coordinates":[57.159192488450884,23.924087816039211]},"properties":{"FID":1,"NAMEEN":"Al Rafedain Dental Clinic - Hijayrat As Sahil","WILLAYAT":"Wilayat As Suwayq","GOV":" Al Batinah North Governorate","LATITUDE":23.92408782,"LONGITUDE":57}},{"type":"Feature","id":2,"geometry":{"type":"Point","coordinates":[56.510651356408488,23.245754021444185]},"properties":{"FID":2,"NAMEEN":"Al Doha Dental Clinic - Ibri","WILLAYAT":"Wilayat Ibri","GOV":" Adh Dhahirah Governorate","LATITUDE":23.24575402,"LONGITUDE":57}},{"type":"Feature","id":3,"geometry":{"type":"Point","coordinates":[58.38440364813853,23.590921148706336]},"properties":{"FID":3,"NAMEEN":"Profile Dental Clinic - Bawshar","WILLAYAT":" Wilayat Bawshar","GOV":" Muscat Governorate","LATITUDE":23.59092115,"LONGITUDE":58}},{"type":"Feature","id":4,"geometry":{"type":"Point","coordinates":[57.004227097722897,24.042570906996126]},"properties":{"FID":4,"NAMEEN":"Abu Badir Al Hosni Clinic - Hillat Al Burj","WILLAYAT":" Wilayat Saham","GOV":" Al Batinah North Governorate","LATITUDE":24.042570909999998,"LONGITUDE":57}},{"type":"Feature","id":5,"geometry":{"type":"Point","coordinates":[56.248006981227455,26.183692796045282]},"properties":{"FID":5,"NAMEEN":"Khasab Clinic - Khasab","WILLAYAT":" Wilayat Khasab","GOV":" Musandam Governorate","LATITUDE":26.183692799999999,"LONGITUDE":56}},{"type":"Feature","id":6,"geometry":{"type":"Point","coordinates":[58.448998092102741,23.596694770193565]},"properties":{"FID":6,"NAMEEN":"Al Taj Dental Clinic - Bawshar","WILLAYAT":" Wilayat Bawshar","GOV":" Muscat Governorate","LATITUDE":23.596694769999999,"LONGITUDE":58}},{"type":"Feature","id":7,"geometry":{"type":"Point","coordinates":[58.443838629590218,23.596791610587019]},"properties":{"FID":7,"NAMEEN":"Madinat Sultan Qaboos Dental Clinic - Bawshar","WILLAYAT":" Wilayat Bawshar","GOV":" Muscat Governorate","LATITUDE":23.59679161,"LONGITUDE":58}},{"type":"Feature","id":8,"geometry":{"type":"Point","coordinates":[57.069242331967068,23.95748108868008]},"properties":{"FID":8,"NAMEEN":"Al Ghadeer Medical Clinic - Al Khaburah","WILLAYAT":" Wilayat Al Khaburah","GOV":" Al Batinah North Governorate","LATITUDE":23.957481090000002,"LONGITUDE":57}},{"type":"Feature","id":9,"geometry":{"type":"Point","coordinates":[58.418466651167158,23.596313209234715]},"properties":{"FID":9,"NAMEEN":"Al Rayhana Dental Care Clinic - Bawshar","WILLAYAT":" Wilayat Bawshar","GOV":" Muscat Governorate","LATITUDE":23.596313210000002,"LONGITUDE":58}},{"type":"Feature","id":10,"geometry":{"type":"Point","coordinates":[58.406222551620523,23.588934274144226]},"properties":{"FID":10,"NAMEEN":"Al Sham Dental Clinic - Bawshar","WILLAYAT":" Wilayat Bawshar","GOV":" Muscat Governorate","LATITUDE":23.588934269999999,"LONGITUDE":58}},{"type":"Feature","id":11,"geometry":{"type":"Point","coordinates":[57.249038164345762,23.893674790876275]},"properties":{"FID":11,"NAMEEN":"Ibn Madad Clinic - Diyan Al Bawarih","WILLAYAT":" Wilayat As Suwayq","GOV":" Al Batinah North Governorate","LATITUDE":23.893674789999999,"LONGITUDE":57}},{"type":"Feature","id":12,"geometry":{"type":"Point","coordinates":[54.085677119554482,17.014658593395225]},"properties":{"FID":12,"NAMEEN":"Al Etifaq Dental Clinic - Salalah","WILLAYAT":" Wilayat Salalah","GOV":" Dhofar Governorate","LATITUDE":17.01465859,"LONGITUDE":54}},{"type":"Feature","id":13,"geometry":{"type":"Point","coordinates":[57.102610369631506,23.981073095747842]},"properties":{"FID":13,"NAMEEN":"Al Shifaa Medical Clinic - Al Khaburah","WILLAYAT":" Wilayat Al Khaburah","GOV":" Al Batinah North Governorate","LATITUDE":23.9810731,"LONGITUDE":57}},{"type":"Feature","id":14,"geometry":{"type":"Point","coordinates":[57.439613324416833,23.849819730401453]},"properties":{"FID":14,"NAMEEN":"Lamsat Al Shifaa Clinic - As Suwayq","WILLAYAT":" Wilayat As Suwayq","GOV":" Al Batinah North Governorate","LATITUDE":23.84981973,"LONGITUDE":57}},{"type":"Feature","id":15,"geometry":{"type":"Point","coordinates":[58.123152870570621,23.413927466050421]},"properties":{"FID":15,"NAMEEN":"Abu Mostafa Al Rahbi Medical Clinic - Bidbid","WILLAYAT":" Wilayat Bidbid","GOV":" Ad Dakhliyah Governorate","LATITUDE":23.413927470000001,"LONGITUDE":58}},{"type":"Feature","id":16,"geometry":{"type":"Point","coordinates":[58.197831800413333,23.631523400074681]},"properties":{"FID":16,"NAMEEN":"Babil Dental Clinic - As Seeb","WILLAYAT":" Wilayat As Seeb","GOV":" Muscat Governorate","LATITUDE":23.631523399999999,"LONGITUDE":58}},{"type":"Feature","id":17,"geometry":{"type":"Point","coordinates":[58.117453999814799,23.656728899953119]},"properties":{"FID":17,"NAMEEN":"Fairy Clinic - As Seeb","WILLAYAT":" Wilayat As Seeb","GOV":" Muscat Governorate","LATITUDE":23.656728900000001,"LONGITUDE":58}},{"type":"Feature","id":18,"geometry":{"type":"Point","coordinates":[57.531654500236698,22.935758300136403]},"properties":{"FID":18,"NAMEEN":"Shaimaa Clinic For Gynecological & Birth - Nizwa","WILLAYAT":" Wilayat Nizwa","GOV":" Ad Dakhliyah Governorate","LATITUDE":22.9357583,"LONGITUDE":58}},{"type":"Feature","id":19,"geometry":{"type":"Point","coordinates":[58.030794600345345,23.306139499757418]},"properties":{"FID":19,"NAMEEN":"Mohammed Al Nabhani Clinic - Samail","WILLAYAT":" Wilayat Samail","GOV":" Ad Dakhliyah Governorate","LATITUDE":23.3061395,"LONGITUDE":58}},{"type":"Feature","id":20,"geometry":{"type":"Point","coordinates":[59.199447508939542,22.216480421920124]},"properties":{"FID":20,"NAMEEN":"Al Mamurah Clinic - Al Kamil Wa Al Wafi","WILLAYAT":" Wilayat Al Kamil Wa Al Wafi","GOV":" Ash Sharqiyah South Governorate","LATITUDE":22.21648042,"LONGITUDE":59}},{"type":"Feature","id":21,"geometry":{"type":"Point","coordinates":[57.484208997403726,23.801937523295688]},"properties":{"FID":21,"NAMEEN":"Om Saih Clinic - Umm Sayh","WILLAYAT":" Wilayat As Suwayq","GOV":" Al Batinah North Governorate","LATITUDE":23.801937519999999,"LONGITUDE":57}},{"type":"Feature","id":22,"geometry":{"type":"Point","coordinates":[57.887069445093907,23.690535808961339]},"properties":{"FID":22,"NAMEEN":"Al Afiya Dental Clinic - Al Jinaynah","WILLAYAT":" Wilayat Barka","GOV":" Al Batinah South Governorate","LATITUDE":23.69053581,"LONGITUDE":58}},{"type":"Feature","id":23,"geometry":{"type":"Point","coordinates":[54.07296791162365,17.00935813243062]},"properties":{"FID":23,"NAMEEN":"Al Hadeeqah Dental Clinic - Salalah","WILLAYAT":" Wilayat Salalah","GOV":" Dhofar Governorate","LATITUDE":17.009358129999999,"LONGITUDE":54}},{"type":"Feature","id":24,"geometry":{"type":"Point","coordinates":[54.069248897211487,17.007347801058028]},"properties":{"FID":24,"NAMEEN":"Al Isaaf Dental Clinic - Salalah","WILLAYAT":" Wilayat Salalah","GOV":" Dhofar Governorate","LATITUDE":17.007347800000002,"LONGITUDE":54}},{"type":"Feature","id":25,"geometry":{"type":"Point","coordinates":[54.097757575726831,17.018734289391016]},"properties":{"FID":25,"NAMEEN":"Gulf Dental Center - Salalah","WILLAYAT":" Wilayat Salalah","GOV":" Dhofar Governorate","LATITUDE":17.018734290000001,"LONGITUDE":54}},{"type":"Feature","id":26,"geometry":{"type":"Point","coordinates":[54.106158763083187,17.015276468285794]},"properties":{"FID":26,"NAMEEN":"Mirbat Dental Clinic - Salalah","WILLAYAT":" Wilayat Salalah","GOV":" Dhofar Governorate","LATITUDE":17.01527647,"LONGITUDE":54}},{"type":"Feature","id":27,"geometry":{"type":"Point","coordinates":[54.022622770134703,17.009778493424903]},"properties":{"FID":27,"NAMEEN":"Al Rayan Dental Clinic - Salalah","WILLAYAT":" Wilayat Salalah","GOV":" Dhofar Governorate","LATITUDE":17.009778489999999,"LONGITUDE":54}},{"type":"Feature","id":28,"geometry":{"type":"Point","coordinates":[56.72952100019041,24.347005000221099]},"properties":{"FID":28,"NAMEEN":"Al Wasmi Dental Clinic - Sohar","WILLAYAT":" Wilayat Sohar","GOV":" Al Batinah North Governorate","LATITUDE":24.347004999999999,"LONGITUDE":57}},{"type":"Feature","id":29,"geometry":{"type":"Point","coordinates":[56.770014091327411,24.306278492196792]},"properties":{"FID":29,"NAMEEN":"Al Erteqa Dental Clinic - Sohar","WILLAYAT":" Wilayat Sohar","GOV":" Al Batinah North Governorate","LATITUDE":24.30627849,"LONGITUDE":57}},{"type":"Feature","id":30,"geometry":{"type":"Point","coordinates":[56.450874107120669,24.747058257931108]},"properties":{"FID":30,"NAMEEN":"Abu Bader Al Hosni Medical Clinic - Al Umani","WILLAYAT":" Wilayat Shinas","GOV":" Al Batinah North Governorate","LATITUDE":24.747058259999999,"LONGITUDE":56}},{"type":"Feature","id":31,"geometry":{"type":"Point","coordinates":[56.453381394128812,24.746488407057978]},"properties":{"FID":31,"NAMEEN":"Sultan Al Omari Dental Clinic - Al Umani","WILLAYAT":" Wilayat Shinas","GOV":" Al Batinah North Governorate","LATITUDE":24.746488410000001,"LONGITUDE":56}},{"type":"Feature","id":32,"geometry":{"type":"Point","coordinates":[58.442179529038611,23.588668243279315]},"properties":{"FID":32,"NAMEEN":"Crystal Denttal Clinic - Bawshar","WILLAYAT":" Wilayat Bawshar","GOV":" Muscat Governorate","LATITUDE":23.588668240000001,"LONGITUDE":58}},{"type":"Feature","id":33,"geometry":{"type":"Point","coordinates":[58.431594106857609,23.587851852137049]},"properties":{"FID":33,"NAMEEN":"Bowsher General Clinic - Bawshar","WILLAYAT":" Wilayat Bawshar","GOV":" Muscat Governorate","LATITUDE":23.58785185,"LONGITUDE":58}},{"type":"Feature","id":34,"geometry":{"type":"Point","coordinates":[58.107554200388314,23.653266299814732]},"properties":{"FID":34,"NAMEEN":"Al Awabi Medical Clinic - As Seeb","WILLAYAT":" Wilayat As Seeb","GOV":" Muscat Governorate","LATITUDE":23.653266299999999,"LONGITUDE":58}},{"type":"Feature","id":35,"geometry":{"type":"Point","coordinates":[58.204391599523646,23.621398700007187]},"properties":{"FID":35,"NAMEEN":"Hakeem Medical Center - As Seeb","WILLAYAT":" Wilayat As Seeb","GOV":" Muscat Governorate","LATITUDE":23.6213987,"LONGITUDE":58}},{"type":"Feature","id":36,"geometry":{"type":"Point","coordinates":[58.219438100337754,23.598310800399293]},"properties":{"FID":36,"NAMEEN":"Afaq Baghdad Dental Clinic - As Seeb","WILLAYAT":" Wilayat As Seeb","GOV":" Muscat Governorate","LATITUDE":23.5983108,"LONGITUDE":58}},{"type":"Feature","id":37,"geometry":{"type":"Point","coordinates":[58.489280000062685,23.60842999996779]},"properties":{"FID":37,"NAMEEN":"Zain World Clinic - Bawshar","WILLAYAT":" Wilayat Bawshar","GOV":" Muscat Governorate","LATITUDE":23.608429999999998,"LONGITUDE":58}},{"type":"Feature","id":38,"geometry":{"type":"Point","coordinates":[56.610964543524929,24.436082642402049]},"properties":{"FID":38,"NAMEEN":"Majees Clinic - Sohar","WILLAYAT":" Wilayat Sohar","GOV":" Al Batinah North Governorate","LATITUDE":24.436082639999999,"LONGITUDE":57}},{"type":"Feature","id":39,"geometry":{"type":"Point","coordinates":[56.610577158292642,24.42272833569821]},"properties":{"FID":39,"NAMEEN":"Saeed Al Shaer Medical Clinic - Sohar","WILLAYAT":" Wilayat Sohar","GOV":" Al Batinah North Governorate","LATITUDE":24.422728339999999,"LONGITUDE":57}},{"type":"Feature","id":40,"geometry":{"type":"Point","coordinates":[56.734505564403968,24.349695674090647]},"properties":{"FID":40,"NAMEEN":"Dejlah Specialized Denal Clinic - Sohar","WILLAYAT":" Wilayat Sohar","GOV":" Al Batinah North Governorate","LATITUDE":24.349695669999999,"LONGITUDE":57}},{"type":"Feature","id":41,"geometry":{"type":"Point","coordinates":[58.24803130860149,23.614758591355042]},"properties":{"FID":41,"NAMEEN":"Basma Dental & Oral Health Centre - As Seeb","WILLAYAT":" Wilayat As Seeb","GOV":" Muscat Governorate","LATITUDE":23.614758590000001,"LONGITUDE":58}},{"type":"Feature","id":42,"geometry":{"type":"Point","coordinates":[57.215406113896528,23.902343679328251]},"properties":{"FID":42,"NAMEEN":"Sanaa Medical Clinic - Diyan Al Bu Said","WILLAYAT":" Wilayat As Suwayq","GOV":" Al Batinah North Governorate","LATITUDE":23.902343680000001,"LONGITUDE":57}},{"type":"Feature","id":43,"geometry":{"type":"Point","coordinates":[58.356109585008674,23.577573332844505]},"properties":{"FID":43,"NAMEEN":"AlNajd Medical Clinic - Bawshar","WILLAYAT":" Wilayat Bawshar","GOV":" Muscat Governorate","LATITUDE":23.57757333,"LONGITUDE":58}},{"type":"Feature","id":44,"geometry":{"type":"Point","coordinates":[58.561894678311823,23.583878784637417]},"properties":{"FID":44,"NAMEEN":"Al Sawaqam Clinic - Mutrah","WILLAYAT":" Wilayat Mutrah","GOV":" Muscat Governorate","LATITUDE":23.583878779999999,"LONGITUDE":59}},{"type":"Feature","id":45,"geometry":{"type":"Point","coordinates":[59.29038194866974,22.076021512926232]},"properties":{"FID":45,"NAMEEN":"Ras Al Had clinic - Jaalan Bani Bu Hasan","WILLAYAT":" Wilayat Jaalan Bani Bu Hasan","GOV":" Ash Sharqiyah South Governorate","LATITUDE":22.07602151,"LONGITUDE":59}},{"type":"Feature","id":46,"geometry":{"type":"Point","coordinates":[55.770993544449254,24.258405034574945]},"properties":{"FID":46,"NAMEEN":"Al shahbaa dental laboratory - Al Buraymi","WILLAYAT":" Wilayat Al Buraymi","GOV":" Al Buraymi Governorate","LATITUDE":24.258405029999999,"LONGITUDE":56}},{"type":"Feature","id":47,"geometry":{"type":"Point","coordinates":[55.771454311608544,24.258562110422133]},"properties":{"FID":47,"NAMEEN":"Dar al maha dental clinic - Al Buraymi","WILLAYAT":" Wilayat Al Buraymi","GOV":" Al Buraymi Governorate","LATITUDE":24.25856211,"LONGITUDE":56}},{"type":"Feature","id":48,"geometry":{"type":"Point","coordinates":[58.543796651379168,23.594496350571177]},"properties":{"FID":48,"NAMEEN":"Ideal Health Clinic - Mutrah","WILLAYAT":" Wilayat Mutrah","GOV":" Muscat Governorate","LATITUDE":23.59449635,"LONGITUDE":59}},{"type":"Feature","id":49,"geometry":{"type":"Point","coordinates":[58.545677549728701,23.581753873169131]},"properties":{"FID":49,"NAMEEN":"Abu Meshal Clinic - Mutrah","WILLAYAT":" Wilayat Mutrah","GOV":" Muscat Governorate","LATITUDE":23.58175387,"LONGITUDE":59}},{"type":"Feature","id":50,"geometry":{"type":"Point","coordinates":[57.898736208306865,23.706684733784464]},"properties":{"FID":50,"NAMEEN":"Abdullah bin Yusuf bin Ali Clinic - Barka","WILLAYAT":" Wilayat Barka","GOV":" Al Batinah South Governorate","LATITUDE":23.706684729999999,"LONGITUDE":58}},{"type":"Feature","id":51,"geometry":{"type":"Point","coordinates":[55.772089307788292,24.25930265622544]},"properties":{"FID":51,"NAMEEN":"Rimas Dental Clinic - Al Buraymi","WILLAYAT":" Wilayat Al Buraymi","GOV":" Al Buraymi Governorate","LATITUDE":24.259302659999999,"LONGITUDE":56}},{"type":"Feature","id":52,"geometry":{"type":"Point","coordinates":[57.543555982306849,22.872355520287478]},"properties":{"FID":52,"NAMEEN":"Happiness Dental Clinic - Hayl Farq","WILLAYAT":" Wilayat Nizwa","GOV":" Ad Dakhliyah Governorate","LATITUDE":22.872355519999999,"LONGITUDE":58}},{"type":"Feature","id":53,"geometry":{"type":"Point","coordinates":[58.201909548605613,23.615067104201451]},"properties":{"FID":53,"NAMEEN":"Elite Dental Medical Center - As Seeb","WILLAYAT":" Wilayat As Seeb","GOV":" Muscat Governorate","LATITUDE":23.615067100000001,"LONGITUDE":58}},{"type":"Feature","id":54,"geometry":{"type":"Point","coordinates":[54.048167926280051,17.004164039397132]},"properties":{"FID":54,"NAMEEN":"Modern Saba Clinic - Salalah","WILLAYAT":" Wilayat Salalah","GOV":" Dhofar Governorate","LATITUDE":17.004164039999999,"LONGITUDE":54}},{"type":"Feature","id":55,"geometry":{"type":"Point","coordinates":[57.67733789869181,23.73695448926437]},"properties":{"FID":55,"NAMEEN":"Soqrat Clinic - Al Maghsar","WILLAYAT":" Wilayat Al Musanaah","GOV":" Al Batinah South Governorate","LATITUDE":23.736954489999999,"LONGITUDE":58}},{"type":"Feature","id":56,"geometry":{"type":"Point","coordinates":[57.437494209924758,23.849059737241404]},"properties":{"FID":56,"NAMEEN":"Al Hamadi Clinic - As Suwayq","WILLAYAT":" Wilayat As Suwayq","GOV":" Al Batinah North Governorate","LATITUDE":23.849059740000001,"LONGITUDE":57}},{"type":"Feature","id":57,"geometry":{"type":"Point","coordinates":[57.778902189054499,23.698475347315838]},"properties":{"FID":57,"NAMEEN":"Al Anwar Al Hadeetha Clinic - Al Uqdah","WILLAYAT":" Wilayat Barka","GOV":" Al Batinah South Governorate","LATITUDE":23.698475349999999,"LONGITUDE":58}},{"type":"Feature","id":58,"geometry":{"type":"Point","coordinates":[58.497812616972453,23.619018828437913]},"properties":{"FID":58,"NAMEEN":"Harub Dental & Surgical Clinic - Mutrah","WILLAYAT":" Wilayat Mutrah","GOV":" Muscat Governorate","LATITUDE":23.619018830000002,"LONGITUDE":58}},{"type":"Feature","id":59,"geometry":{"type":"Point","coordinates":[57.090612735067424,23.972594399879728]},"properties":{"FID":59,"NAMEEN":"Al Madayin Clinic - Al Khaburah","WILLAYAT":" Wilayat Al Khaburah","GOV":" Al Batinah North Governorate","LATITUDE":23.972594399999998,"LONGITUDE":57}},{"type":"Feature","id":60,"geometry":{"type":"Point","coordinates":[58.438397333828654,23.594504342774204]},"properties":{"FID":60,"NAMEEN":"Al Mamoon Dental Clinic - Bawshar","WILLAYAT":" Wilayat Bawshar","GOV":" Muscat Governorate","LATITUDE":23.59450434,"LONGITUDE":58}},{"type":"Feature","id":61,"geometry":{"type":"Point","coordinates":[57.310073799871518,22.986395799711151]},"properties":{"FID":61,"NAMEEN":"Medical Clinic - Bahla","WILLAYAT":" Wilayat Bahla","GOV":" Ad Dakhliyah Governorate","LATITUDE":22.9863958,"LONGITUDE":57}},{"type":"Feature","id":62,"geometry":{"type":"Point","coordinates":[58.120003800229512,23.427762200250054]},"properties":{"FID":62,"NAMEEN":"Al Kanaa Clinic - Al Waghlah","WILLAYAT":" Wilayat Bidbid","GOV":" Ad Dakhliyah Governorate","LATITUDE":23.4277622,"LONGITUDE":58}},{"type":"Feature","id":63,"geometry":{"type":"Point","coordinates":[58.375877378641434,23.593470421701646]},"properties":{"FID":63,"NAMEEN":"New Luxury Clinic - Bawshar","WILLAYAT":" Wilayat Bawshar","GOV":" Muscat Governorate","LATITUDE":23.593470419999999,"LONGITUDE":58}},{"type":"Feature","id":64,"geometry":{"type":"Point","coordinates":[57.530583299641457,22.934917100260733]},"properties":{"FID":64,"NAMEEN":"Isa Bin Nasser Dental Clinic - Nizwa","WILLAYAT":" Wilayat Nizwa","GOV":" Ad Dakhliyah Governorate","LATITUDE":22.9349171,"LONGITUDE":58}},{"type":"Feature","id":65,"geometry":{"type":"Point","coordinates":[57.475690000346916,22.853736999825589]},"properties":{"FID":65,"NAMEEN":"Almbaderh Medical Clinic - Taymsa","WILLAYAT":" Wilayat Nizwa","GOV":" Ad Dakhliyah Governorate","LATITUDE":22.853736999999999,"LONGITUDE":57}},{"type":"Feature","id":66,"geometry":{"type":"Point","coordinates":[57.957769600243722,23.29797700023504]},"properties":{"FID":66,"NAMEEN":"Al Israa Dental Clinic - Samail","WILLAYAT":" Wilayat Samail","GOV":" Ad Dakhliyah Governorate","LATITUDE":23.297976999999999,"LONGITUDE":58}},{"type":"Feature","id":67,"geometry":{"type":"Point","coordinates":[58.03939800008974,23.310181699762875]},"properties":{"FID":67,"NAMEEN":"Al Khoabar Clinic - Al Khubar","WILLAYAT":" Wilayat Samail","GOV":" Ad Dakhliyah Governorate","LATITUDE":23.310181700000001,"LONGITUDE":58}},{"type":"Feature","id":68,"geometry":{"type":"Point","coordinates":[55.781466487937699,24.247527878003449]},"properties":{"FID":68,"NAMEEN":"Ibn Khaldoon Clinic - Al Buraymi","WILLAYAT":" Wilayat Al Buraymi","GOV":" Al Buraymi Governorate","LATITUDE":24.24752788,"LONGITUDE":56}},{"type":"Feature","id":69,"geometry":{"type":"Point","coordinates":[55.773969275366269,24.243824915879006]},"properties":{"FID":69,"NAMEEN":"Al Rashid Dental Clinic - Al Buraymi","WILLAYAT":" Wilayat Al Buraymi","GOV":" Al Buraymi Governorate","LATITUDE":24.243824920000002,"LONGITUDE":56}},{"type":"Feature","id":70,"geometry":{"type":"Point","coordinates":[57.47627385684396,23.805093894027511]},"properties":{"FID":70,"NAMEEN":"Al Sara Clinic - Umm Sayh","WILLAYAT":" Wilayat As Suwayq","GOV":" Al Batinah North Governorate","LATITUDE":23.805093889999998,"LONGITUDE":57}},{"type":"Feature","id":71,"geometry":{"type":"Point","coordinates":[57.896421716964063,23.665383746895213]},"properties":{"FID":71,"NAMEEN":"Al Rasheed Dental Clinic - As Sawmhan","WILLAYAT":" Wilayat Barka","GOV":" Al Batinah South Governorate","LATITUDE":23.66538375,"LONGITUDE":58}},{"type":"Feature","id":72,"geometry":{"type":"Point","coordinates":[54.093863029260675,17.015527328194054]},"properties":{"FID":72,"NAMEEN":"Hisham Dental Clinic - Salalah","WILLAYAT":" Wilayat Salalah","GOV":" Dhofar Governorate","LATITUDE":17.015527330000001,"LONGITUDE":54}},{"type":"Feature","id":73,"geometry":{"type":"Point","coordinates":[54.090228714561128,17.01496421732319]},"properties":{"FID":73,"NAMEEN":"Al Zahir Dental Clinic - Salalah","WILLAYAT":" Wilayat Salalah","GOV":" Dhofar Governorate","LATITUDE":17.01496422,"LONGITUDE":54}},{"type":"Feature","id":74,"geometry":{"type":"Point","coordinates":[54.07580631140226,17.022503244094615]},"properties":{"FID":74,"NAMEEN":"Euro-Arabian Specialist Dental Center - Salalah","WILLAYAT":" Wilayat Salalah","GOV":" Dhofar Governorate","LATITUDE":17.022503239999999,"LONGITUDE":54}},{"type":"Feature","id":75,"geometry":{"type":"Point","coordinates":[56.520552027306643,23.254912595418297]},"properties":{"FID":75,"NAMEEN":"Saif Aelchendodi Medical Clinic - Al Araqi","WILLAYAT":" Wilayat Ibri","GOV":" Adh Dhahirah Governorate","LATITUDE":23.254912600000001,"LONGITUDE":57}},{"type":"Feature","id":76,"geometry":{"type":"Point","coordinates":[56.72915268396234,24.339606840661904]},"properties":{"FID":76,"NAMEEN":"Al Waqebah Dental Clinic - Sohar","WILLAYAT":" Wilayat Sohar","GOV":" Al Batinah North Governorate","LATITUDE":24.339606839999998,"LONGITUDE":57}},{"type":"Feature","id":77,"geometry":{"type":"Point","coordinates":[56.881132297067978,24.151987605930778]},"properties":{"FID":77,"NAMEEN":"Hasoon Saham Clinic - Al Huwayl","WILLAYAT":" Wilayat Saham","GOV":" Al Batinah North Governorate","LATITUDE":24.151987609999999,"LONGITUDE":57}},{"type":"Feature","id":78,"geometry":{"type":"Point","coordinates":[57.091365121535674,23.971682615968675]},"properties":{"FID":78,"NAMEEN":"Abu Badr Al Hosni Medical Clinic - Al Khaburah","WILLAYAT":" Wilayat Al Khaburah","GOV":" Al Batinah North Governorate","LATITUDE":23.971682619999999,"LONGITUDE":57}},{"type":"Feature","id":79,"geometry":{"type":"Point","coordinates":[58.404313808945368,23.591273467430955]},"properties":{"FID":79,"NAMEEN":"Bodoor Dental Clinic - Bawshar","WILLAYAT":" Wilayat Bawshar","GOV":" Muscat Governorate","LATITUDE":23.591273470000001,"LONGITUDE":58}},{"type":"Feature","id":80,"geometry":{"type":"Point","coordinates":[58.377491737108159,23.591661200347886]},"properties":{"FID":80,"NAMEEN":"Al Azaibah Dental Clinic - Bawshar","WILLAYAT":" Wilayat Bawshar","GOV":" Muscat Governorate","LATITUDE":23.591661200000001,"LONGITUDE":58}},{"type":"Feature","id":81,"geometry":{"type":"Point","coordinates":[58.49293065062259,23.473736581319432]},"properties":{"FID":81,"NAMEEN":"Jaber Bin Hayyan - Al Amrat","WILLAYAT":" Wilayat Al Amrat","GOV":" Muscat Governorate","LATITUDE":23.473736580000001,"LONGITUDE":58}},{"type":"Feature","id":82,"geometry":{"type":"Point","coordinates":[58.195195900131353,23.628190199951529]},"properties":{"FID":82,"NAMEEN":"Royal Center for Dental Medicine - As Seeb","WILLAYAT":" Wilayat As Seeb","GOV":" Muscat Governorate","LATITUDE":23.628190199999999,"LONGITUDE":58}},{"type":"Feature","id":83,"geometry":{"type":"Point","coordinates":[58.195121525177157,23.615590238685183]},"properties":{"FID":83,"NAMEEN":"Al Moamen General Clinic - As Seeb","WILLAYAT":" Wilayat As Seeb","GOV":" Muscat Governorate","LATITUDE":23.61559024,"LONGITUDE":58}},{"type":"Feature","id":84,"geometry":{"type":"Point","coordinates":[58.447130513346934,23.600349701406955]},"properties":{"FID":84,"NAMEEN":"Advanced Dental Center - Bawshar","WILLAYAT":" Wilayat Bawshar","GOV":" Muscat Governorate","LATITUDE":23.600349699999999,"LONGITUDE":58}},{"type":"Feature","id":85,"geometry":{"type":"Point","coordinates":[58.542432595051295,23.599604574653437]},"properties":{"FID":85,"NAMEEN":"Modern Medical Clinic - Mutrah","WILLAYAT":" Wilayat Mutrah","GOV":" Muscat Governorate","LATITUDE":23.59960457,"LONGITUDE":59}},{"type":"Feature","id":86,"geometry":{"type":"Point","coordinates":[57.40443351026223,23.829304051056528]},"properties":{"FID":86,"NAMEEN":"Damascus Dental Clinic - As Suwayq","WILLAYAT":" Wilayat As Suwayq","GOV":" Al Batinah North Governorate","LATITUDE":23.829304050000001,"LONGITUDE":57}},{"type":"Feature","id":87,"geometry":{"type":"Point","coordinates":[56.703024010702748,24.383325292390534]},"properties":{"FID":87,"NAMEEN":"Al Karamh Dental Clinic - Sohar","WILLAYAT":" Wilayat Sohar","GOV":" Al Batinah North Governorate","LATITUDE":24.383325289999998,"LONGITUDE":57}},{"type":"Feature","id":88,"geometry":{"type":"Point","coordinates":[56.70976410221288,24.348237925734068]},"properties":{"FID":88,"NAMEEN":"Al Shahad Clinic and Laboratory - Sohar","WILLAYAT":" Wilayat Sohar","GOV":" Al Batinah North Governorate","LATITUDE":24.34823793,"LONGITUDE":57}},{"type":"Feature","id":89,"geometry":{"type":"Point","coordinates":[58.547157778009222,23.591739691017306]},"properties":{"FID":89,"NAMEEN":"Dove Dental Clinic - Mutrah","WILLAYAT":" Wilayat Mutrah","GOV":" Muscat Governorate","LATITUDE":23.591739690000001,"LONGITUDE":59}},{"type":"Feature","id":90,"geometry":{"type":"Point","coordinates":[58.349749195979363,23.576770087950024]},"properties":{"FID":90,"NAMEEN":"Green Corner Clinic - Bawshar","WILLAYAT":" Wilayat Bawshar","GOV":" Muscat Governorate","LATITUDE":23.57677009,"LONGITUDE":58}},{"type":"Feature","id":91,"geometry":{"type":"Point","coordinates":[58.409767709438093,23.586034966584805]},"properties":{"FID":91,"NAMEEN":"White Palace Dental Clinic - Bawshar","WILLAYAT":" Wilayat Bawshar","GOV":" Muscat Governorate","LATITUDE":23.58603497,"LONGITUDE":58}},{"type":"Feature","id":92,"geometry":{"type":"Point","coordinates":[58.562160782953065,23.587369520999548]},"properties":{"FID":92,"NAMEEN":"Al Jumana Dental Clinic - Mutrah","WILLAYAT":" Wilayat Mutrah","GOV":" Muscat Governorate","LATITUDE":23.587369519999999,"LONGITUDE":59}},{"type":"Feature","id":93,"geometry":{"type":"Point","coordinates":[59.327459691074331,22.03673704708395]},"properties":{"FID":93,"NAMEEN":"Dar Al Anaya Clinic - Jaalan Bani Bu Ali","WILLAYAT":" Wilayat Jaalan Bani Bu Ali","GOV":" Ash Sharqiyah South Governorate","LATITUDE":22.036737049999999,"LONGITUDE":59}},{"type":"Feature","id":94,"geometry":{"type":"Point","coordinates":[57.891932238568486,23.664982904134451]},"properties":{"FID":94,"NAMEEN":"Excellent Gulf Centre for Dental Medicine - As Sawmhan","WILLAYAT":" Wilayat Barka","GOV":" Al Batinah South Governorate","LATITUDE":23.664982899999998,"LONGITUDE":58}},{"type":"Feature","id":95,"geometry":{"type":"Point","coordinates":[57.620326401464119,23.74567257809559]},"properties":{"FID":95,"NAMEEN":"Saleh Bin Juma Darweesh & Sons Clinic - At Turayf","WILLAYAT":" Wilayat Al Musanaah","GOV":" Al Batinah South Governorate","LATITUDE":23.745672580000001,"LONGITUDE":58}},{"type":"Feature","id":96,"geometry":{"type":"Point","coordinates":[58.222481999592603,23.642295999596136]},"properties":{"FID":96,"NAMEEN":"Dorat Al Khaleej Dental Clinic - As Seeb","WILLAYAT":" Wilayat As Seeb","GOV":" Muscat Governorate","LATITUDE":23.642296000000002,"LONGITUDE":58}},{"type":"Feature","id":97,"geometry":{"type":"Point","coordinates":[58.548035771364979,23.611987911307086]},"properties":{"FID":97,"NAMEEN":"Al Rawahi Clinic - Mutrah","WILLAYAT":" Wilayat Mutrah","GOV":" Muscat Governorate","LATITUDE":23.61198791,"LONGITUDE":59}},{"type":"Feature","id":98,"geometry":{"type":"Point","coordinates":[58.495272137470771,23.605946963221363]},"properties":{"FID":98,"NAMEEN":"Qurum Clinic  - Mutrah","WILLAYAT":" Wilayat Mutrah","GOV":" Muscat Governorate","LATITUDE":23.605946960000001,"LONGITUDE":58}},{"type":"Feature","id":99,"geometry":{"type":"Point","coordinates":[58.111599200142109,23.462707200363624]},"properties":{"FID":99,"NAMEEN":"Majan Clinic - Fanja","WILLAYAT":" Wilayat Bidbid","GOV":" Ad Dakhliyah Governorate","LATITUDE":23.462707200000001,"LONGITUDE":58}},{"type":"Feature","id":100,"geometry":{"type":"Point","coordinates":[58.39591452193558,23.586367844189802]},"properties":{"FID":100,"NAMEEN":"Al Mayas Dental Cilnic - Bawshar","WILLAYAT":" Wilayat Bawshar","GOV":" Muscat Governorate","LATITUDE":23.586367840000001,"LONGITUDE":58}},{"type":"Feature","id":101,"geometry":{"type":"Point","coordinates":[58.373896274906869,23.600843890308735]},"properties":{"FID":101,"NAMEEN":"Muscat Dental Center - Bawshar","WILLAYAT":" Wilayat Bawshar","GOV":" Muscat Governorate","LATITUDE":23.60084389,"LONGITUDE":58}},{"type":"Feature","id":102,"geometry":{"type":"Point","coordinates":[58.497925823828226,23.618562537072592]},"properties":{"FID":102,"NAMEEN":"Amira Dental Clinic - Mutrah","WILLAYAT":" Wilayat Mutrah","GOV":" Muscat Governorate","LATITUDE":23.618562539999999,"LONGITUDE":58}},{"type":"Feature","id":103,"geometry":{"type":"Point","coordinates":[58.360203811615008,23.57489662838848]},"properties":{"FID":103,"NAMEEN":"Nan,aa Medical Clinic - Bawshar","WILLAYAT":" Wilayat Bawshar","GOV":" Muscat Governorate","LATITUDE":23.574896630000001,"LONGITUDE":58}},{"type":"Feature","id":104,"geometry":{"type":"Point","coordinates":[58.384474648688006,23.591238914124354]},"properties":{"FID":104,"NAMEEN":"Top Medical Care - Bawshar","WILLAYAT":" Wilayat Bawshar","GOV":" Muscat Governorate","LATITUDE":23.591238910000001,"LONGITUDE":58}},{"type":"Feature","id":105,"geometry":{"type":"Point","coordinates":[57.74618050176327,23.714952684158074]},"properties":{"FID":105,"NAMEEN":"Al Hadeeb Clinic - Al Hadib","WILLAYAT":" Wilayat Barka","GOV":" Al Batinah South Governorate","LATITUDE":23.71495268,"LONGITUDE":58}},{"type":"Feature","id":106,"geometry":{"type":"Point","coordinates":[58.202766600293081,23.637880500317362]},"properties":{"FID":106,"NAMEEN":"Retag  Dental Clinic - As Seeb","WILLAYAT":" Wilayat As Seeb","GOV":" Muscat Governorate","LATITUDE":23.637880500000001,"LONGITUDE":58}},{"type":"Feature","id":107,"geometry":{"type":"Point","coordinates":[58.450296777449509,23.604474792581744]},"properties":{"FID":107,"NAMEEN":"Khimjis Health Care (Kaya skin Clinic) - Bawshar","WILLAYAT":" Wilayat Bawshar","GOV":" Muscat Governorate","LATITUDE":23.604474790000001,"LONGITUDE":58}},{"type":"Feature","id":108,"geometry":{"type":"Point","coordinates":[58.449877498806963,23.604163743617701]},"properties":{"FID":108,"NAMEEN":"Child dental Center - Bawshar","WILLAYAT":" Wilayat Bawshar","GOV":" Muscat Governorate","LATITUDE":23.604163740000001,"LONGITUDE":58}},{"type":"Feature","id":109,"geometry":{"type":"Point","coordinates":[57.831859058751867,23.395052875862945]},"properties":{"FID":109,"NAMEEN":"Nakhal Clinic - Nakhal","WILLAYAT":" Wilayat Nakhal","GOV":" Al Batinah South Governorate","LATITUDE":23.395052880000001,"LONGITUDE":58}},{"type":"Feature","id":110,"geometry":{"type":"Point","coordinates":[58.236082775001528,23.625615695225711]},"properties":{"FID":110,"NAMEEN":"Nasser Al-Ramdahani  Clinic - As Seeb","WILLAYAT":" Wilayat As Seeb","GOV":" Muscat Governorate","LATITUDE":23.625615700000001,"LONGITUDE":58}},{"type":"Feature","id":111,"geometry":{"type":"Point","coordinates":[58.137077500486313,23.676007800245731]},"properties":{"FID":111,"NAMEEN":"Al Rafedain Medical Clinic - As Seeb","WILLAYAT":" Wilayat As Seeb","GOV":" Muscat Governorate","LATITUDE":23.676007800000001,"LONGITUDE":58}},{"type":"Feature","id":112,"geometry":{"type":"Point","coordinates":[57.531498799699143,22.935799900245222]},"properties":{"FID":112,"NAMEEN":"Orchard Darc Clinic - Nizwa","WILLAYAT":" Wilayat Nizwa","GOV":" Ad Dakhliyah Governorate","LATITUDE":22.935799899999999,"LONGITUDE":58}},{"type":"Feature","id":113,"geometry":{"type":"Point","coordinates":[57.54377509956467,22.970250499941429]},"properties":{"FID":113,"NAMEEN":"Qarn Al Rawdah - Nizwa","WILLAYAT":" Wilayat Nizwa","GOV":" Ad Dakhliyah Governorate","LATITUDE":22.970250499999999,"LONGITUDE":58}},{"type":"Feature","id":114,"geometry":{"type":"Point","coordinates":[57.284865999909904,22.949772199615076]},"properties":{"FID":114,"NAMEEN":"Sincerity Dental Clinic\n - Bahla","WILLAYAT":" Wilayat Bahla","GOV":" Ad Dakhliyah Governorate","LATITUDE":22.949772200000002,"LONGITUDE":57}},{"type":"Feature","id":115,"geometry":{"type":"Point","coordinates":[57.953451502026297,23.300884693449142]},"properties":{"FID":115,"NAMEEN":"Isa Bin Nasser Dental Clinic - Samail","WILLAYAT":" Wilayat Samail","GOV":" Ad Dakhliyah Governorate","LATITUDE":23.30088469,"LONGITUDE":58}},{"type":"Feature","id":116,"geometry":{"type":"Point","coordinates":[58.546325003989068,22.696382360006815]},"properties":{"FID":116,"NAMEEN":"Alamiri Clinic - Ibra","WILLAYAT":" Wilayat Ibra","GOV":" Ash Sharqiyah North Governorate","LATITUDE":22.696382360000001,"LONGITUDE":59}},{"type":"Feature","id":117,"geometry":{"type":"Point","coordinates":[58.548536947959164,22.692870626580497]},"properties":{"FID":117,"NAMEEN":"AlLamma Clinic - Ibra","WILLAYAT":" Wilayat Ibra","GOV":" Ash Sharqiyah North Governorate","LATITUDE":22.692870630000002,"LONGITUDE":59}},{"type":"Feature","id":118,"geometry":{"type":"Point","coordinates":[55.774129056952681,24.24342083317265]},"properties":{"FID":118,"NAMEEN":"Al Yamama Dental Clinic - Al Buraymi","WILLAYAT":" Wilayat Al Buraymi","GOV":" Al Buraymi Governorate","LATITUDE":24.243420830000002,"LONGITUDE":56}},{"type":"Feature","id":119,"geometry":{"type":"Point","coordinates":[57.438619631384881,23.848120433785848]},"properties":{"FID":119,"NAMEEN":"Al Shaimaa Dental Center - As Suwayq","WILLAYAT":" Wilayat As Suwayq","GOV":" Al Batinah North Governorate","LATITUDE":23.848120430000002,"LONGITUDE":57}},{"type":"Feature","id":120,"geometry":{"type":"Point","coordinates":[57.890078595515611,23.666593015231314]},"properties":{"FID":120,"NAMEEN":"Shinas Dental Clinic - As Sawmhan","WILLAYAT":" Wilayat Barka","GOV":" Al Batinah South Governorate","LATITUDE":23.666593020000001,"LONGITUDE":58}},{"type":"Feature","id":121,"geometry":{"type":"Point","coordinates":[54.093547069914962,17.013670056873401]},"properties":{"FID":121,"NAMEEN":"Al Zahir Modern Dental Clinic - Salalah","WILLAYAT":" Wilayat Salalah","GOV":" Dhofar Governorate","LATITUDE":17.013670059999999,"LONGITUDE":54}},{"type":"Feature","id":122,"geometry":{"type":"Point","coordinates":[56.448800856209516,24.746594606224534]},"properties":{"FID":122,"NAMEEN":"Al Hassar Clinic - Al Hamliyah","WILLAYAT":" Wilayat Shinas","GOV":" Al Batinah North Governorate","LATITUDE":24.746594609999999,"LONGITUDE":56}},{"type":"Feature","id":123,"geometry":{"type":"Point","coordinates":[56.876611435458784,24.140670933941344]},"properties":{"FID":123,"NAMEEN":"Saham Medical Clinic - Murtafaat Saham","WILLAYAT":" Wilayat Saham","GOV":" Al Batinah North Governorate","LATITUDE":24.140670929999999,"LONGITUDE":57}},{"type":"Feature","id":124,"geometry":{"type":"Point","coordinates":[58.402615233015858,23.592954562315992]},"properties":{"FID":124,"NAMEEN":"Al Masah Dental Center - Bawshar","WILLAYAT":" Wilayat Bawshar","GOV":" Muscat Governorate","LATITUDE":23.592954559999999,"LONGITUDE":58}},{"type":"Feature","id":125,"geometry":{"type":"Point","coordinates":[58.396666057217701,23.575332349614122]},"properties":{"FID":125,"NAMEEN":"Jasmine Dental Clinic - Bawshar","WILLAYAT":" Wilayat Bawshar","GOV":" Muscat Governorate","LATITUDE":23.57533235,"LONGITUDE":58}},{"type":"Feature","id":126,"geometry":{"type":"Point","coordinates":[58.423972735221739,23.586245463245966]},"properties":{"FID":126,"NAMEEN":"Dentek Speciality Dental Clinic - Bawshar","WILLAYAT":" Wilayat Bawshar","GOV":" Muscat Governorate","LATITUDE":23.586245460000001,"LONGITUDE":58}},{"type":"Feature","id":127,"geometry":{"type":"Point","coordinates":[58.158999667476465,22.801182387686769]},"properties":{"FID":127,"NAMEEN":"Al Shrooq Dental Clinic - Samad Ash Shan","WILLAYAT":" Wilayat Al Mudaybi","GOV":" Ash Sharqiyah North Governorate","LATITUDE":22.801182390000001,"LONGITUDE":58}},{"type":"Feature","id":128,"geometry":{"type":"Point","coordinates":[58.027426654225778,22.49661463060168]},"properties":{"FID":128,"NAMEEN":"Samad Al Shan Clinic - Sinaw","WILLAYAT":" Wilayat Al Mudaybi","GOV":" Ash Sharqiyah North Governorate","LATITUDE":22.49661463,"LONGITUDE":58}},{"type":"Feature","id":129,"geometry":{"type":"Point","coordinates":[59.50975390589111,22.580748265266731]},"properties":{"FID":129,"NAMEEN":"Da Al Ameen Clinic - Sur","WILLAYAT":" Wilayat Sur","GOV":" Ash Sharqiyah South Governorate","LATITUDE":22.580748270000001,"LONGITUDE":60}},{"type":"Feature","id":130,"geometry":{"type":"Point","coordinates":[58.186640599794956,23.680502799722486]},"properties":{"FID":130,"NAMEEN":"Al Balsam Al Shafi Dental Clinic - As Seeb","WILLAYAT":" Wilayat As Seeb","GOV":" Muscat Governorate","LATITUDE":23.680502799999999,"LONGITUDE":58}},{"type":"Feature","id":131,"geometry":{"type":"Point","coordinates":[58.541321458629753,23.601752921856331]},"properties":{"FID":131,"NAMEEN":"Banu Hamdan Clinic - Mutrah","WILLAYAT":" Wilayat Mutrah","GOV":" Muscat Governorate","LATITUDE":23.601752919999999,"LONGITUDE":59}},{"type":"Feature","id":132,"geometry":{"type":"Point","coordinates":[58.540016548237027,23.598554812118657]},"properties":{"FID":132,"NAMEEN":"Al Karamh Detnal Clinic - Mutrah","WILLAYAT":" Wilayat Mutrah","GOV":" Muscat Governorate","LATITUDE":23.59855481,"LONGITUDE":59}},{"type":"Feature","id":133,"geometry":{"type":"Point","coordinates":[57.329683882160559,23.858207998075962]},"properties":{"FID":133,"NAMEEN":"Razan Dental Medical Center - Khadra Al Saad","WILLAYAT":" Wilayat As Suwayq","GOV":" Al Batinah North Governorate","LATITUDE":23.858208000000001,"LONGITUDE":57}},{"type":"Feature","id":134,"geometry":{"type":"Point","coordinates":[56.693648000329112,24.393516667069083]},"properties":{"FID":134,"NAMEEN":"Al Farah Medical Clinic - Sohar","WILLAYAT":" Wilayat Sohar","GOV":" Al Batinah North Governorate","LATITUDE":24.39351667,"LONGITUDE":57}},{"type":"Feature","id":135,"geometry":{"type":"Point","coordinates":[56.732377801024278,24.341625317017517]},"properties":{"FID":135,"NAMEEN":"Al Rihab Dintest Clinic - Sohar","WILLAYAT":" Wilayat Sohar","GOV":" Al Batinah North Governorate","LATITUDE":24.341625319999999,"LONGITUDE":57}},{"type":"Feature","id":136,"geometry":{"type":"Point","coordinates":[56.735463405683674,24.346360112872226]},"properties":{"FID":136,"NAMEEN":"Al Hikma Medical Clinic - Sohar","WILLAYAT":" Wilayat Sohar","GOV":" Al Batinah North Governorate","LATITUDE":24.346360109999999,"LONGITUDE":57}},{"type":"Feature","id":137,"geometry":{"type":"Point","coordinates":[57.330987903236519,23.857282542769646]},"properties":{"FID":137,"NAMEEN":"Abu Bader Al Hosni Clinic - Khadra Al Saad","WILLAYAT":" Wilayat As Suwayq","GOV":" Al Batinah North Governorate","LATITUDE":23.85728254,"LONGITUDE":57}},{"type":"Feature","id":138,"geometry":{"type":"Point","coordinates":[58.491396577613664,23.623017665963829]},"properties":{"FID":138,"NAMEEN":"Happy Kid Clinic  - Mutrah","WILLAYAT":" Wilayat Mutrah","GOV":" Muscat Governorate","LATITUDE":23.623017669999999,"LONGITUDE":58}},{"type":"Feature","id":139,"geometry":{"type":"Point","coordinates":[58.44771251232843,23.596106100047272]},"properties":{"FID":139,"NAMEEN":"Zain Dental Clinic - Bawshar","WILLAYAT":" Wilayat Bawshar","GOV":" Muscat Governorate","LATITUDE":23.5961061,"LONGITUDE":58}},{"type":"Feature","id":140,"geometry":{"type":"Point","coordinates":[58.546029254715158,23.597144182138287]},"properties":{"FID":140,"NAMEEN":"Marwan Al Balushi Clinic - Mutrah","WILLAYAT":" Wilayat Mutrah","GOV":" Muscat Governorate","LATITUDE":23.597144180000001,"LONGITUDE":59}},{"type":"Feature","id":141,"geometry":{"type":"Point","coordinates":[58.544041738471918,23.582415132379644]},"properties":{"FID":141,"NAMEEN":"Ibn Al Hazm Clinic - Mutrah","WILLAYAT":" Wilayat Mutrah","GOV":" Muscat Governorate","LATITUDE":23.582415130000001,"LONGITUDE":59}},{"type":"Feature","id":142,"geometry":{"type":"Point","coordinates":[55.771046655875402,24.259226223963676]},"properties":{"FID":142,"NAMEEN":"Golden Smile Dental Clinic - Al Buraymi","WILLAYAT":" Wilayat Al Buraymi","GOV":" Al Buraymi Governorate","LATITUDE":24.259226219999999,"LONGITUDE":56}},{"type":"Feature","id":143,"geometry":{"type":"Point","coordinates":[57.895649112012492,23.706961297188975]},"properties":{"FID":143,"NAMEEN":"Al Qorha Clinic - Barka","WILLAYAT":" Wilayat Barka","GOV":" Al Batinah South Governorate","LATITUDE":23.7069613,"LONGITUDE":58}},{"type":"Feature","id":144,"geometry":{"type":"Point","coordinates":[58.23163996094317,23.633549760177267]},"properties":{"FID":144,"NAMEEN":"Al Hail Clinic - As Seeb","WILLAYAT":" Wilayat As Seeb","GOV":" Muscat Governorate","LATITUDE":23.633549760000001,"LONGITUDE":58}},{"type":"Feature","id":145,"geometry":{"type":"Point","coordinates":[57.642344826759533,23.780423476063795]},"properties":{"FID":145,"NAMEEN":"Ali Hilal Al Sadi Clinic - Al Musanaah","WILLAYAT":" Wilayat Al Musanaah","GOV":" Al Batinah South Governorate","LATITUDE":23.78042348,"LONGITUDE":58}},{"type":"Feature","id":146,"geometry":{"type":"Point","coordinates":[58.542524521315741,23.597353649883296]},"properties":{"FID":146,"NAMEEN":"Star Clinic - Mutrah","WILLAYAT":" Wilayat Mutrah","GOV":" Muscat Governorate","LATITUDE":23.597353649999999,"LONGITUDE":59}},{"type":"Feature","id":147,"geometry":{"type":"Point","coordinates":[58.494214288585198,23.62144026591854]},"properties":{"FID":147,"NAMEEN":"Whit Smile Dental Speciality - Mutrah","WILLAYAT":" Wilayat Mutrah","GOV":" Muscat Governorate","LATITUDE":23.621440270000001,"LONGITUDE":58}},{"type":"Feature","id":148,"geometry":{"type":"Point","coordinates":[54.08497714859395,17.017817467801713]},"properties":{"FID":148,"NAMEEN":"Al Jawharah Dental Clinic - Salalah","WILLAYAT":" Wilayat Salalah","GOV":" Dhofar Governorate","LATITUDE":17.017817470000001,"LONGITUDE":54}},{"type":"Feature","id":149,"geometry":{"type":"Point","coordinates":[58.384326573214935,23.590263258147903]},"properties":{"FID":149,"NAMEEN":"Moon Light Dental Clinic - Bawshar","WILLAYAT":" Wilayat Bawshar","GOV":" Muscat Governorate","LATITUDE":23.59026326,"LONGITUDE":58}},{"type":"Feature","id":150,"geometry":{"type":"Point","coordinates":[57.552372341238389,23.80957090957045]},"properties":{"FID":150,"NAMEEN":"Widam Al Sahil Clinic - Wudam As Sahil","WILLAYAT":" Wilayat Al Musanaah","GOV":" Al Batinah South Governorate","LATITUDE":23.809570910000001,"LONGITUDE":58}},{"type":"Feature","id":151,"geometry":{"type":"Point","coordinates":[58.561730120581309,23.615220677874984]},"properties":{"FID":151,"NAMEEN":"Muscat Polyclinic - Mutrah","WILLAYAT":" Wilayat Mutrah","GOV":" Muscat Governorate","LATITUDE":23.61522068,"LONGITUDE":59}},{"type":"Feature","id":152,"geometry":{"type":"Point","coordinates":[58.453452547680051,23.611111116335294]},"properties":{"FID":152,"NAMEEN":"Precisoion Dentel Clinic - Bawshar","WILLAYAT":" Wilayat Bawshar","GOV":" Muscat Governorate","LATITUDE":23.61111112,"LONGITUDE":58}},{"type":"Feature","id":153,"geometry":{"type":"Point","coordinates":[57.068985666723634,23.957344738293589]},"properties":{"FID":153,"NAMEEN":"Al Rafedain Dental Clinic - Al Khaburah","WILLAYAT":" Wilayat Al Khaburah","GOV":" Al Batinah North Governorate","LATITUDE":23.95734474,"LONGITUDE":57}},{"type":"Feature","id":154,"geometry":{"type":"Point","coordinates":[56.744932993357871,24.369706259044495]},"properties":{"FID":154,"NAMEEN":"Barahat Sohar Clinic & Laboratory - Sohar","WILLAYAT":" Wilayat Sohar","GOV":" Al Batinah North Governorate","LATITUDE":24.369706260000001,"LONGITUDE":57}},{"type":"Feature","id":155,"geometry":{"type":"Point","coordinates":[58.202519500227467,23.637481500278749]},"properties":{"FID":155,"NAMEEN":"Al Eyadah Al Asriyah Dental Clinic - As Seeb","WILLAYAT":" Wilayat As Seeb","GOV":" Muscat Governorate","LATITUDE":23.6374815,"LONGITUDE":58}},{"type":"Feature","id":156,"geometry":{"type":"Point","coordinates":[57.530723100426741,22.935557700034909]},"properties":{"FID":156,"NAMEEN":"Haroon Dental Clinic - Nizwa","WILLAYAT":" Wilayat Nizwa","GOV":" Ad Dakhliyah Governorate","LATITUDE":22.9355577,"LONGITUDE":58}},{"type":"Feature","id":157,"geometry":{"type":"Point","coordinates":[58.453728151149754,23.599239551362103]},"properties":{"FID":157,"NAMEEN":"The Dental & Oral Center - Bawshar","WILLAYAT":" Wilayat Bawshar","GOV":" Muscat Governorate","LATITUDE":23.59923955,"LONGITUDE":58}},{"type":"Feature","id":158,"geometry":{"type":"Point","coordinates":[58.492800557526898,23.472928398639215]},"properties":{"FID":158,"NAMEEN":"Al Atkiyah Clinic - Al Amrat","WILLAYAT":" Wilayat Al Amrat","GOV":" Muscat Governorate","LATITUDE":23.472928400000001,"LONGITUDE":58}},{"type":"Feature","id":159,"geometry":{"type":"Point","coordinates":[58.545316798034122,23.588710108260727]},"properties":{"FID":159,"NAMEEN":"Luqman Clinic - Mutrah","WILLAYAT":" Wilayat Mutrah","GOV":" Muscat Governorate","LATITUDE":23.588710110000001,"LONGITUDE":59}},{"type":"Feature","id":160,"geometry":{"type":"Point","coordinates":[58.201506599878535,23.6371512999273]},"properties":{"FID":160,"NAMEEN":"Nawras Dental Clinic - As Seeb","WILLAYAT":" Wilayat As Seeb","GOV":" Muscat Governorate","LATITUDE":23.637151299999999,"LONGITUDE":58}},{"type":"Feature","id":161,"geometry":{"type":"Point","coordinates":[58.216669899647705,23.606141699893076]},"properties":{"FID":161,"NAMEEN":"Musk Dental Clinic - As Seeb","WILLAYAT":" Wilayat As Seeb","GOV":" Muscat Governorate","LATITUDE":23.606141699999998,"LONGITUDE":58}},{"type":"Feature","id":162,"geometry":{"type":"Point","coordinates":[58.108159799783799,23.65423459991106]},"properties":{"FID":162,"NAMEEN":"Dejlah Dental Clinic - As Seeb","WILLAYAT":" Wilayat As Seeb","GOV":" Muscat Governorate","LATITUDE":23.654234599999999,"LONGITUDE":58}},{"type":"Feature","id":163,"geometry":{"type":"Point","coordinates":[58.121560000332501,23.653051999899304]},"properties":{"FID":163,"NAMEEN":"Al Mobadarah Dental Clinic - As Seeb","WILLAYAT":" Wilayat As Seeb","GOV":" Muscat Governorate","LATITUDE":23.653051999999999,"LONGITUDE":58}},{"type":"Feature","id":164,"geometry":{"type":"Point","coordinates":[57.952524739537942,23.301916227415703]},"properties":{"FID":164,"NAMEEN":"Vision Mdical Clinic - Samail","WILLAYAT":" Wilayat Samail","GOV":" Ad Dakhliyah Governorate","LATITUDE":23.30191623,"LONGITUDE":58}},{"type":"Feature","id":165,"geometry":{"type":"Point","coordinates":[59.201707979051825,22.224428374828843]},"properties":{"FID":165,"NAMEEN":"Al Faisal modern Clinic - Al Kamil Wa Al Wafi","WILLAYAT":" Wilayat Al Kamil Wa Al Wafi","GOV":" Ash Sharqiyah South Governorate","LATITUDE":22.224428369999998,"LONGITUDE":59}},{"type":"Feature","id":166,"geometry":{"type":"Point","coordinates":[58.810609832332851,22.448997686846646]},"properties":{"FID":166,"NAMEEN":"Abu Bakr Al Razi Medical Clinic - Al Mintarib","WILLAYAT":" Wilayat Bidiyah","GOV":" Ash Sharqiyah North Governorate","LATITUDE":22.448997689999999,"LONGITUDE":59}},{"type":"Feature","id":167,"geometry":{"type":"Point","coordinates":[58.54160282499975,22.708299075415194]},"properties":{"FID":167,"NAMEEN":"AL Enaya Dental Clinic - Ibra","WILLAYAT":" Wilayat Ibra","GOV":" Ash Sharqiyah North Governorate","LATITUDE":22.70829908,"LONGITUDE":59}},{"type":"Feature","id":168,"geometry":{"type":"Point","coordinates":[58.546880730125906,22.696139272851365]},"properties":{"FID":168,"NAMEEN":"Al Mostaqeem Medical Clinic - Ibra","WILLAYAT":" Wilayat Ibra","GOV":" Ash Sharqiyah North Governorate","LATITUDE":22.69613927,"LONGITUDE":59}},{"type":"Feature","id":169,"geometry":{"type":"Point","coordinates":[55.789383329781998,24.257187713569458]},"properties":{"FID":169,"NAMEEN":"Snow White Dental Clinic - Al Buraymi","WILLAYAT":" Wilayat Al Buraymi","GOV":" Al Buraymi Governorate","LATITUDE":24.25718771,"LONGITUDE":56}},{"type":"Feature","id":170,"geometry":{"type":"Point","coordinates":[56.731808349117628,23.404480471689617]},"properties":{"FID":170,"NAMEEN":"National Mqanyat Clinic - Hijayrmat","WILLAYAT":" Wilayat Ibri","GOV":" Adh Dhahirah Governorate","LATITUDE":23.404480469999999,"LONGITUDE":57}},{"type":"Feature","id":171,"geometry":{"type":"Point","coordinates":[56.551561024327292,23.592350020812969]},"properties":{"FID":171,"NAMEEN":"Yonkil Dental Clinic - Yanqul","WILLAYAT":" Wilayat Yanqul","GOV":" Adh Dhahirah Governorate","LATITUDE":23.592350020000001,"LONGITUDE":57}},{"type":"Feature","id":172,"geometry":{"type":"Point","coordinates":[56.730111207072056,24.339784156125383]},"properties":{"FID":172,"NAMEEN":"Ataref Clinic - Sohar","WILLAYAT":" Wilayat Sohar","GOV":" Al Batinah North Governorate","LATITUDE":24.339784160000001,"LONGITUDE":57}},{"type":"Feature","id":173,"geometry":{"type":"Point","coordinates":[56.735013999848185,24.349906999815794]},"properties":{"FID":173,"NAMEEN":"Ahmed Suliman Al Kiyumi Medical Clinic - Sohar","WILLAYAT":" Wilayat Sohar","GOV":" Al Batinah North Governorate","LATITUDE":24.349907000000002,"LONGITUDE":57}},{"type":"Feature","id":174,"geometry":{"type":"Point","coordinates":[56.73143100037872,24.352723000258464]},"properties":{"FID":174,"NAMEEN":"Al Kaabi Dental Clinic - Sohar","WILLAYAT":" Wilayat Sohar","GOV":" Al Batinah North Governorate","LATITUDE":24.352723000000001,"LONGITUDE":57}},{"type":"Feature","id":175,"geometry":{"type":"Point","coordinates":[56.772405999846505,24.306875999889378]},"properties":{"FID":175,"NAMEEN":"Bubar Medical Clinic - Sohar","WILLAYAT":" Wilayat Sohar","GOV":" Al Batinah North Governorate","LATITUDE":24.306875999999999,"LONGITUDE":57}},{"type":"Feature","id":176,"geometry":{"type":"Point","coordinates":[56.736464000138618,24.345888000266175]},"properties":{"FID":176,"NAMEEN":"Ahmed Al Sadi Clinic - Sohar","WILLAYAT":" Wilayat Sohar","GOV":" Al Batinah North Governorate","LATITUDE":24.345887999999999,"LONGITUDE":57}},{"type":"Feature","id":177,"geometry":{"type":"Point","coordinates":[56.449214148761293,24.746654467603282]},"properties":{"FID":177,"NAMEEN":"Qais Al Saadi Dental Clinic  - Al Hamliyah","WILLAYAT":" Wilayat Shinas","GOV":" Al Batinah North Governorate","LATITUDE":24.746654469999999,"LONGITUDE":56}},{"type":"Feature","id":178,"geometry":{"type":"Point","coordinates":[56.873190539780502,24.141526763450671]},"properties":{"FID":178,"NAMEEN":"Hamed Bin Saeed Al Abdul Al Salam Clinic - Murtafaat Saham","WILLAYAT":" Wilayat Saham","GOV":" Al Batinah North Governorate","LATITUDE":24.141526760000001,"LONGITUDE":57}},{"type":"Feature","id":179,"geometry":{"type":"Point","coordinates":[58.381885417405158,23.574970804336584]},"properties":{"FID":179,"NAMEEN":"Al Nabhani Clinic - Bawshar","WILLAYAT":" Wilayat Bawshar","GOV":" Muscat Governorate","LATITUDE":23.574970799999999,"LONGITUDE":58}},{"type":"Feature","id":180,"geometry":{"type":"Point","coordinates":[58.396782672093188,23.586681561300551]},"properties":{"FID":180,"NAMEEN":"Gahla Clinic - Bawshar","WILLAYAT":" Wilayat Bawshar","GOV":" Muscat Governorate","LATITUDE":23.586681559999999,"LONGITUDE":58}},{"type":"Feature","id":181,"geometry":{"type":"Point","coordinates":[58.406104434611237,23.586523192227336]},"properties":{"FID":181,"NAMEEN":"Al Lala Almethaliy Dental Clinic - Bawshar","WILLAYAT":" Wilayat Bawshar","GOV":" Muscat Governorate","LATITUDE":23.586523190000001,"LONGITUDE":58}},{"type":"Feature","id":182,"geometry":{"type":"Point","coordinates":[58.441996674764646,23.588731190671464]},"properties":{"FID":182,"NAMEEN":"Finland Osteopathy Clinic (Spine & Joints) - Bawshar","WILLAYAT":" Wilayat Bawshar","GOV":" Muscat Governorate","LATITUDE":23.588731190000001,"LONGITUDE":58}},{"type":"Feature","id":183,"geometry":{"type":"Point","coordinates":[58.149537753413298,22.794612345557606]},"properties":{"FID":183,"NAMEEN":"Abu Abdulaziz Alrashdi Clinic - Samad Ash Shan","WILLAYAT":" Wilayat Al Mudaybi","GOV":" Ash Sharqiyah North Governorate","LATITUDE":22.794612350000001,"LONGITUDE":58}},{"type":"Feature","id":184,"geometry":{"type":"Point","coordinates":[58.897073778169471,23.232045164896544]},"properties":{"FID":184,"NAMEEN":"Al Haitha Clinic - Qurayyat","WILLAYAT":" Wilayat Qurayyat","GOV":" Muscat Governorate","LATITUDE":23.232045159999998,"LONGITUDE":59}},{"type":"Feature","id":185,"geometry":{"type":"Point","coordinates":[58.204836899510639,23.640331799586701]},"properties":{"FID":185,"NAMEEN":"Al Nibras Dental Medical Center - As Seeb","WILLAYAT":" Wilayat As Seeb","GOV":" Muscat Governorate","LATITUDE":23.640331799999998,"LONGITUDE":58}},{"type":"Feature","id":186,"geometry":{"type":"Point","coordinates":[58.18463579954534,23.683676000250962]},"properties":{"FID":186,"NAMEEN":"Alsheradi Clinic - As Seeb","WILLAYAT":" Wilayat As Seeb","GOV":" Muscat Governorate","LATITUDE":23.683675999999998,"LONGITUDE":58}},{"type":"Feature","id":187,"geometry":{"type":"Point","coordinates":[58.110940199775243,23.637608900289237]},"properties":{"FID":187,"NAMEEN":"Nojoom Al Majd Clinic - As Seeb","WILLAYAT":" Wilayat As Seeb","GOV":" Muscat Governorate","LATITUDE":23.6376089,"LONGITUDE":58}},{"type":"Feature","id":188,"geometry":{"type":"Point","coordinates":[58.226103388465496,23.613082667834455]},"properties":{"FID":188,"NAMEEN":"Muscat Smile Dental Clinic - As Seeb","WILLAYAT":" Wilayat As Seeb","GOV":" Muscat Governorate","LATITUDE":23.613082670000001,"LONGITUDE":58}},{"type":"Feature","id":189,"geometry":{"type":"Point","coordinates":[58.2300376758742,23.607650689118636]},"properties":{"FID":189,"NAMEEN":"Splendor Smile Dental Center  - As Seeb","WILLAYAT":" Wilayat As Seeb","GOV":" Muscat Governorate","LATITUDE":23.60765069,"LONGITUDE":58}},{"type":"Feature","id":190,"geometry":{"type":"Point","coordinates":[57.331154235162188,23.85709551629802]},"properties":{"FID":190,"NAMEEN":"Awjad Al Hoosni Dental Clinic - Khadra Al Saad","WILLAYAT":" Wilayat As Suwayq","GOV":" Al Batinah North Governorate","LATITUDE":23.857095520000001,"LONGITUDE":57}},{"type":"Feature","id":191,"geometry":{"type":"Point","coordinates":[56.336430325433966,25.281473786216445]},"properties":{"FID":191,"NAMEEN":"Aldeyar clinic for obstetric and gynecology - Madha","WILLAYAT":" Wilayat Madha","GOV":" Musandam Governorate","LATITUDE":25.28147379,"LONGITUDE":56}},{"type":"Feature","id":192,"geometry":{"type":"Point","coordinates":[56.336050242506282,25.281961803746032]},"properties":{"FID":192,"NAMEEN":"Madha madical clinic genaral clinic - Madha","WILLAYAT":" Wilayat Madha","GOV":" Musandam Governorate","LATITUDE":25.281961800000001,"LONGITUDE":56}},{"type":"Feature","id":193,"geometry":{"type":"Point","coordinates":[58.405671661984606,23.587486386044372]},"properties":{"FID":193,"NAMEEN":"Sun Dental Center - Bawshar","WILLAYAT":" Wilayat Bawshar","GOV":" Muscat Governorate","LATITUDE":23.587486389999999,"LONGITUDE":58}},{"type":"Feature","id":194,"geometry":{"type":"Point","coordinates":[57.520549804581272,23.786800602006586]},"properties":{"FID":194,"NAMEEN":"Ahlam Altharmad Clinic - Ath Tharmad","WILLAYAT":" Wilayat As Suwayq","GOV":" Al Batinah North Governorate","LATITUDE":23.786800599999999,"LONGITUDE":58}},{"type":"Feature","id":195,"geometry":{"type":"Point","coordinates":[58.441693671181504,23.592350517021927]},"properties":{"FID":195,"NAMEEN":"Advanced Fertility And Genetics Center Pharmacy  - Bawshar","WILLAYAT":" Wilayat Bawshar","GOV":" Muscat Governorate","LATITUDE":23.59235052,"LONGITUDE":58}},{"type":"Feature","id":196,"geometry":{"type":"Point","coordinates":[58.19633591912951,23.62789235174748]},"properties":{"FID":196,"NAMEEN":"Alauddon Dental Clonic - As Seeb","WILLAYAT":" Wilayat As Seeb","GOV":" Muscat Governorate","LATITUDE":23.62789235,"LONGITUDE":58}},{"type":"Feature","id":197,"geometry":{"type":"Point","coordinates":[56.735841999784483,24.346590000046042]},"properties":{"FID":197,"NAMEEN":"Al Ghayl Dental Clinic - Sohar","WILLAYAT":" Wilayat Sohar","GOV":" Al Batinah North Governorate","LATITUDE":24.346589999999999,"LONGITUDE":57}},{"type":"Feature","id":198,"geometry":{"type":"Point","coordinates":[58.455214093060789,23.608558704551228]},"properties":{"FID":198,"NAMEEN":"American Dental Center - Bawshar","WILLAYAT":" Wilayat Bawshar","GOV":" Muscat Governorate","LATITUDE":23.6085587,"LONGITUDE":58}},{"type":"Feature","id":199,"geometry":{"type":"Point","coordinates":[58.916081896108302,23.262965687272175]},"properties":{"FID":199,"NAMEEN":"Makalawabar Dental Clinic - Qurayyat","WILLAYAT":" Wilayat Qurayyat","GOV":" Muscat Governorate","LATITUDE":23.262965690000001,"LONGITUDE":59}},{"type":"Feature","id":200,"geometry":{"type":"Point","coordinates":[58.23737199116249,23.627083355809571]},"properties":{"FID":200,"NAMEEN":"Burj Al Nahdah - As Seeb","WILLAYAT":" Wilayat As Seeb","GOV":" Muscat Governorate","LATITUDE":23.62708336,"LONGITUDE":58}},{"type":"Feature","id":201,"geometry":{"type":"Point","coordinates":[58.200474900264204,23.63612700040672]},"properties":{"FID":201,"NAMEEN":"Al Yasmeen Clinic - As Seeb","WILLAYAT":" Wilayat As Seeb","GOV":" Muscat Governorate","LATITUDE":23.636126999999998,"LONGITUDE":58}},{"type":"Feature","id":202,"geometry":{"type":"Point","coordinates":[56.968398189986317,24.088525086741278]},"properties":{"FID":202,"NAMEEN":"Juma Abdulla Al Braiki Medical Clinic - Ar Raddah","WILLAYAT":" Wilayat Saham","GOV":" Al Batinah North Governorate","LATITUDE":24.088525090000001,"LONGITUDE":57}},{"type":"Feature","id":203,"geometry":{"type":"Point","coordinates":[57.286929699674864,22.950802500065635]},"properties":{"FID":203,"NAMEEN":"Duroob Al-Shifa'A Dental Clinic - Bahla","WILLAYAT":" Wilayat Bahla","GOV":" Ad Dakhliyah Governorate","LATITUDE":22.950802500000002,"LONGITUDE":57}},{"type":"Feature","id":204,"geometry":{"type":"Point","coordinates":[58.405208460114729,23.59056761677353]},"properties":{"FID":204,"NAMEEN":"Al Ghobrah Dental Clinic - Bawshar","WILLAYAT":" Wilayat Bawshar","GOV":" Muscat Governorate","LATITUDE":23.590567620000002,"LONGITUDE":58}},{"type":"Feature","id":205,"geometry":{"type":"Point","coordinates":[57.945892400451541,23.283129200097751]},"properties":{"FID":205,"NAMEEN":"Al Anfal Clinic - Samail","WILLAYAT":" Wilayat Samail","GOV":" Ad Dakhliyah Governorate","LATITUDE":23.283129200000001,"LONGITUDE":58}},{"type":"Feature","id":206,"geometry":{"type":"Point","coordinates":[58.452566373981597,23.603142039331804]},"properties":{"FID":206,"NAMEEN":"Euro-Arabian Specialist Dental Center - Bawshar","WILLAYAT":" Wilayat Bawshar","GOV":" Muscat Governorate","LATITUDE":23.603142040000002,"LONGITUDE":58}},{"type":"Feature","id":207,"geometry":{"type":"Point","coordinates":[54.393595558253551,17.038000351034476]},"properties":{"FID":207,"NAMEEN":"Hayel Clinic - Taqah","WILLAYAT":" Wilayat Taqah","GOV":" Dhofar Governorate","LATITUDE":17.038000350000001,"LONGITUDE":54}},{"type":"Feature","id":208,"geometry":{"type":"Point","coordinates":[58.495695152419266,23.620444360939043]},"properties":{"FID":208,"NAMEEN":"Al Hadi Clinic - Mutrah","WILLAYAT":" Wilayat Mutrah","GOV":" Muscat Governorate","LATITUDE":23.62044436,"LONGITUDE":58}},{"type":"Feature","id":209,"geometry":{"type":"Point","coordinates":[58.463856105226675,23.612252015049464]},"properties":{"FID":209,"NAMEEN":"Afnan Dental Clinic - Bawshar","WILLAYAT":" Wilayat Bawshar","GOV":" Muscat Governorate","LATITUDE":23.61225202,"LONGITUDE":58}},{"type":"Feature","id":210,"geometry":{"type":"Point","coordinates":[58.122835899669084,23.415066500279409]},"properties":{"FID":210,"NAMEEN":"Bidbid Medical Clinic - Bidbid","WILLAYAT":" Wilayat Bidbid","GOV":" Ad Dakhliyah Governorate","LATITUDE":23.415066499999998,"LONGITUDE":58}},{"type":"Feature","id":211,"geometry":{"type":"Point","coordinates":[54.083297715795936,17.012197825791294]},"properties":{"FID":211,"NAMEEN":"Baghdad Dental Clinic - Salalah","WILLAYAT":" Wilayat Salalah","GOV":" Dhofar Governorate","LATITUDE":17.012197830000002,"LONGITUDE":54}},{"type":"Feature","id":212,"geometry":{"type":"Point","coordinates":[57.607123599861467,22.784708400304325]},"properties":{"FID":212,"NAMEEN":"Ijtihad Medical Clinic - Manah","WILLAYAT":" Wilayat Manah","GOV":" Ad Dakhliyah Governorate","LATITUDE":22.7847084,"LONGITUDE":58}},{"type":"Feature","id":213,"geometry":{"type":"Point","coordinates":[58.797935327544877,22.460716548122303]},"properties":{"FID":213,"NAMEEN":"Al Shariq Medical Clinic - Al Mintarib","WILLAYAT":" Wilayat Bidiyah","GOV":" Ash Sharqiyah North Governorate","LATITUDE":22.460716550000001,"LONGITUDE":59}},{"type":"Feature","id":214,"geometry":{"type":"Point","coordinates":[55.782315910271173,24.247497246123775]},"properties":{"FID":214,"NAMEEN":"Dar AL Salam Dental Clinic - Al Buraymi","WILLAYAT":" Wilayat Al Buraymi","GOV":" Al Buraymi Governorate","LATITUDE":24.247497249999999,"LONGITUDE":56}},{"type":"Feature","id":215,"geometry":{"type":"Point","coordinates":[55.783001291258508,24.250500879187509]},"properties":{"FID":215,"NAMEEN":"Al Maaza Medical Clinic - Al Buraymi","WILLAYAT":" Wilayat Al Buraymi","GOV":" Al Buraymi Governorate","LATITUDE":24.250500880000001,"LONGITUDE":56}},{"type":"Feature","id":216,"geometry":{"type":"Point","coordinates":[55.772236403668245,24.25927103202886]},"properties":{"FID":216,"NAMEEN":"Al Itqan Dental Clinic - Al Buraymi","WILLAYAT":" Wilayat Al Buraymi","GOV":" Al Buraymi Governorate","LATITUDE":24.259271030000001,"LONGITUDE":56}},{"type":"Feature","id":217,"geometry":{"type":"Point","coordinates":[57.436030441653799,23.838344264930523]},"properties":{"FID":217,"NAMEEN":"Abu Said Al Habsi Clinic - As Suwayq","WILLAYAT":" Wilayat As Suwayq","GOV":" Al Batinah North Governorate","LATITUDE":23.83834426,"LONGITUDE":57}},{"type":"Feature","id":218,"geometry":{"type":"Point","coordinates":[57.41589407008837,23.827383965874883]},"properties":{"FID":218,"NAMEEN":"Al-Suwaiq Dental Clinic - As Suwayq","WILLAYAT":" Wilayat As Suwayq","GOV":" Al Batinah North Governorate","LATITUDE":23.82738397,"LONGITUDE":57}},{"type":"Feature","id":219,"geometry":{"type":"Point","coordinates":[57.892021534801401,23.707540857383865]},"properties":{"FID":219,"NAMEEN":"Al Hoosh Clinic - Barka","WILLAYAT":" Wilayat Barka","GOV":" Al Batinah South Governorate","LATITUDE":23.707540860000002,"LONGITUDE":58}},{"type":"Feature","id":220,"geometry":{"type":"Point","coordinates":[54.087485230923654,17.010774119266657]},"properties":{"FID":220,"NAMEEN":"Taiba Dental Clinic - Salalah","WILLAYAT":" Wilayat Salalah","GOV":" Dhofar Governorate","LATITUDE":17.010774120000001,"LONGITUDE":54}},{"type":"Feature","id":221,"geometry":{"type":"Point","coordinates":[56.261464900208132,25.609159199706657]},"properties":{"FID":221,"NAMEEN":"General Medical Dental & Clinic - Daba","WILLAYAT":" Wilayat Daba","GOV":" Musandam Governorate","LATITUDE":25.609159200000001,"LONGITUDE":56}},{"type":"Feature","id":222,"geometry":{"type":"Point","coordinates":[56.543065072863108,23.276903102562564]},"properties":{"FID":222,"NAMEEN":"Tiebat Al Ayinin General Medical Clinic - Al Araqi","WILLAYAT":" Wilayat Ibri","GOV":" Adh Dhahirah Governorate","LATITUDE":23.276903099999998,"LONGITUDE":57}},{"type":"Feature","id":223,"geometry":{"type":"Point","coordinates":[56.555654584109348,23.592012589778108]},"properties":{"FID":223,"NAMEEN":"Altdamon Clinic - Yanqul","WILLAYAT":" Wilayat Yanqul","GOV":" Adh Dhahirah Governorate","LATITUDE":23.59201259,"LONGITUDE":57}},{"type":"Feature","id":224,"geometry":{"type":"Point","coordinates":[56.438268483774486,24.80386973299419]},"properties":{"FID":224,"NAMEEN":"Warathat Mohammed Bin Hatem Medical Clinic - Al Aqur","WILLAYAT":" Wilayat Shinas","GOV":" Al Batinah North Governorate","LATITUDE":24.803869729999999,"LONGITUDE":56}},{"type":"Feature","id":225,"geometry":{"type":"Point","coordinates":[56.435369720435034,24.803935354558291]},"properties":{"FID":225,"NAMEEN":"Al Oqar Medical Clinic - Al Aqur","WILLAYAT":" Wilayat Shinas","GOV":" Al Batinah North Governorate","LATITUDE":24.80393535,"LONGITUDE":56}},{"type":"Feature","id":226,"geometry":{"type":"Point","coordinates":[56.875257844579508,24.141630835686215]},"properties":{"FID":226,"NAMEEN":"Al Gahyl Clinic Medical - Murtafaat Saham","WILLAYAT":" Wilayat Saham","GOV":" Al Batinah North Governorate","LATITUDE":24.141630840000001,"LONGITUDE":57}},{"type":"Feature","id":227,"geometry":{"type":"Point","coordinates":[57.09382900001436,23.972263000030686]},"properties":{"FID":227,"NAMEEN":"Jamal Al Naimi Clinic - Al Khaburah","WILLAYAT":" Wilayat Al Khaburah","GOV":" Al Batinah North Governorate","LATITUDE":23.972263000000002,"LONGITUDE":57}},{"type":"Feature","id":228,"geometry":{"type":"Point","coordinates":[58.40158398874437,23.585398754626148]},"properties":{"FID":228,"NAMEEN":"Healthy Life Clinic - Bawshar","WILLAYAT":" Wilayat Bawshar","GOV":" Muscat Governorate","LATITUDE":23.58539875,"LONGITUDE":58}},{"type":"Feature","id":229,"geometry":{"type":"Point","coordinates":[58.403806852334945,23.592105707279885]},"properties":{"FID":229,"NAMEEN":"Al Ibtisama Dental Clinic - Bawshar","WILLAYAT":" Wilayat Bawshar","GOV":" Muscat Governorate","LATITUDE":23.592105709999998,"LONGITUDE":58}},{"type":"Feature","id":230,"geometry":{"type":"Point","coordinates":[58.39704863204561,23.575080296687126]},"properties":{"FID":230,"NAMEEN":"Dawood Dental Clinic - Bawshar","WILLAYAT":" Wilayat Bawshar","GOV":" Muscat Governorate","LATITUDE":23.5750803,"LONGITUDE":58}},{"type":"Feature","id":231,"geometry":{"type":"Point","coordinates":[58.439979494703294,23.596338986576942]},"properties":{"FID":231,"NAMEEN":"Waneela Polyclinic - Bawshar","WILLAYAT":" Wilayat Bawshar","GOV":" Muscat Governorate","LATITUDE":23.59633899,"LONGITUDE":58}},{"type":"Feature","id":232,"geometry":{"type":"Point","coordinates":[58.122211283970621,22.570497883358165]},"properties":{"FID":232,"NAMEEN":"Abu Badar Al Hosni Medical Clinic - Al Mudaybi","WILLAYAT":" Wilayat Al Mudaybi","GOV":" Ash Sharqiyah North Governorate","LATITUDE":22.570497880000001,"LONGITUDE":58}},{"type":"Feature","id":233,"geometry":{"type":"Point","coordinates":[58.030934898354225,22.503322948831993]},"properties":{"FID":233,"NAMEEN":"Clinic Ahla Ibstama Teath - Sinaw","WILLAYAT":" Wilayat Al Mudaybi","GOV":" Ash Sharqiyah North Governorate","LATITUDE":22.503322950000001,"LONGITUDE":58}},{"type":"Feature","id":234,"geometry":{"type":"Point","coordinates":[58.493092996951034,23.473660945140772]},"properties":{"FID":234,"NAMEEN":"Umm Salama Polyclinic - Al Amrat","WILLAYAT":" Wilayat Al Amrat","GOV":" Muscat Governorate","LATITUDE":23.473660949999999,"LONGITUDE":58}},{"type":"Feature","id":235,"geometry":{"type":"Point","coordinates":[58.49131484301919,23.623008506197237]},"properties":{"FID":235,"NAMEEN":"White Pearl Dental Clinic - Mutrah","WILLAYAT":" Wilayat Mutrah","GOV":" Muscat Governorate","LATITUDE":23.623008509999998,"LONGITUDE":58}},{"type":"Feature","id":236,"geometry":{"type":"Point","coordinates":[56.618145989928308,24.420585235644005]},"properties":{"FID":236,"NAMEEN":"Al Mashriq Clinic - Sohar","WILLAYAT":" Wilayat Sohar","GOV":" Al Batinah North Governorate","LATITUDE":24.420585240000001,"LONGITUDE":57}},{"type":"Feature","id":237,"geometry":{"type":"Point","coordinates":[57.520488920324404,23.786833298242108]},"properties":{"FID":237,"NAMEEN":"Al Jabir Medical Clinic - Ath Tharmad","WILLAYAT":" Wilayat As Suwayq","GOV":" Al Batinah North Governorate","LATITUDE":23.786833300000001,"LONGITUDE":58}},{"type":"Feature","id":238,"geometry":{"type":"Point","coordinates":[58.447704372857707,23.596033417581104]},"properties":{"FID":238,"NAMEEN":"Mariam Medical Clinic - Bawshar","WILLAYAT":" Wilayat Bawshar","GOV":" Muscat Governorate","LATITUDE":23.596033420000001,"LONGITUDE":58}},{"type":"Feature","id":239,"geometry":{"type":"Point","coordinates":[58.455070431431402,23.608540089747262]},"properties":{"FID":239,"NAMEEN":"American Dental Center  - Bawshar","WILLAYAT":" Wilayat Bawshar","GOV":" Muscat Governorate","LATITUDE":23.608540090000002,"LONGITUDE":58}},{"type":"Feature","id":240,"geometry":{"type":"Point","coordinates":[58.206449299791203,23.639906799615375]},"properties":{"FID":240,"NAMEEN":"Al Wedad Dental Clinic - As Seeb","WILLAYAT":" Wilayat As Seeb","GOV":" Muscat Governorate","LATITUDE":23.639906799999999,"LONGITUDE":58}},{"type":"Feature","id":241,"geometry":{"type":"Point","coordinates":[58.486736489305187,23.511215166120436]},"properties":{"FID":241,"NAMEEN":"Al Maerat Dental Medical Center - Al Amrat","WILLAYAT":" Wilayat Al Amrat","GOV":" Muscat Governorate","LATITUDE":23.51121517,"LONGITUDE":58}},{"type":"Feature","id":242,"geometry":{"type":"Point","coordinates":[59.331442687837402,22.034941044669274]},"properties":{"FID":242,"NAMEEN":"Al Reef Dental clinic - Jaalan Bani Bu Ali","WILLAYAT":" Wilayat Jaalan Bani Bu Ali","GOV":" Ash Sharqiyah South Governorate","LATITUDE":22.03494104,"LONGITUDE":59}},{"type":"Feature","id":243,"geometry":{"type":"Point","coordinates":[55.785050554118001,24.248960421838056]},"properties":{"FID":243,"NAMEEN":"Sur Horizons Dental Clinic - Al Buraymi","WILLAYAT":" Wilayat Al Buraymi","GOV":" Al Buraymi Governorate","LATITUDE":24.24896042,"LONGITUDE":56}},{"type":"Feature","id":244,"geometry":{"type":"Point","coordinates":[57.678394976215117,23.735974636285956]},"properties":{"FID":244,"NAMEEN":"Abu Al Ezz Clinic - Al Maghsar","WILLAYAT":" Wilayat Al Musanaah","GOV":" Al Batinah South Governorate","LATITUDE":23.735974639999998,"LONGITUDE":58}},{"type":"Feature","id":245,"geometry":{"type":"Point","coordinates":[57.622713269959675,23.747486155353105]},"properties":{"FID":245,"NAMEEN":"Al Ridhah Clinic - At Turayf","WILLAYAT":" Wilayat Al Musanaah","GOV":" Al Batinah South Governorate","LATITUDE":23.747486160000001,"LONGITUDE":58}},{"type":"Feature","id":246,"geometry":{"type":"Point","coordinates":[55.77095012233211,24.259256411580356]},"properties":{"FID":246,"NAMEEN":"Pearly Smile Dental Clinic - Al Buraymi","WILLAYAT":" Wilayat Al Buraymi","GOV":" Al Buraymi Governorate","LATITUDE":24.259256409999999,"LONGITUDE":56}},{"type":"Feature","id":247,"geometry":{"type":"Point","coordinates":[55.863522567878192,24.89513244989546]},"properties":{"FID":247,"NAMEEN":"Al Nahlain Clinic - Ar Rawdah","WILLAYAT":" Wilayat Mahadah","GOV":" Al Buraymi Governorate","LATITUDE":24.895132449999998,"LONGITUDE":56}},{"type":"Feature","id":248,"geometry":{"type":"Point","coordinates":[56.551093492014807,23.592329298201037]},"properties":{"FID":248,"NAMEEN":"Almorshed Dental Clinic - Yanqul","WILLAYAT":" Wilayat Yanqul","GOV":" Adh Dhahirah Governorate","LATITUDE":23.592329299999999,"LONGITUDE":57}},{"type":"Feature","id":249,"geometry":{"type":"Point","coordinates":[55.78159041658261,24.247023860383035]},"properties":{"FID":249,"NAMEEN":"Janaein Sara Clininc - Al Buraymi","WILLAYAT":" Wilayat Al Buraymi","GOV":" Al Buraymi Governorate","LATITUDE":24.247023859999999,"LONGITUDE":56}},{"type":"Feature","id":250,"geometry":{"type":"Point","coordinates":[57.576750190059407,23.750364607645746]},"properties":{"FID":250,"NAMEEN":"Abu Reyadh Medical Clinic - Al Muladdah","WILLAYAT":" Wilayat Al Musanaah","GOV":" Al Batinah South Governorate","LATITUDE":23.750364609999998,"LONGITUDE":58}},{"type":"Feature","id":251,"geometry":{"type":"Point","coordinates":[58.422636664729865,23.595182803052307]},"properties":{"FID":251,"NAMEEN":"Wassan Specialt Dental Clinic - Bawshar","WILLAYAT":" Wilayat Bawshar","GOV":" Muscat Governorate","LATITUDE":23.5951828,"LONGITUDE":58}},{"type":"Feature","id":252,"geometry":{"type":"Point","coordinates":[56.729606000279553,24.34709100001691]},"properties":{"FID":252,"NAMEEN":"Ibrahim Bin Mohammed Albaushi Clinic - Sohar","WILLAYAT":" Wilayat Sohar","GOV":" Al Batinah North Governorate","LATITUDE":24.347090999999999,"LONGITUDE":57}},{"type":"Feature","id":253,"geometry":{"type":"Point","coordinates":[58.403636716599188,23.581108033753438]},"properties":{"FID":253,"NAMEEN":"Family Dental Clinic - Bawshar","WILLAYAT":" Wilayat Bawshar","GOV":" Muscat Governorate","LATITUDE":23.581108029999999,"LONGITUDE":58}},{"type":"Feature","id":254,"geometry":{"type":"Point","coordinates":[57.310703310691075,23.866594578634171]},"properties":{"FID":254,"NAMEEN":"Sultan General Clinic - Khadra Al Burishid","WILLAYAT":" Wilayat As Suwayq","GOV":" Al Batinah North Governorate","LATITUDE":23.866594580000001,"LONGITUDE":57}},{"type":"Feature","id":255,"geometry":{"type":"Point","coordinates":[58.872702224139516,20.658196293336925]},"properties":{"FID":255,"NAMEEN":"Al Ridha Clinic - Hilf","WILLAYAT":" Wilayat Masirah","GOV":" Ash Sharqiyah South Governorate","LATITUDE":20.658196289999999,"LONGITUDE":59}},{"type":"Feature","id":256,"geometry":{"type":"Point","coordinates":[58.178093999746871,23.682882300020182]},"properties":{"FID":256,"NAMEEN":"Al Manasir Medical  Clinic - As Seeb","WILLAYAT":" Wilayat As Seeb","GOV":" Muscat Governorate","LATITUDE":23.682882299999999,"LONGITUDE":58}},{"type":"Feature","id":257,"geometry":{"type":"Point","coordinates":[58.542193976701057,23.582823180609669]},"properties":{"FID":257,"NAMEEN":"Al Adnan Clinic - Mutrah","WILLAYAT":" Wilayat Mutrah","GOV":" Muscat Governorate","LATITUDE":23.582823179999998,"LONGITUDE":59}},{"type":"Feature","id":258,"geometry":{"type":"Point","coordinates":[58.288478905032228,20.764088426149005]},"properties":{"FID":258,"NAMEEN":"Al Raaqi Medical Clinic - Hijj","WILLAYAT":" Wilayat Mahawt","GOV":" Al Wusta Governorate","LATITUDE":20.764088430000001,"LONGITUDE":58}},{"type":"Feature","id":259,"geometry":{"type":"Point","coordinates":[57.534219400167373,22.877348400237519]},"properties":{"FID":259,"NAMEEN":"Talal Clinic - Farq","WILLAYAT":" Wilayat Nizwa","GOV":" Ad Dakhliyah Governorate","LATITUDE":22.877348399999999,"LONGITUDE":58}},{"type":"Feature","id":260,"geometry":{"type":"Point","coordinates":[57.526998400211546,22.941394999931855]},"properties":{"FID":260,"NAMEEN":"Nizwa Dental & Physical Therapy Center - Nizwa","WILLAYAT":" Wilayat Nizwa","GOV":" Ad Dakhliyah Governorate","LATITUDE":22.941395,"LONGITUDE":58}},{"type":"Feature","id":261,"geometry":{"type":"Point","coordinates":[59.200569269443477,22.218718795311741]},"properties":{"FID":261,"NAMEEN":"Al Jahad Medical Clinic - Al Kamil Wa Al Wafi","WILLAYAT":" Wilayat Al Kamil Wa Al Wafi","GOV":" Ash Sharqiyah South Governorate","LATITUDE":22.218718800000001,"LONGITUDE":59}},{"type":"Feature","id":262,"geometry":{"type":"Point","coordinates":[58.527829944358565,22.717300982343676]},"properties":{"FID":262,"NAMEEN":"Al Zahir Dental Clinic - Ibra","WILLAYAT":" Wilayat Ibra","GOV":" Ash Sharqiyah North Governorate","LATITUDE":22.717300980000001,"LONGITUDE":59}},{"type":"Feature","id":263,"geometry":{"type":"Point","coordinates":[55.769126327409069,24.257702986896788]},"properties":{"FID":263,"NAMEEN":"Bissan Dental Clinic - Al Buraymi","WILLAYAT":" Wilayat Al Buraymi","GOV":" Al Buraymi Governorate","LATITUDE":24.257702989999999,"LONGITUDE":56}},{"type":"Feature","id":264,"geometry":{"type":"Point","coordinates":[55.774036999822201,24.243926000369761]},"properties":{"FID":264,"NAMEEN":"Pearl Smile Dental Clinic - Al Buraymi","WILLAYAT":" Wilayat Al Buraymi","GOV":" Al Buraymi Governorate","LATITUDE":24.243925999999998,"LONGITUDE":56}},{"type":"Feature","id":265,"geometry":{"type":"Point","coordinates":[57.621576028121382,23.745825353601518]},"properties":{"FID":265,"NAMEEN":"Al Amanah Specialized Dental Clinic - At Turayf","WILLAYAT":" Wilayat Al Musanaah","GOV":" Al Batinah South Governorate","LATITUDE":23.74582535,"LONGITUDE":58}},{"type":"Feature","id":266,"geometry":{"type":"Point","coordinates":[56.51419391401604,23.234571997749949]},"properties":{"FID":266,"NAMEEN":"Aisulaif Medical Clinic - Ibri","WILLAYAT":" Wilayat Ibri","GOV":" Adh Dhahirah Governorate","LATITUDE":23.234572,"LONGITUDE":57}},{"type":"Feature","id":267,"geometry":{"type":"Point","coordinates":[56.736243999671373,24.347480999731438]},"properties":{"FID":267,"NAMEEN":"Al Balooki Dental Clinic - Sohar","WILLAYAT":" Wilayat Sohar","GOV":" Al Batinah North Governorate","LATITUDE":24.347480999999998,"LONGITUDE":57}},{"type":"Feature","id":268,"geometry":{"type":"Point","coordinates":[56.732167000161759,24.351402000224045]},"properties":{"FID":268,"NAMEEN":"Al Neel Dental Clinic - Sohar","WILLAYAT":" Wilayat Sohar","GOV":" Al Batinah North Governorate","LATITUDE":24.351402,"LONGITUDE":57}},{"type":"Feature","id":269,"geometry":{"type":"Point","coordinates":[56.732756716434317,24.351719387571745]},"properties":{"FID":269,"NAMEEN":"Sharefah Mosa Al Zeedjali Clinic - Sohar","WILLAYAT":" Wilayat Sohar","GOV":" Al Batinah North Governorate","LATITUDE":24.35171939,"LONGITUDE":57}},{"type":"Feature","id":270,"geometry":{"type":"Point","coordinates":[56.877551736360289,24.145669760116395]},"properties":{"FID":270,"NAMEEN":"Mohammed Al Ghafri Dental Clinic - Al Huwayl","WILLAYAT":" Wilayat Saham","GOV":" Al Batinah North Governorate","LATITUDE":24.145669760000001,"LONGITUDE":57}},{"type":"Feature","id":271,"geometry":{"type":"Point","coordinates":[56.883252765518712,24.153041978728965]},"properties":{"FID":271,"NAMEEN":"Al Sharq Al Awsat Dental Clinic - Saham","WILLAYAT":" Wilayat Saham","GOV":" Al Batinah North Governorate","LATITUDE":24.153041980000001,"LONGITUDE":57}},{"type":"Feature","id":272,"geometry":{"type":"Point","coordinates":[56.831475530570117,24.228006718636884]},"properties":{"FID":272,"NAMEEN":"Mejaz Clinic - Majz As Sughra","WILLAYAT":" Wilayat Saham","GOV":" Al Batinah North Governorate","LATITUDE":24.22800672,"LONGITUDE":57}},{"type":"Feature","id":273,"geometry":{"type":"Point","coordinates":[57.758392699785368,22.940668600127292]},"properties":{"FID":273,"NAMEEN":"Juma Medical Clinic - Izki","WILLAYAT":" Wilayat Izki","GOV":" Ad Dakhliyah Governorate","LATITUDE":22.940668599999999,"LONGITUDE":58}},{"type":"Feature","id":274,"geometry":{"type":"Point","coordinates":[58.380638329898972,23.581350356738877]},"properties":{"FID":274,"NAMEEN":"Al Majid Clinic - Bawshar","WILLAYAT":" Wilayat Bawshar","GOV":" Muscat Governorate","LATITUDE":23.581350359999998,"LONGITUDE":58}},{"type":"Feature","id":275,"geometry":{"type":"Point","coordinates":[58.395670740992621,23.585306222685034]},"properties":{"FID":275,"NAMEEN":"Al Reem Speciallist Clinic - Bawshar","WILLAYAT":" Wilayat Bawshar","GOV":" Muscat Governorate","LATITUDE":23.58530622,"LONGITUDE":58}},{"type":"Feature","id":276,"geometry":{"type":"Point","coordinates":[58.157108800359474,23.671860200170485]},"properties":{"FID":276,"NAMEEN":"Juma Al Habsi Helth Clinic - As Seeb","WILLAYAT":" Wilayat As Seeb","GOV":" Muscat Governorate","LATITUDE":23.671860200000001,"LONGITUDE":58}},{"type":"Feature","id":277,"geometry":{"type":"Point","coordinates":[58.544884313094819,23.595285790020736]},"properties":{"FID":277,"NAMEEN":"Badriya Dental Clinic - Mutrah","WILLAYAT":" Wilayat Mutrah","GOV":" Muscat Governorate","LATITUDE":23.595285789999998,"LONGITUDE":59}},{"type":"Feature","id":278,"geometry":{"type":"Point","coordinates":[58.19823889954521,23.629168100269499]},"properties":{"FID":278,"NAMEEN":"Al Sana Clinic - As Seeb","WILLAYAT":" Wilayat As Seeb","GOV":" Muscat Governorate","LATITUDE":23.629168100000001,"LONGITUDE":58}},{"type":"Feature","id":279,"geometry":{"type":"Point","coordinates":[58.487416554844074,23.623332061051137]},"properties":{"FID":279,"NAMEEN":"American Specialty Clinucs Center - Mutrah","WILLAYAT":" Wilayat Mutrah","GOV":" Muscat Governorate","LATITUDE":23.623332059999999,"LONGITUDE":58}},{"type":"Feature","id":280,"geometry":{"type":"Point","coordinates":[56.734986797306966,24.337278346666697]},"properties":{"FID":280,"NAMEEN":"North Sohar Dintest Clinic - Sohar","WILLAYAT":" Wilayat Sohar","GOV":" Al Batinah North Governorate","LATITUDE":24.337278349999998,"LONGITUDE":57}},{"type":"Feature","id":281,"geometry":{"type":"Point","coordinates":[58.420661377800393,23.58863759740283]},"properties":{"FID":281,"NAMEEN":"Sri Sri Ayurveda Clinic (Medical Ayurveda) - Bawshar","WILLAYAT":" Wilayat Bawshar","GOV":" Muscat Governorate","LATITUDE":23.588637599999998,"LONGITUDE":58}},{"type":"Feature","id":282,"geometry":{"type":"Point","coordinates":[58.49111126790072,23.623035584310035]},"properties":{"FID":282,"NAMEEN":"Confidental Dental Clinic - Mutrah","WILLAYAT":" Wilayat Mutrah","GOV":" Muscat Governorate","LATITUDE":23.62303558,"LONGITUDE":58}},{"type":"Feature","id":283,"geometry":{"type":"Point","coordinates":[56.335072683609177,25.281779801597516]},"properties":{"FID":283,"NAMEEN":"Al Osoor Dental Clinic - Madha","WILLAYAT":" Wilayat Madha","GOV":" Musandam Governorate","LATITUDE":25.281779799999999,"LONGITUDE":56}},{"type":"Feature","id":284,"geometry":{"type":"Point","coordinates":[56.335070754422958,25.28172557281718]},"properties":{"FID":284,"NAMEEN":"Raboa roelat al zaabi general clinic - Madha","WILLAYAT":" Wilayat Madha","GOV":" Musandam Governorate","LATITUDE":25.281725569999999,"LONGITUDE":56}},{"type":"Feature","id":285,"geometry":{"type":"Point","coordinates":[58.399213397604029,23.548784072645304]},"properties":{"FID":285,"NAMEEN":"Modern Dental Clinic  - Bawshar","WILLAYAT":" Wilayat Bawshar","GOV":" Muscat Governorate","LATITUDE":23.54878407,"LONGITUDE":58}},{"type":"Feature","id":286,"geometry":{"type":"Point","coordinates":[55.782199613893972,24.247200859996234]},"properties":{"FID":286,"NAMEEN":"Dar Al Amal Dental Clinic - Al Buraymi","WILLAYAT":" Wilayat Al Buraymi","GOV":" Al Buraymi Governorate","LATITUDE":24.24720086,"LONGITUDE":56}},{"type":"Feature","id":287,"geometry":{"type":"Point","coordinates":[55.78682819812709,24.249990107420988]},"properties":{"FID":287,"NAMEEN":"Care Dental Clinic - Al Buraymi","WILLAYAT":" Wilayat Al Buraymi","GOV":" Al Buraymi Governorate","LATITUDE":24.249990109999999,"LONGITUDE":56}},{"type":"Feature","id":288,"geometry":{"type":"Point","coordinates":[58.543701354448025,23.593503429609832]},"properties":{"FID":288,"NAMEEN":"Al Mosafer Specialized Medical Clinic - Mutrah","WILLAYAT":" Wilayat Mutrah","GOV":" Muscat Governorate","LATITUDE":23.593503429999998,"LONGITUDE":59}},{"type":"Feature","id":289,"geometry":{"type":"Point","coordinates":[58.543662119199823,23.593422143082737]},"properties":{"FID":289,"NAMEEN":"Horizons Dental Clinic - Mutrah","WILLAYAT":" Wilayat Mutrah","GOV":" Muscat Governorate","LATITUDE":23.593422140000001,"LONGITUDE":59}},{"type":"Feature","id":290,"geometry":{"type":"Point","coordinates":[58.207005747188596,23.026596372948774]},"properties":{"FID":290,"NAMEEN":"AL Ibtihaj Clinic - Al Jarda","WILLAYAT":" Wilayat Al Mudaybi","GOV":" Ash Sharqiyah North Governorate","LATITUDE":23.02659637,"LONGITUDE":58}},{"type":"Feature","id":291,"geometry":{"type":"Point","coordinates":[58.402942351074444,23.592379548989687]},"properties":{"FID":291,"NAMEEN":"Nujood Dental Clinic - Bawshar","WILLAYAT":" Wilayat Bawshar","GOV":" Muscat Governorate","LATITUDE":23.59237955,"LONGITUDE":58}},{"type":"Feature","id":292,"geometry":{"type":"Point","coordinates":[58.429612453120036,23.596417032053463]},"properties":{"FID":292,"NAMEEN":"Bait Al Dawaa Clinic - Bawshar","WILLAYAT":" Wilayat Bawshar","GOV":" Muscat Governorate","LATITUDE":23.596417030000001,"LONGITUDE":58}},{"type":"Feature","id":293,"geometry":{"type":"Point","coordinates":[54.058925536030216,17.006965161667654]},"properties":{"FID":293,"NAMEEN":"Dhofar Dental Center - Salalah","WILLAYAT":" Wilayat Salalah","GOV":" Dhofar Governorate","LATITUDE":17.00696516,"LONGITUDE":54}},{"type":"Feature","id":294,"geometry":{"type":"Point","coordinates":[57.527221263712448,23.781717465000838]},"properties":{"FID":294,"NAMEEN":"Oman Gulf Clinic - Al Qarat","WILLAYAT":" Wilayat Al Musanaah","GOV":" Al Batinah South Governorate","LATITUDE":23.78171747,"LONGITUDE":58}},{"type":"Feature","id":295,"geometry":{"type":"Point","coordinates":[58.377452247924232,23.591529298208883]},"properties":{"FID":295,"NAMEEN":"Al Wasial Medical Clinic - Bawshar","WILLAYAT":" Wilayat Bawshar","GOV":" Muscat Governorate","LATITUDE":23.591529300000001,"LONGITUDE":58}},{"type":"Feature","id":296,"geometry":{"type":"Point","coordinates":[57.424624873473704,23.392303756203884]},"properties":{"FID":296,"NAMEEN":"Alatf Clinic - Ar Rustaq","WILLAYAT":" Wilayat Ar Rustaq","GOV":" Al Batinah South Governorate","LATITUDE":23.392303760000001,"LONGITUDE":57}},{"type":"Feature","id":297,"geometry":{"type":"Point","coordinates":[58.399309337360194,23.597149394599089]},"properties":{"FID":297,"NAMEEN":"Great Care Dental Center  - Bawshar","WILLAYAT":" Wilayat Bawshar","GOV":" Muscat Governorate","LATITUDE":23.597149389999998,"LONGITUDE":58}},{"type":"Feature","id":298,"geometry":{"type":"Point","coordinates":[58.54123557002459,23.603114287099839]},"properties":{"FID":298,"NAMEEN":"Al Shifaa Clinic - Mutrah","WILLAYAT":" Wilayat Mutrah","GOV":" Muscat Governorate","LATITUDE":23.603114290000001,"LONGITUDE":59}},{"type":"Feature","id":299,"geometry":{"type":"Point","coordinates":[54.10079616961891,17.014041014949456]},"properties":{"FID":299,"NAMEEN":"Scientific Polyclinic - Salalah","WILLAYAT":" Wilayat Salalah","GOV":" Dhofar Governorate","LATITUDE":17.01404101,"LONGITUDE":54}},{"type":"Feature","id":300,"geometry":{"type":"Point","coordinates":[58.24541183690728,23.591555332320091]},"properties":{"FID":300,"NAMEEN":"Gulf Center For Orthopedic - As Seeb","WILLAYAT":" Wilayat As Seeb","GOV":" Muscat Governorate","LATITUDE":23.591555329999998,"LONGITUDE":58}},{"type":"Feature","id":301,"geometry":{"type":"Point","coordinates":[58.210590113928099,23.63207572370651]},"properties":{"FID":301,"NAMEEN":"Al Abeer Clinic - As Seeb","WILLAYAT":" Wilayat As Seeb","GOV":" Muscat Governorate","LATITUDE":23.63207572,"LONGITUDE":58}},{"type":"Feature","id":302,"geometry":{"type":"Point","coordinates":[57.536763200086718,22.86615560044471]},"properties":{"FID":302,"NAMEEN":"Excellence Dental Clinic - Farq","WILLAYAT":" Wilayat Nizwa","GOV":" Ad Dakhliyah Governorate","LATITUDE":22.866155599999999,"LONGITUDE":58}},{"type":"Feature","id":303,"geometry":{"type":"Point","coordinates":[57.292788500132232,23.112064599777078]},"properties":{"FID":303,"NAMEEN":"Noor Al Muta'Lq Tard - Al Hamra","WILLAYAT":" Wilayat Al Hamra","GOV":" Ad Dakhliyah Governorate","LATITUDE":23.1120646,"LONGITUDE":57}},{"type":"Feature","id":304,"geometry":{"type":"Point","coordinates":[58.802979881263937,22.437863196409324]},"properties":{"FID":304,"NAMEEN":"Raya Medical Clinic - Al Mintarib","WILLAYAT":" Wilayat Bidiyah","GOV":" Ash Sharqiyah North Governorate","LATITUDE":22.437863199999999,"LONGITUDE":59}},{"type":"Feature","id":305,"geometry":{"type":"Point","coordinates":[58.803897076708282,22.443713696597424]},"properties":{"FID":305,"NAMEEN":"Ebtesamat Al Sharqiyah Dental Clinic - Al Mintarib","WILLAYAT":" Wilayat Bidiyah","GOV":" Ash Sharqiyah North Governorate","LATITUDE":22.4437137,"LONGITUDE":59}},{"type":"Feature","id":306,"geometry":{"type":"Point","coordinates":[55.782589306154762,24.255187249830243]},"properties":{"FID":306,"NAMEEN":"Abu Asaad Dental Clinic - Al Buraymi","WILLAYAT":" Wilayat Al Buraymi","GOV":" Al Buraymi Governorate","LATITUDE":24.255187249999999,"LONGITUDE":56}},{"type":"Feature","id":307,"geometry":{"type":"Point","coordinates":[57.882817485855576,23.707528122819589]},"properties":{"FID":307,"NAMEEN":"Abu Bader Alhosni Medical Clinic - Barka","WILLAYAT":" Wilayat Barka","GOV":" Al Batinah South Governorate","LATITUDE":23.707528119999999,"LONGITUDE":58}},{"type":"Feature","id":308,"geometry":{"type":"Point","coordinates":[54.093197673923726,17.015355664928158]},"properties":{"FID":308,"NAMEEN":"Al Mowasah Dental Clinic - Salalah","WILLAYAT":" Wilayat Salalah","GOV":" Dhofar Governorate","LATITUDE":17.015355660000001,"LONGITUDE":54}},{"type":"Feature","id":309,"geometry":{"type":"Point","coordinates":[54.083560206736031,17.012789980122442]},"properties":{"FID":309,"NAMEEN":"Al Afiya Dental Clinic - Salalah","WILLAYAT":" Wilayat Salalah","GOV":" Dhofar Governorate","LATITUDE":17.012789980000001,"LONGITUDE":54}},{"type":"Feature","id":310,"geometry":{"type":"Point","coordinates":[54.150957414673336,17.050001512218351]},"properties":{"FID":310,"NAMEEN":"Al Raja Dental Clinic - Salalah","WILLAYAT":" Wilayat Salalah","GOV":" Dhofar Governorate","LATITUDE":17.050001510000001,"LONGITUDE":54}},{"type":"Feature","id":311,"geometry":{"type":"Point","coordinates":[56.510903001001104,23.242729473130893]},"properties":{"FID":311,"NAMEEN":"Specialist Center Almassa Dental Care - Ibri","WILLAYAT":" Wilayat Ibri","GOV":" Adh Dhahirah Governorate","LATITUDE":23.24272947,"LONGITUDE":57}},{"type":"Feature","id":312,"geometry":{"type":"Point","coordinates":[56.264728443921761,23.5669763246723]},"properties":{"FID":312,"NAMEEN":"Al Mandhri Medical Clinic - Dank","WILLAYAT":" Wilayat Dank","GOV":" Adh Dhahirah Governorate","LATITUDE":23.566976319999998,"LONGITUDE":56}},{"type":"Feature","id":313,"geometry":{"type":"Point","coordinates":[56.736550999516858,24.347735000212396]},"properties":{"FID":313,"NAMEEN":"Rwabi Al Ghazayl Medical Clinic - Sohar","WILLAYAT":" Wilayat Sohar","GOV":" Al Batinah North Governorate","LATITUDE":24.347735,"LONGITUDE":57}},{"type":"Feature","id":314,"geometry":{"type":"Point","coordinates":[57.091411693217395,23.971632392958711]},"properties":{"FID":314,"NAMEEN":"Al Basmah Smile Dental Clinic - Al Khaburah","WILLAYAT":" Wilayat Al Khaburah","GOV":" Al Batinah North Governorate","LATITUDE":23.97163239,"LONGITUDE":57}},{"type":"Feature","id":315,"geometry":{"type":"Point","coordinates":[57.757660899717422,22.938913799578451]},"properties":{"FID":315,"NAMEEN":"Izki Dental Clinic - Izki","WILLAYAT":" Wilayat Izki","GOV":" Ad Dakhliyah Governorate","LATITUDE":22.938913800000002,"LONGITUDE":58}},{"type":"Feature","id":316,"geometry":{"type":"Point","coordinates":[58.362402040667817,23.548030380189914]},"properties":{"FID":316,"NAMEEN":"Consultant Dental Center - Bawshar","WILLAYAT":" Wilayat Bawshar","GOV":" Muscat Governorate","LATITUDE":23.54803038,"LONGITUDE":58}},{"type":"Feature","id":317,"geometry":{"type":"Point","coordinates":[58.366722718239103,23.60258597933132]},"properties":{"FID":317,"NAMEEN":"Green Apple Dental Centre - Bawshar","WILLAYAT":" Wilayat Bawshar","GOV":" Muscat Governorate","LATITUDE":23.602585980000001,"LONGITUDE":58}},{"type":"Feature","id":318,"geometry":{"type":"Point","coordinates":[58.429198638344374,23.596428738750763]},"properties":{"FID":318,"NAMEEN":"Al Bayan Dental Clinic - Bawshar","WILLAYAT":" Wilayat Bawshar","GOV":" Muscat Governorate","LATITUDE":23.59642874,"LONGITUDE":58}},{"type":"Feature","id":319,"geometry":{"type":"Point","coordinates":[58.385295545461183,23.593642856611069]},"properties":{"FID":319,"NAMEEN":"General Health Clinic - Bawshar","WILLAYAT":" Wilayat Bawshar","GOV":" Muscat Governorate","LATITUDE":23.593642859999999,"LONGITUDE":58}},{"type":"Feature","id":320,"geometry":{"type":"Point","coordinates":[58.169537580771035,22.836798800058453]},"properties":{"FID":320,"NAMEEN":"Al Shariya Modern Clinic - Ash Shiriah","WILLAYAT":" Wilayat Al Mudaybi","GOV":" Ash Sharqiyah North Governorate","LATITUDE":22.8367988,"LONGITUDE":58}},{"type":"Feature","id":321,"geometry":{"type":"Point","coordinates":[58.02825254421488,22.497026571303099]},"properties":{"FID":321,"NAMEEN":"Al Nahdha Clinic - Sinaw","WILLAYAT":" Wilayat Al Mudaybi","GOV":" Ash Sharqiyah North Governorate","LATITUDE":22.497026569999999,"LONGITUDE":58}},{"type":"Feature","id":322,"geometry":{"type":"Point","coordinates":[58.18619619999005,23.680745299816397]},"properties":{"FID":322,"NAMEEN":"Anwar Clinic - As Seeb","WILLAYAT":" Wilayat As Seeb","GOV":" Muscat Governorate","LATITUDE":23.680745300000002,"LONGITUDE":58}},{"type":"Feature","id":323,"geometry":{"type":"Point","coordinates":[58.202347000466013,23.627035099655068]},"properties":{"FID":323,"NAMEEN":"Al Ahlam Clinic - As Seeb","WILLAYAT":" Wilayat As Seeb","GOV":" Muscat Governorate","LATITUDE":23.627035100000001,"LONGITUDE":58}},{"type":"Feature","id":324,"geometry":{"type":"Point","coordinates":[58.201443199683986,23.641242000167423]},"properties":{"FID":324,"NAMEEN":"Al Asthoora Dental Clinic - As Seeb","WILLAYAT":" Wilayat As Seeb","GOV":" Muscat Governorate","LATITUDE":23.641241999999998,"LONGITUDE":58}},{"type":"Feature","id":325,"geometry":{"type":"Point","coordinates":[57.17426012804907,23.918429491970834]},"properties":{"FID":325,"NAMEEN":"Abu Bader Al Hosni Medical Clinic - Al Bidayah","WILLAYAT":" Wilayat As Suwayq","GOV":" Al Batinah North Governorate","LATITUDE":23.918429490000001,"LONGITUDE":57}},{"type":"Feature","id":326,"geometry":{"type":"Point","coordinates":[56.870426357605467,24.139082302341873]},"properties":{"FID":326,"NAMEEN":"Ahmed Medical Clinic - Murtafaat Saham","WILLAYAT":" Wilayat Saham","GOV":" Al Batinah North Governorate","LATITUDE":24.139082299999998,"LONGITUDE":57}},{"type":"Feature","id":327,"geometry":{"type":"Point","coordinates":[56.613491418829902,24.422245606186056]},"properties":{"FID":327,"NAMEEN":"Al Jahwary Dental Clinic - Sohar","WILLAYAT":" Wilayat Sohar","GOV":" Al Batinah North Governorate","LATITUDE":24.422245610000001,"LONGITUDE":57}},{"type":"Feature","id":328,"geometry":{"type":"Point","coordinates":[56.757846878815791,24.325264292741572]},"properties":{"FID":328,"NAMEEN":"Iraq Medical Clinic - Sohar","WILLAYAT":" Wilayat Sohar","GOV":" Al Batinah North Governorate","LATITUDE":24.32526429,"LONGITUDE":57}},{"type":"Feature","id":329,"geometry":{"type":"Point","coordinates":[54.085509128221787,17.013235833412754]},"properties":{"FID":329,"NAMEEN":"Alsama Dental Clinic - Salalah","WILLAYAT":" Wilayat Salalah","GOV":" Dhofar Governorate","LATITUDE":17.013235829999999,"LONGITUDE":54}},{"type":"Feature","id":330,"geometry":{"type":"Point","coordinates":[58.213765990653137,23.621737433715321]},"properties":{"FID":330,"NAMEEN":"Classic Dental Centre - As Seeb","WILLAYAT":" Wilayat As Seeb","GOV":" Muscat Governorate","LATITUDE":23.62173743,"LONGITUDE":58}},{"type":"Feature","id":331,"geometry":{"type":"Point","coordinates":[58.427309360715533,23.596408971080621]},"properties":{"FID":331,"NAMEEN":"Ideal Dental Laboratory - Bawshar","WILLAYAT":" Wilayat Bawshar","GOV":" Muscat Governorate","LATITUDE":23.596408969999999,"LONGITUDE":58}},{"type":"Feature","id":332,"geometry":{"type":"Point","coordinates":[58.372483530093049,23.601152946189345]},"properties":{"FID":332,"NAMEEN":"Dr.Khalid Al Farsi Dental - Bawshar","WILLAYAT":" Wilayat Bawshar","GOV":" Muscat Governorate","LATITUDE":23.601152949999999,"LONGITUDE":58}},{"type":"Feature","id":333,"geometry":{"type":"Point","coordinates":[58.256881214170988,23.61921851421442]},"properties":{"FID":333,"NAMEEN":"Arab Dental Center - As Seeb","WILLAYAT":" Wilayat As Seeb","GOV":" Muscat Governorate","LATITUDE":23.61921851,"LONGITUDE":58}},{"type":"Feature","id":334,"geometry":{"type":"Point","coordinates":[58.156268300400598,23.671862500093773]},"properties":{"FID":334,"NAMEEN":"Taj Dental Speciality Clinic - As Seeb","WILLAYAT":" Wilayat As Seeb","GOV":" Muscat Governorate","LATITUDE":23.6718625,"LONGITUDE":58}},{"type":"Feature","id":335,"geometry":{"type":"Point","coordinates":[58.249397483913974,23.597576571408961]},"properties":{"FID":335,"NAMEEN":"Al Tafwaoq Dental Clinic - As Seeb","WILLAYAT":" Wilayat As Seeb","GOV":" Muscat Governorate","LATITUDE":23.597576570000001,"LONGITUDE":58}},{"type":"Feature","id":336,"geometry":{"type":"Point","coordinates":[58.545057960177338,23.592628273335265]},"properties":{"FID":336,"NAMEEN":"Anwar Dental Clinic - Mutrah","WILLAYAT":" Wilayat Mutrah","GOV":" Muscat Governorate","LATITUDE":23.592628269999999,"LONGITUDE":59}},{"type":"Feature","id":337,"geometry":{"type":"Point","coordinates":[57.623442225085313,23.744985307808061]},"properties":{"FID":337,"NAMEEN":"Dr. Masud Ali Al Abadi Clinic - At Turayf","WILLAYAT":" Wilayat Al Musanaah","GOV":" Al Batinah South Governorate","LATITUDE":23.744985310000001,"LONGITUDE":58}},{"type":"Feature","id":338,"geometry":{"type":"Point","coordinates":[57.165848715538864,23.921793047186899]},"properties":{"FID":338,"NAMEEN":"Dental Clinic - Al Bidayah","WILLAYAT":" Wilayat As Suwayq","GOV":" Al Batinah North Governorate","LATITUDE":23.921793050000002,"LONGITUDE":57}},{"type":"Feature","id":339,"geometry":{"type":"Point","coordinates":[58.438600078127912,23.588110365046596]},"properties":{"FID":339,"NAMEEN":"German OrthoPaedic Center - Bawshar","WILLAYAT":" Wilayat Bawshar","GOV":" Muscat Governorate","LATITUDE":23.588110369999999,"LONGITUDE":58}},{"type":"Feature","id":340,"geometry":{"type":"Point","coordinates":[58.430626568098141,23.596445123304534]},"properties":{"FID":340,"NAMEEN":"Blue Dental Clinic - Bawshar","WILLAYAT":" Wilayat Bawshar","GOV":" Muscat Governorate","LATITUDE":23.596445119999998,"LONGITUDE":58}},{"type":"Feature","id":341,"geometry":{"type":"Point","coordinates":[54.152373391143897,17.052569069198135]},"properties":{"FID":341,"NAMEEN":"Al Zahir Modern Dental Clinic - Salalah","WILLAYAT":" Wilayat Salalah","GOV":" Dhofar Governorate","LATITUDE":17.052569070000001,"LONGITUDE":54}},{"type":"Feature","id":342,"geometry":{"type":"Point","coordinates":[54.088014661576899,17.010842152267973]},"properties":{"FID":342,"NAMEEN":"Al Etifaq Dental Clinic - Salalah","WILLAYAT":" Wilayat Salalah","GOV":" Dhofar Governorate","LATITUDE":17.010842149999998,"LONGITUDE":54}},{"type":"Feature","id":343,"geometry":{"type":"Point","coordinates":[57.13948220263778,23.934344140288857]},"properties":{"FID":343,"NAMEEN":"Salim Suliman Al Moqbali Clinic - Al Khaburah","WILLAYAT":" Wilayat Al Khaburah","GOV":" Al Batinah North Governorate","LATITUDE":23.93434414,"LONGITUDE":57}},{"type":"Feature","id":344,"geometry":{"type":"Point","coordinates":[58.197071499585043,23.630906999608921]},"properties":{"FID":344,"NAMEEN":"Al Khoud New Clinic - As Seeb","WILLAYAT":" Wilayat As Seeb","GOV":" Muscat Governorate","LATITUDE":23.630907000000001,"LONGITUDE":58}},{"type":"Feature","id":345,"geometry":{"type":"Point","coordinates":[57.048846980847145,24.010432569228769]},"properties":{"FID":345,"NAMEEN":"Al Manar Medical Clinic - Al Khaburah","WILLAYAT":" Wilayat Al Khaburah","GOV":" Al Batinah North Governorate","LATITUDE":24.010432569999999,"LONGITUDE":57}},{"type":"Feature","id":346,"geometry":{"type":"Point","coordinates":[57.336298291259055,23.853875093634905]},"properties":{"FID":346,"NAMEEN":"Al Meezan Dental Clinic - Khadra Al Saad","WILLAYAT":" Wilayat As Suwayq","GOV":" Al Batinah North Governorate","LATITUDE":23.853875089999999,"LONGITUDE":57}},{"type":"Feature","id":347,"geometry":{"type":"Point","coordinates":[56.729606000279553,24.34709100001691]},"properties":{"FID":347,"NAMEEN":"Pediatric Clinic - Sohar","WILLAYAT":" Wilayat Sohar","GOV":" Al Batinah North Governorate","LATITUDE":24.347090999999999,"LONGITUDE":57}},{"type":"Feature","id":348,"geometry":{"type":"Point","coordinates":[56.614881760417667,24.423027092691175]},"properties":{"FID":348,"NAMEEN":"Al Qbayl Clinic - Sohar","WILLAYAT":" Wilayat Sohar","GOV":" Al Batinah North Governorate","LATITUDE":24.423027090000001,"LONGITUDE":57}},{"type":"Feature","id":349,"geometry":{"type":"Point","coordinates":[56.550351943575969,23.282362895423091]},"properties":{"FID":349,"NAMEEN":"Al Mansoor Clinic - Al Araqi","WILLAYAT":" Wilayat Ibri","GOV":" Adh Dhahirah Governorate","LATITUDE":23.282362899999999,"LONGITUDE":57}},{"type":"Feature","id":350,"geometry":{"type":"Point","coordinates":[57.531040400024324,22.934051700400442]},"properties":{"FID":350,"NAMEEN":"Abu Azzan Alfarsi Clinic - Nizwa","WILLAYAT":" Wilayat Nizwa","GOV":" Ad Dakhliyah Governorate","LATITUDE":22.934051700000001,"LONGITUDE":58}},{"type":"Feature","id":351,"geometry":{"type":"Point","coordinates":[58.540508213801587,22.710007565037643]},"properties":{"FID":351,"NAMEEN":"Om Balqees Clinic - Ibra","WILLAYAT":" Wilayat Ibra","GOV":" Ash Sharqiyah North Governorate","LATITUDE":22.710007569999998,"LONGITUDE":59}},{"type":"Feature","id":352,"geometry":{"type":"Point","coordinates":[55.790164429409529,24.2508140755574]},"properties":{"FID":352,"NAMEEN":"Dar Al Shifa Clinic - Al Buraymi","WILLAYAT":" Wilayat Al Buraymi","GOV":" Al Buraymi Governorate","LATITUDE":24.250814080000001,"LONGITUDE":56}},{"type":"Feature","id":353,"geometry":{"type":"Point","coordinates":[57.415383485076575,23.827508209184799]},"properties":{"FID":353,"NAMEEN":"Al Suwaiq Modern Medical Clinic - As Suwayq","WILLAYAT":" Wilayat As Suwayq","GOV":" Al Batinah North Governorate","LATITUDE":23.827508210000001,"LONGITUDE":57}},{"type":"Feature","id":354,"geometry":{"type":"Point","coordinates":[57.484141112190173,23.80197096977161]},"properties":{"FID":354,"NAMEEN":"Al Moosil Dental Clinic - Umm Sayh","WILLAYAT":" Wilayat As Suwayq","GOV":" Al Batinah North Governorate","LATITUDE":23.801970969999999,"LONGITUDE":57}},{"type":"Feature","id":355,"geometry":{"type":"Point","coordinates":[57.887898356393308,23.665842139583042]},"properties":{"FID":355,"NAMEEN":"Al Taqwa Dental Clinic - As Sawmhan","WILLAYAT":" Wilayat Barka","GOV":" Al Batinah South Governorate","LATITUDE":23.665842139999999,"LONGITUDE":58}},{"type":"Feature","id":356,"geometry":{"type":"Point","coordinates":[54.093346653627805,17.00943664736565]},"properties":{"FID":356,"NAMEEN":"Al Noor Dental Clinic - Salalah","WILLAYAT":" Wilayat Salalah","GOV":" Dhofar Governorate","LATITUDE":17.009436650000001,"LONGITUDE":54}},{"type":"Feature","id":357,"geometry":{"type":"Point","coordinates":[56.495356829453961,23.216951969014847]},"properties":{"FID":357,"NAMEEN":"Huda Medical Clinic - Ibri","WILLAYAT":" Wilayat Ibri","GOV":" Adh Dhahirah Governorate","LATITUDE":23.21695197,"LONGITUDE":56}},{"type":"Feature","id":358,"geometry":{"type":"Point","coordinates":[56.736295000239053,24.347418000280886]},"properties":{"FID":358,"NAMEEN":"Al Wafi Clinic And Laboratory - Sohar","WILLAYAT":" Wilayat Sohar","GOV":" Al Batinah North Governorate","LATITUDE":24.347418000000001,"LONGITUDE":57}},{"type":"Feature","id":359,"geometry":{"type":"Point","coordinates":[56.436607064800292,24.804679836601014]},"properties":{"FID":359,"NAMEEN":"Sama Shinas Clinic - Al Aqur","WILLAYAT":" Wilayat Shinas","GOV":" Al Batinah North Governorate","LATITUDE":24.804679839999999,"LONGITUDE":56}},{"type":"Feature","id":360,"geometry":{"type":"Point","coordinates":[56.465280865781381,24.743900905807497]},"properties":{"FID":360,"NAMEEN":"Sama Al Khaleej Specialist Dental Centre - Shinas","WILLAYAT":" Wilayat Shinas","GOV":" Al Batinah North Governorate","LATITUDE":24.743900910000001,"LONGITUDE":56}},{"type":"Feature","id":361,"geometry":{"type":"Point","coordinates":[56.448806323186659,24.746540753860877]},"properties":{"FID":361,"NAMEEN":"Said Marzouk Al Mundhiri Dental Clinic - Al Hamliyah","WILLAYAT":" Wilayat Shinas","GOV":" Al Batinah North Governorate","LATITUDE":24.746540750000001,"LONGITUDE":56}},{"type":"Feature","id":362,"geometry":{"type":"Point","coordinates":[56.871726780220982,24.140928333148963]},"properties":{"FID":362,"NAMEEN":"Sama Baghdad Dental Clinic - Murtafaat Saham","WILLAYAT":" Wilayat Saham","GOV":" Al Batinah North Governorate","LATITUDE":24.140928330000001,"LONGITUDE":57}},{"type":"Feature","id":363,"geometry":{"type":"Point","coordinates":[56.877588999919134,24.145629000126533]},"properties":{"FID":363,"NAMEEN":"Mosabeh Al Rushadi Dental Clinic - Al Huwayl","WILLAYAT":" Wilayat Saham","GOV":" Al Batinah North Governorate","LATITUDE":24.145629,"LONGITUDE":57}},{"type":"Feature","id":364,"geometry":{"type":"Point","coordinates":[57.09446299952922,23.973496000387321]},"properties":{"FID":364,"NAMEEN":"Mortfat Al Braik Clinic - Al Khaburah","WILLAYAT":" Wilayat Al Khaburah","GOV":" Al Batinah North Governorate","LATITUDE":23.973496000000001,"LONGITUDE":57}},{"type":"Feature","id":365,"geometry":{"type":"Point","coordinates":[57.758169799929014,22.943390399572959]},"properties":{"FID":365,"NAMEEN":"Al Insania  Clinic - Izki","WILLAYAT":" Wilayat Izki","GOV":" Ad Dakhliyah Governorate","LATITUDE":22.943390399999998,"LONGITUDE":58}},{"type":"Feature","id":366,"geometry":{"type":"Point","coordinates":[57.772305400195215,22.930878500206578]},"properties":{"FID":366,"NAMEEN":"Al Noor Clinic - Izki","WILLAYAT":" Wilayat Izki","GOV":" Ad Dakhliyah Governorate","LATITUDE":22.930878499999999,"LONGITUDE":58}},{"type":"Feature","id":367,"geometry":{"type":"Point","coordinates":[58.371341530687168,23.601185629840817]},"properties":{"FID":367,"NAMEEN":"Dr.Hatim Medical & Dental Clinic - Bawshar","WILLAYAT":" Wilayat Bawshar","GOV":" Muscat Governorate","LATITUDE":23.60118563,"LONGITUDE":58}},{"type":"Feature","id":368,"geometry":{"type":"Point","coordinates":[58.379594719837996,23.600124209282605]},"properties":{"FID":368,"NAMEEN":"Al Malak Dental Medical Center - Bawshar","WILLAYAT":" Wilayat Bawshar","GOV":" Muscat Governorate","LATITUDE":23.600124210000001,"LONGITUDE":58}},{"type":"Feature","id":369,"geometry":{"type":"Point","coordinates":[58.405092704758466,23.589134975577085]},"properties":{"FID":369,"NAMEEN":"Al Ameen Dental Clinic - Bawshar","WILLAYAT":" Wilayat Bawshar","GOV":" Muscat Governorate","LATITUDE":23.589134980000001,"LONGITUDE":58}},{"type":"Feature","id":370,"geometry":{"type":"Point","coordinates":[58.914639234193039,23.2597461902491]},"properties":{"FID":370,"NAMEEN":"Al Agyal Dental Clinic - Qurayyat","WILLAYAT":" Wilayat Qurayyat","GOV":" Muscat Governorate","LATITUDE":23.259746190000001,"LONGITUDE":59}},{"type":"Feature","id":371,"geometry":{"type":"Point","coordinates":[58.183927799628087,23.681322300002662]},"properties":{"FID":371,"NAMEEN":"Al Fath Clinic - As Seeb","WILLAYAT":" Wilayat As Seeb","GOV":" Muscat Governorate","LATITUDE":23.681322300000001,"LONGITUDE":58}},{"type":"Feature","id":372,"geometry":{"type":"Point","coordinates":[57.326217599950205,23.015333599743073]},"properties":{"FID":372,"NAMEEN":"Happiness Dental Clinic  - Bahla","WILLAYAT":" Wilayat Bahla","GOV":" Ad Dakhliyah Governorate","LATITUDE":23.015333600000002,"LONGITUDE":57}},{"type":"Feature","id":373,"geometry":{"type":"Point","coordinates":[58.175135599827456,23.683472700215486]},"properties":{"FID":373,"NAMEEN":"Al Afadhal Dental Clinic - As Seeb","WILLAYAT":" Wilayat As Seeb","GOV":" Muscat Governorate","LATITUDE":23.683472699999999,"LONGITUDE":58}},{"type":"Feature","id":374,"geometry":{"type":"Point","coordinates":[56.610382060024861,24.42280060788358]},"properties":{"FID":374,"NAMEEN":"Razan Dental Medical Center - Sohar","WILLAYAT":" Wilayat Sohar","GOV":" Al Batinah North Governorate","LATITUDE":24.422800609999999,"LONGITUDE":57}},{"type":"Feature","id":375,"geometry":{"type":"Point","coordinates":[56.711946673669715,24.358267510234541]},"properties":{"FID":375,"NAMEEN":"Euro-Arabian Specialist Dental Center - Sohar","WILLAYAT":" Wilayat Sohar","GOV":" Al Batinah North Governorate","LATITUDE":24.358267510000001,"LONGITUDE":57}},{"type":"Feature","id":376,"geometry":{"type":"Point","coordinates":[58.490976679476837,23.623792662767581]},"properties":{"FID":376,"NAMEEN":"Dr. Maurice ALAsfour Specialised Medical Center - Mutrah","WILLAYAT":" Wilayat Mutrah","GOV":" Muscat Governorate","LATITUDE":23.623792659999999,"LONGITUDE":58}},{"type":"Feature","id":377,"geometry":{"type":"Point","coordinates":[57.631369803736114,19.62847771239738]},"properties":{"FID":377,"NAMEEN":"Anwar Babil Clinic - Wadi Say","WILLAYAT":" Wilayat Ad Duqm","GOV":" Al Wusta Governorate","LATITUDE":19.628477709999999,"LONGITUDE":58}},{"type":"Feature","id":378,"geometry":{"type":"Point","coordinates":[59.513728801260051,22.577457653787246]},"properties":{"FID":378,"NAMEEN":"Mahfudh Dental Clinic - Sur","WILLAYAT":" Wilayat Sur","GOV":" Ash Sharqiyah South Governorate","LATITUDE":22.577457649999999,"LONGITUDE":60}},{"type":"Feature","id":379,"geometry":{"type":"Point","coordinates":[57.40438297770536,23.82932158622015]},"properties":{"FID":379,"NAMEEN":"Al Qadisyah Specialized Clinic - As Suwayq","WILLAYAT":" Wilayat As Suwayq","GOV":" Al Batinah North Governorate","LATITUDE":23.829321589999999,"LONGITUDE":57}},{"type":"Feature","id":380,"geometry":{"type":"Point","coordinates":[57.52212965261549,23.785789834097589]},"properties":{"FID":380,"NAMEEN":"Al Mona Clinic - Ath Tharmad","WILLAYAT":" Wilayat As Suwayq","GOV":" Al Batinah North Governorate","LATITUDE":23.785789829999999,"LONGITUDE":58}},{"type":"Feature","id":381,"geometry":{"type":"Point","coordinates":[58.543217960586105,23.594586305861753]},"properties":{"FID":381,"NAMEEN":"Homoephathic Clinic - Mutrah","WILLAYAT":" Wilayat Mutrah","GOV":" Muscat Governorate","LATITUDE":23.59458631,"LONGITUDE":59}},{"type":"Feature","id":382,"geometry":{"type":"Point","coordinates":[57.537247000384937,22.383671400289042]},"properties":{"FID":382,"NAMEEN":"Fanja Modern Clinic - Adam","WILLAYAT":" Wilayat Adam","GOV":" Ad Dakhliyah Governorate","LATITUDE":22.383671400000001,"LONGITUDE":58}},{"type":"Feature","id":383,"geometry":{"type":"Point","coordinates":[57.517040200145395,22.378166500330195]},"properties":{"FID":383,"NAMEEN":"Al Naqaa Medical Clinic - Adam","WILLAYAT":" Wilayat Adam","GOV":" Ad Dakhliyah Governorate","LATITUDE":22.378166499999999,"LONGITUDE":58}},{"type":"Feature","id":384,"geometry":{"type":"Point","coordinates":[58.498377596001937,23.484320108304509]},"properties":{"FID":384,"NAMEEN":"Al Noor Clinic - Al Amrat","WILLAYAT":" Wilayat Al Amrat","GOV":" Muscat Governorate","LATITUDE":23.484320109999999,"LONGITUDE":58}},{"type":"Feature","id":385,"geometry":{"type":"Point","coordinates":[59.329945838629378,22.015801101691441]},"properties":{"FID":385,"NAMEEN":"Omaq Medical Clinic - Jaalan Bani Bu Ali","WILLAYAT":" Wilayat Jaalan Bani Bu Ali","GOV":" Ash Sharqiyah South Governorate","LATITUDE":22.015801100000001,"LONGITUDE":59}},{"type":"Feature","id":386,"geometry":{"type":"Point","coordinates":[55.774140916649927,24.24365684375358]},"properties":{"FID":386,"NAMEEN":"Al Afeya Medical Clinic - Al Buraymi","WILLAYAT":" Wilayat Al Buraymi","GOV":" Al Buraymi Governorate","LATITUDE":24.24365684,"LONGITUDE":56}},{"type":"Feature","id":387,"geometry":{"type":"Point","coordinates":[55.77440880233479,24.244985747108778]},"properties":{"FID":387,"NAMEEN":"Hawaa Ibri Dental Clinic - Al Buraymi","WILLAYAT":" Wilayat Al Buraymi","GOV":" Al Buraymi Governorate","LATITUDE":24.244985750000001,"LONGITUDE":56}},{"type":"Feature","id":388,"geometry":{"type":"Point","coordinates":[58.214947600382303,23.611539299632096]},"properties":{"FID":388,"NAMEEN":"Nabdh Al Afiya Clinic - As Seeb","WILLAYAT":" Wilayat As Seeb","GOV":" Muscat Governorate","LATITUDE":23.6115393,"LONGITUDE":58}},{"type":"Feature","id":389,"geometry":{"type":"Point","coordinates":[58.222543999867433,23.642209999703294]},"properties":{"FID":389,"NAMEEN":"Lyona Dental Clinic - As Seeb","WILLAYAT":" Wilayat As Seeb","GOV":" Muscat Governorate","LATITUDE":23.642209999999999,"LONGITUDE":58}},{"type":"Feature","id":390,"geometry":{"type":"Point","coordinates":[58.544857464578222,23.590215095258788]},"properties":{"FID":390,"NAMEEN":"Al Warda General and Dental Clinic - Mutrah","WILLAYAT":" Wilayat Mutrah","GOV":" Muscat Governorate","LATITUDE":23.590215100000002,"LONGITUDE":59}},{"type":"Feature","id":391,"geometry":{"type":"Point","coordinates":[57.884782255052549,23.669133144023366]},"properties":{"FID":391,"NAMEEN":"Bowsher Dental Clinic - As Sawmhan","WILLAYAT":" Wilayat Barka","GOV":" Al Batinah South Governorate","LATITUDE":23.66913314,"LONGITUDE":58}},{"type":"Feature","id":392,"geometry":{"type":"Point","coordinates":[58.444497584751289,23.600234377561758]},"properties":{"FID":392,"NAMEEN":"Silkor Dermatology Clinic - Bawshar","WILLAYAT":" Wilayat Bawshar","GOV":" Muscat Governorate","LATITUDE":23.60023438,"LONGITUDE":58}},{"type":"Feature","id":393,"geometry":{"type":"Point","coordinates":[54.106670391234509,17.013111929105655]},"properties":{"FID":393,"NAMEEN":"Al Ameen Indian Ayurveda Clinic - Salalah","WILLAYAT":" Wilayat Salalah","GOV":" Dhofar Governorate","LATITUDE":17.013111930000001,"LONGITUDE":54}},{"type":"Feature","id":394,"geometry":{"type":"Point","coordinates":[58.149131799994286,23.670692700303743]},"properties":{"FID":394,"NAMEEN":"Abu Zimam Center for Herbs and Natural Medicines - As Seeb","WILLAYAT":" Wilayat As Seeb","GOV":" Muscat Governorate","LATITUDE":23.6706927,"LONGITUDE":58}},{"type":"Feature","id":395,"geometry":{"type":"Point","coordinates":[57.535819099652699,22.930253699996964]},"properties":{"FID":395,"NAMEEN":"Al Ikhlas Indian Ayuruvedic Clinic - Nizwa","WILLAYAT":" Wilayat Nizwa","GOV":" Ad Dakhliyah Governorate","LATITUDE":22.930253700000002,"LONGITUDE":58}},{"type":"Feature","id":396,"geometry":{"type":"Point","coordinates":[54.099538597603093,17.016857498094005]},"properties":{"FID":396,"NAMEEN":"Al Tahani Ayuruvedic Clinic - Salalah","WILLAYAT":" Wilayat Salalah","GOV":" Dhofar Governorate","LATITUDE":17.0168575,"LONGITUDE":54}},{"type":"Feature","id":397,"geometry":{"type":"Point","coordinates":[58.386999667713589,23.598514802591009]},"properties":{"FID":397,"NAMEEN":"Ideal Care of Indian Medicine - Bawshar","WILLAYAT":" Wilayat Bawshar","GOV":" Muscat Governorate","LATITUDE":23.5985148,"LONGITUDE":58}},{"type":"Feature","id":398,"geometry":{"type":"Point","coordinates":[58.36231040871165,23.588335506180279]},"properties":{"FID":398,"NAMEEN":"Al Nafae Chinese Medicine Clinic - Bawshar","WILLAYAT":" Wilayat Bawshar","GOV":" Muscat Governorate","LATITUDE":23.58833551,"LONGITUDE":58}},{"type":"Feature","id":399,"geometry":{"type":"Point","coordinates":[58.404339285002415,23.591245254800477]},"properties":{"FID":399,"NAMEEN":"Al Esterkha Physiotherapy Clinic - Bawshar","WILLAYAT":" Wilayat Bawshar","GOV":" Muscat Governorate","LATITUDE":23.59124525,"LONGITUDE":58}},{"type":"Feature","id":400,"geometry":{"type":"Point","coordinates":[58.423024199929557,23.586154305043902]},"properties":{"FID":400,"NAMEEN":"Al Nafae Natural Herb Center - Bawshar","WILLAYAT":" Wilayat Bawshar","GOV":" Muscat Governorate","LATITUDE":23.586154310000001,"LONGITUDE":58}},{"type":"Feature","id":401,"geometry":{"type":"Point","coordinates":[58.397118895569911,23.591270970214552]},"properties":{"FID":401,"NAMEEN":"Areej Physiotherapy Clinic - Bawshar","WILLAYAT":" Wilayat Bawshar","GOV":" Muscat Governorate","LATITUDE":23.59127097,"LONGITUDE":58}},{"type":"Feature","id":402,"geometry":{"type":"Point","coordinates":[58.453169868618723,23.606606379444056]},"properties":{"FID":402,"NAMEEN":"Emirates Medical Center - Bawshar","WILLAYAT":" Wilayat Bawshar","GOV":" Muscat Governorate","LATITUDE":23.606606379999999,"LONGITUDE":58}},{"type":"Feature","id":403,"geometry":{"type":"Point","coordinates":[58.223418383677263,23.640706234754614]},"properties":{"FID":403,"NAMEEN":"Natural  Care  Center - As Seeb","WILLAYAT":" Wilayat As Seeb","GOV":" Muscat Governorate","LATITUDE":23.640706229999999,"LONGITUDE":58}},{"type":"Feature","id":404,"geometry":{"type":"Point","coordinates":[58.378600327618102,23.600375348761645]},"properties":{"FID":404,"NAMEEN":"Modern Skin Center - Bawshar","WILLAYAT":" Wilayat Bawshar","GOV":" Muscat Governorate","LATITUDE":23.60037535,"LONGITUDE":58}},{"type":"Feature","id":405,"geometry":{"type":"Point","coordinates":[58.185057200176963,23.684534400280508]},"properties":{"FID":405,"NAMEEN":"Abnaa Fresh Ayurvedic Clinic - As Seeb","WILLAYAT":" Wilayat As Seeb","GOV":" Muscat Governorate","LATITUDE":23.6845344,"LONGITUDE":58}},{"type":"Feature","id":406,"geometry":{"type":"Point","coordinates":[55.771880067934426,24.240591403768235]},"properties":{"FID":406,"NAMEEN":"Al Ahlam Chinese Medical Clinic - Al Buraymi","WILLAYAT":" Wilayat Al Buraymi","GOV":" Al Buraymi Governorate","LATITUDE":24.2405914,"LONGITUDE":56}},{"type":"Feature","id":407,"geometry":{"type":"Point","coordinates":[56.716471831393136,24.367575222930974]},"properties":{"FID":407,"NAMEEN":"Al Taif Dermatology Center - Sohar","WILLAYAT":" Wilayat Sohar","GOV":" Al Batinah North Governorate","LATITUDE":24.367575219999999,"LONGITUDE":57}},{"type":"Feature","id":408,"geometry":{"type":"Point","coordinates":[58.446673291007954,23.599986229569321]},"properties":{"FID":408,"NAMEEN":"Al Manal Clinic For Physical Therapy - Bawshar","WILLAYAT":" Wilayat Bawshar","GOV":" Muscat Governorate","LATITUDE":23.599986229999999,"LONGITUDE":58}},{"type":"Feature","id":409,"geometry":{"type":"Point","coordinates":[58.400675699568502,23.596809699628718]},"properties":{"FID":409,"NAMEEN":"Amar Dermatology Clinic - Bawshar","WILLAYAT":" Wilayat Bawshar","GOV":" Muscat Governorate","LATITUDE":23.596809700000001,"LONGITUDE":58}},{"type":"Feature","id":410,"geometry":{"type":"Point","coordinates":[58.205587370089468,23.639200527865654]},"properties":{"FID":410,"NAMEEN":"Sama Qortoba Physiotherapy Clinic  - As Seeb","WILLAYAT":" Wilayat As Seeb","GOV":" Muscat Governorate","LATITUDE":23.63920053,"LONGITUDE":58}},{"type":"Feature","id":411,"geometry":{"type":"Point","coordinates":[58.240345460904209,23.609967206175146]},"properties":{"FID":411,"NAMEEN":"Al Inshirah Indian Ayruvedic Clinic - As Seeb","WILLAYAT":" Wilayat As Seeb","GOV":" Muscat Governorate","LATITUDE":23.609967210000001,"LONGITUDE":58}},{"type":"Feature","id":412,"geometry":{"type":"Point","coordinates":[58.241394521025164,23.609693958202083]},"properties":{"FID":412,"NAMEEN":"VLCC International - As Seeb","WILLAYAT":" Wilayat As Seeb","GOV":" Muscat Governorate","LATITUDE":23.609693960000001,"LONGITUDE":58}},{"type":"Feature","id":413,"geometry":{"type":"Point","coordinates":[57.219690913300262,23.902435040897277]},"properties":{"FID":413,"NAMEEN":"Atlas Physiotherapy & General Clinic - Diyan Al Bu Said","WILLAYAT":" Wilayat As Suwayq","GOV":" Al Batinah North Governorate","LATITUDE":23.90243504,"LONGITUDE":57}},{"type":"Feature","id":414,"geometry":{"type":"Point","coordinates":[57.42255327435894,23.821731545249762]},"properties":{"FID":414,"NAMEEN":"Physiotherapy Center & Speech Therapy - As Suwayq","WILLAYAT":" Wilayat As Suwayq","GOV":" Al Batinah North Governorate","LATITUDE":23.821731549999999,"LONGITUDE":57}},{"type":"Feature","id":415,"geometry":{"type":"Point","coordinates":[58.441330745465841,23.594294905319622]},"properties":{"FID":415,"NAMEEN":"Swasthe Muscat Clinic - Bawshar","WILLAYAT":" Wilayat Bawshar","GOV":" Muscat Governorate","LATITUDE":23.594294909999999,"LONGITUDE":58}},{"type":"Feature","id":416,"geometry":{"type":"Point","coordinates":[58.426699530388134,23.596457428392483]},"properties":{"FID":416,"NAMEEN":"Seasons Of The Year Indian Medicine Clinic Ayurvedic   - Bawshar","WILLAYAT":" Wilayat Bawshar","GOV":" Muscat Governorate","LATITUDE":23.596457430000001,"LONGITUDE":58}},{"type":"Feature","id":417,"geometry":{"type":"Point","coordinates":[59.225636645970823,22.178511245164959]},"properties":{"FID":417,"NAMEEN":"Rihanat Al Wafi Indian Ayurvedic Clinic (kottol) - Al Kamil Wa Al Wafi","WILLAYAT":" Wilayat Al Kamil Wa Al Wafi","GOV":" Ash Sharqiyah South Governorate","LATITUDE":22.17851125,"LONGITUDE":59}},{"type":"Feature","id":418,"geometry":{"type":"Point","coordinates":[59.371997820013121,22.020280122936725]},"properties":{"FID":418,"NAMEEN":"Indian Ayurveda Clinic - Jaalan Bani Bu Ali","WILLAYAT":" Wilayat Jaalan Bani Bu Ali","GOV":" Ash Sharqiyah South Governorate","LATITUDE":22.020280119999999,"LONGITUDE":59}},{"type":"Feature","id":419,"geometry":{"type":"Point","coordinates":[55.769775250340011,24.258704944892042]},"properties":{"FID":419,"NAMEEN":"Indian Ayurvedic Clinic - Al Buraymi","WILLAYAT":" Wilayat Al Buraymi","GOV":" Al Buraymi Governorate","LATITUDE":24.258704940000001,"LONGITUDE":56}},{"type":"Feature","id":420,"geometry":{"type":"Point","coordinates":[55.77416907974925,24.243288772131496]},"properties":{"FID":420,"NAMEEN":"Dermatology and Venereal Indian Herbal Clinic - Al Buraymi","WILLAYAT":" Wilayat Al Buraymi","GOV":" Al Buraymi Governorate","LATITUDE":24.243288769999999,"LONGITUDE":56}},{"type":"Feature","id":421,"geometry":{"type":"Point","coordinates":[55.779767032063013,24.246265930368896]},"properties":{"FID":421,"NAMEEN":"Mercury Indian Ayurvedic Clinic - Al Buraymi","WILLAYAT":" Wilayat Al Buraymi","GOV":" Al Buraymi Governorate","LATITUDE":24.24626593,"LONGITUDE":56}},{"type":"Feature","id":422,"geometry":{"type":"Point","coordinates":[58.541579238702184,23.588850155705433]},"properties":{"FID":422,"NAMEEN":"Kottakal Indian Ayurvedic Centre - Mutrah","WILLAYAT":" Wilayat Mutrah","GOV":" Muscat Governorate","LATITUDE":23.58885016,"LONGITUDE":59}},{"type":"Feature","id":423,"geometry":{"type":"Point","coordinates":[58.54217062267935,23.590311453237948]},"properties":{"FID":423,"NAMEEN":"Coimbatore Ayurvedic Centre - Mutrah","WILLAYAT":" Wilayat Mutrah","GOV":" Muscat Governorate","LATITUDE":23.590311450000002,"LONGITUDE":59}},{"type":"Feature","id":424,"geometry":{"type":"Point","coordinates":[58.197347523317042,23.63094867504612]},"properties":{"FID":424,"NAMEEN":"Hayil  Ayurvedic Center - As Seeb","WILLAYAT":" Wilayat As Seeb","GOV":" Muscat Governorate","LATITUDE":23.630948679999999,"LONGITUDE":58}},{"type":"Feature","id":425,"geometry":{"type":"Point","coordinates":[58.215008299569,23.611377299634995]},"properties":{"FID":425,"NAMEEN":"Al Wameed Al Moshreq Clinic for Physiotherapy and Rehabilitation - As Seeb","WILLAYAT":" Wilayat As Seeb","GOV":" Muscat Governorate","LATITUDE":23.611377300000001,"LONGITUDE":58}},{"type":"Feature","id":426,"geometry":{"type":"Point","coordinates":[58.384099632410802,23.589307776301915]},"properties":{"FID":426,"NAMEEN":"Muscat Dermatology & Cosmetic - Bawshar","WILLAYAT":" Wilayat Bawshar","GOV":" Muscat Governorate","LATITUDE":23.589307779999999,"LONGITUDE":58}},{"type":"Feature","id":427,"geometry":{"type":"Point","coordinates":[58.176337399587119,23.683078900359163]},"properties":{"FID":427,"NAMEEN":"Coimbatore Ayurvedic Centre - As Seeb","WILLAYAT":" Wilayat As Seeb","GOV":" Muscat Governorate","LATITUDE":23.683078900000002,"LONGITUDE":58}},{"type":"Feature","id":428,"geometry":{"type":"Point","coordinates":[58.215042900234849,23.611333500366651]},"properties":{"FID":428,"NAMEEN":"Bright Flash Physiotherapy Clinic - As Seeb","WILLAYAT":" Wilayat As Seeb","GOV":" Muscat Governorate","LATITUDE":23.611333500000001,"LONGITUDE":58}},{"type":"Feature","id":429,"geometry":{"type":"Point","coordinates":[58.44906971048313,23.604016893812577]},"properties":{"FID":429,"NAMEEN":"VLCC International - Bawshar","WILLAYAT":" Wilayat Bawshar","GOV":" Muscat Governorate","LATITUDE":23.60401689,"LONGITUDE":58}},{"type":"Feature","id":430,"geometry":{"type":"Point","coordinates":[56.868838901008878,24.138339348359121]},"properties":{"FID":430,"NAMEEN":"Bashayer Al Shifa Physiotherapy Clinic - Murtafaat Saham","WILLAYAT":" Wilayat Saham","GOV":" Al Batinah North Governorate","LATITUDE":24.138339349999999,"LONGITUDE":57}},{"type":"Feature","id":431,"geometry":{"type":"Point","coordinates":[56.743620307669339,24.338233492003436]},"properties":{"FID":431,"NAMEEN":"Morning Light Indian Ayurvedic Clinic - Sohar","WILLAYAT":" Wilayat Sohar","GOV":" Al Batinah North Governorate","LATITUDE":24.33823349,"LONGITUDE":57}},{"type":"Feature","id":432,"geometry":{"type":"Point","coordinates":[56.730926867813494,24.346298598041724]},"properties":{"FID":432,"NAMEEN":"Kottakal Indian Ayurvedic Centre - Sohar","WILLAYAT":" Wilayat Sohar","GOV":" Al Batinah North Governorate","LATITUDE":24.346298600000001,"LONGITUDE":57}},{"type":"Feature","id":433,"geometry":{"type":"Point","coordinates":[56.721000321183617,24.322760409857963]},"properties":{"FID":433,"NAMEEN":"Zaheret Qirtaj Physiotherapy Clinic - Sohar","WILLAYAT":" Wilayat Sohar","GOV":" Al Batinah North Governorate","LATITUDE":24.322760410000001,"LONGITUDE":57}},{"type":"Feature","id":434,"geometry":{"type":"Point","coordinates":[54.093094718023423,17.013727877847383]},"properties":{"FID":434,"NAMEEN":"City Ayurvedic Clinic - Salalah","WILLAYAT":" Wilayat Salalah","GOV":" Dhofar Governorate","LATITUDE":17.013727880000001,"LONGITUDE":54}},{"type":"Feature","id":435,"geometry":{"type":"Point","coordinates":[58.249254538011492,23.597644431086366]},"properties":{"FID":435,"NAMEEN":"Psychology Center - As Seeb","WILLAYAT":" Wilayat As Seeb","GOV":" Muscat Governorate","LATITUDE":23.597644429999999,"LONGITUDE":58}},{"type":"Feature","id":436,"geometry":{"type":"Point","coordinates":[58.183334510569352,23.682737147821413]},"properties":{"FID":436,"NAMEEN":"As Seeb Ayurvedic Center - As Seeb","WILLAYAT":" Wilayat As Seeb","GOV":" Muscat Governorate","LATITUDE":23.682737150000001,"LONGITUDE":58}},{"type":"Feature","id":437,"geometry":{"type":"Point","coordinates":[58.172271139694878,22.839086001780963]},"properties":{"FID":437,"NAMEEN":"AL Rawdah Natural Herbs Center - Ash Shiriah","WILLAYAT":" Wilayat Al Mudaybi","GOV":" Ash Sharqiyah North Governorate","LATITUDE":22.839086000000002,"LONGITUDE":58}},{"type":"Feature","id":438,"geometry":{"type":"Point","coordinates":[58.529347590875304,22.717646126865116]},"properties":{"FID":438,"NAMEEN":"AL Intisar Clinic Indian Ayurveda Parickal - Ibra","WILLAYAT":" Wilayat Ibra","GOV":" Ash Sharqiyah North Governorate","LATITUDE":22.717646129999999,"LONGITUDE":59}},{"type":"Feature","id":439,"geometry":{"type":"Point","coordinates":[58.403879523548639,23.594608138312132]},"properties":{"FID":439,"NAMEEN":"Daramsi Eyes Medical Center - Bawshar","WILLAYAT":" Wilayat Bawshar","GOV":" Muscat Governorate","LATITUDE":23.594608139999998,"LONGITUDE":58}},{"type":"Feature","id":440,"geometry":{"type":"Point","coordinates":[58.496664690373251,23.610968227427076]},"properties":{"FID":440,"NAMEEN":"Dar El Oyoun Eye Laser Center - Mutrah","WILLAYAT":" Wilayat Mutrah","GOV":" Muscat Governorate","LATITUDE":23.610968230000001,"LONGITUDE":58}},{"type":"Feature","id":441,"geometry":{"type":"Point","coordinates":[58.424774012548156,23.596251649156798]},"properties":{"FID":441,"NAMEEN":"International Eye & Ear Center - Bawshar","WILLAYAT":" Wilayat Bawshar","GOV":" Muscat Governorate","LATITUDE":23.596251649999999,"LONGITUDE":58}},{"type":"Feature","id":442,"geometry":{"type":"Point","coordinates":[55.782613573232332,24.255428784840511]},"properties":{"FID":442,"NAMEEN":"Dar El Oyoun Eye Laser Center - Al Buraymi","WILLAYAT":" Wilayat Al Buraymi","GOV":" Al Buraymi Governorate","LATITUDE":24.255428779999999,"LONGITUDE":56}},{"type":"Feature","id":443,"geometry":{"type":"Point","coordinates":[54.075796244792343,17.022402501060455]},"properties":{"FID":443,"NAMEEN":"Finland Eye Center - Salalah","WILLAYAT":" Wilayat Salalah","GOV":" Dhofar Governorate","LATITUDE":17.022402499999998,"LONGITUDE":54}},{"type":"Feature","id":444,"geometry":{"type":"Point","coordinates":[58.426207297763114,23.596538313140258]},"properties":{"FID":444,"NAMEEN":"Alalya Iranan Ophthalmology Specialist - Bawshar","WILLAYAT":" Wilayat Bawshar","GOV":" Muscat Governorate","LATITUDE":23.59653831,"LONGITUDE":58}},{"type":"Feature","id":445,"geometry":{"type":"Point","coordinates":[58.491215115346883,23.62301500416638]},"properties":{"FID":445,"NAMEEN":"Finland Eye Center - Mutrah","WILLAYAT":" Wilayat Mutrah","GOV":" Muscat Governorate","LATITUDE":23.623014999999999,"LONGITUDE":58}},{"type":"Feature","id":446,"geometry":{"type":"Point","coordinates":[58.51971108243378,23.599917569806983]},"properties":{"FID":446,"NAMEEN":"Magrabi Eye & Ear Center - Mutrah","WILLAYAT":" Wilayat Mutrah","GOV":" Muscat Governorate","LATITUDE":23.599917569999999,"LONGITUDE":59}},{"type":"Feature","id":447,"geometry":{"type":"Point","coordinates":[54.065208676640296,17.02017741856557]},"properties":{"FID":447,"NAMEEN":"Oman Eye Center - Salalah","WILLAYAT":" Wilayat Salalah","GOV":" Dhofar Governorate","LATITUDE":17.02017742,"LONGITUDE":54}},{"type":"Feature","id":448,"geometry":{"type":"Point","coordinates":[58.450177959622636,23.604432749008375]},"properties":{"FID":448,"NAMEEN":"Muscat Eye Laser  - Bawshar","WILLAYAT":" Wilayat Bawshar","GOV":" Muscat Governorate","LATITUDE":23.604432750000001,"LONGITUDE":58}},{"type":"Feature","id":449,"geometry":{"type":"Point","coordinates":[58.463723410955858,23.61220346119423]},"properties":{"FID":449,"NAMEEN":"German Eye Center - Bawshar","WILLAYAT":" Wilayat Bawshar","GOV":" Muscat Governorate","LATITUDE":23.61220346,"LONGITUDE":58}},{"type":"Feature","id":450,"geometry":{"type":"Point","coordinates":[56.711546999926419,24.359102000275193]},"properties":{"FID":450,"NAMEEN":"Finland Eye Center - Sohar","WILLAYAT":" Wilayat Sohar","GOV":" Al Batinah North Governorate","LATITUDE":24.359102,"LONGITUDE":57}}]}