{"type":"FeatureCollection","features":[{"type":"Feature","id":1,"geometry":{"type":"Point","coordinates":[58.592200000383819,22.666500000061713]},"properties":{"OBJECTID":1,"NAMEEN":"New Ibra Extended Health Center","WILLAYAT":" Wilayat Ibra","GOVERNORATE":" Ash Sharqiyah North Governorate","LATITUDE":22.666499999999999,"LONGITUDE":58.592199999999998}},{"type":"Feature","id":2,"geometry":{"type":"Point","coordinates":[58.546799999950004,22.692100000242249]},"properties":{"OBJECTID":2,"NAMEEN":"Ibra Extended Health Center","WILLAYAT":" Wilayat Ibra","GOVERNORATE":" Ash Sharqiyah North Governorate","LATITUDE":22.6921,"LONGITUDE":58.546799999999998}},{"type":"Feature","id":3,"geometry":{"type":"Point","coordinates":[57.778499999916697,22.929900000419259]},"properties":{"OBJECTID":3,"NAMEEN":"Izki Extended Health Center","WILLAYAT":" Wilayat Izki","GOVERNORATE":" Ad Dakhliyah Governorate","LATITUDE":22.9299,"LONGITUDE":57.778500000000001}},{"type":"Feature","id":4,"geometry":{"type":"Point","coordinates":[57.078799999671688,23.961999999121769]},"properties":{"OBJECTID":4,"NAMEEN":"Al Khaburah Extended Health Center","WILLAYAT":" Wilayat Al Khaburah","GOVERNORATE":" Al Batinah North Governorate","LATITUDE":23.962,"LONGITUDE":57.078800000000001}},{"type":"Feature","id":5,"geometry":{"type":"Point","coordinates":[57.457500000462723,23.480699998921661]},"properties":{"OBJECTID":5,"NAMEEN":"Ar Rustaq Extended Health Center","WILLAYAT":" Wilayat Ar Rustaq","GOVERNORATE":" Al Batinah South Governorate","LATITUDE":23.480699999999999,"LONGITUDE":57.457500000000003}},{"type":"Feature","id":6,"geometry":{"type":"Point","coordinates":[57.422999999647821,23.817299998938232]},"properties":{"OBJECTID":6,"NAMEEN":"As Suwayq Extended Health Center","WILLAYAT":" Wilayat As Suwayq","GOVERNORATE":" Al Batinah North Governorate","LATITUDE":23.817299999999999,"LONGITUDE":57.423000000000002}},{"type":"Feature","id":7,"geometry":{"type":"Point","coordinates":[58.192599999900771,23.615100000024118]},"properties":{"OBJECTID":7,"NAMEEN":"As Seeb Extended Health Center","WILLAYAT":" Wilayat As Seeb","GOVERNORATE":" Muscat Governorate","LATITUDE":23.615100000000002,"LONGITUDE":58.192599999999999}},{"type":"Feature","id":8,"geometry":{"type":"Point","coordinates":[57.577099999901471,23.757099998938962]},"properties":{"OBJECTID":8,"NAMEEN":"Al Musanaah Extended Health Center","WILLAYAT":" Wilayat Al Musanaah","GOVERNORATE":" Al Batinah South Governorate","LATITUDE":23.757100000000001,"LONGITUDE":57.577100000000002}},{"type":"Feature","id":9,"geometry":{"type":"Point","coordinates":[58.513800000145302,23.611600000004852]},"properties":{"OBJECTID":9,"NAMEEN":"Al Wattyah Extended Health Center","WILLAYAT":" Wilayat Mutrah","GOVERNORATE":" Muscat Governorate","LATITUDE":23.611599999999999,"LONGITUDE":58.513800000000003}},{"type":"Feature","id":10,"geometry":{"type":"Point","coordinates":[57.87649999983806,23.665100000941468]},"properties":{"OBJECTID":10,"NAMEEN":"Barka Extended Health Center","WILLAYAT":" Wilayat Barka","GOVERNORATE":" Al Batinah South Governorate","LATITUDE":23.665099999999999,"LONGITUDE":57.8765}},{"type":"Feature","id":11,"geometry":{"type":"Point","coordinates":[57.326299999934271,23.016899999334925]},"properties":{"OBJECTID":11,"NAMEEN":"Bahla Extended Health Center","WILLAYAT":" Wilayat Bahla","GOVERNORATE":" Ad Dakhliyah Governorate","LATITUDE":23.0169,"LONGITUDE":57.326300000000003}},{"type":"Feature","id":12,"geometry":{"type":"Point","coordinates":[58.389199999816427,23.572699999062259]},"properties":{"OBJECTID":12,"NAMEEN":"Bowshar Extended Health Center","WILLAYAT":" Wilayat Bawshar","GOVERNORATE":" Muscat Governorate","LATITUDE":23.572700000000001,"LONGITUDE":58.389200000000002}},{"type":"Feature","id":13,"geometry":{"type":"Point","coordinates":[59.315399999593502,22.055199999000489]},"properties":{"OBJECTID":13,"NAMEEN":"Jaalan Bani Bu Ali Extended Health Center","WILLAYAT":" Wilayat Jaalan Bani Bu Ali","GOVERNORATE":" Ash Sharqiyah South Governorate","LATITUDE":22.055199999999999,"LONGITUDE":59.315399999999997}},{"type":"Feature","id":14,"geometry":{"type":"Point","coordinates":[56.250899999848521,26.182499999109037]},"properties":{"OBJECTID":14,"NAMEEN":"Khasab Extended Health Center","WILLAYAT":" Wilayat Khasab","GOVERNORATE":" Musandam Governorate","LATITUDE":26.182500000000001,"LONGITUDE":56.250900000000001}},{"type":"Feature","id":15,"geometry":{"type":"Point","coordinates":[57.959300000058548,23.292899999738445]},"properties":{"OBJECTID":15,"NAMEEN":"Samail Extended Health Center","WILLAYAT":" Wilayat Samail","GOVERNORATE":" Ad Dakhliyah Governorate","LATITUDE":23.292899999999999,"LONGITUDE":57.959299999999999}},{"type":"Feature","id":16,"geometry":{"type":"Point","coordinates":[56.457300000273982,24.699899999069792]},"properties":{"OBJECTID":16,"NAMEEN":"Shinas Extended Health Center","WILLAYAT":" Wilayat Shinas","GOVERNORATE":" Al Batinah North Governorate","LATITUDE":24.6999,"LONGITUDE":56.457299999999996}},{"type":"Feature","id":17,"geometry":{"type":"Point","coordinates":[56.734000000425461,24.345899998594572]},"properties":{"OBJECTID":17,"NAMEEN":"Sohar Extended Health Center","WILLAYAT":" Wilayat Sohar","GOVERNORATE":" Al Batinah North Governorate","LATITUDE":24.3459,"LONGITUDE":56.734000000000002}},{"type":"Feature","id":18,"geometry":{"type":"Point","coordinates":[56.872200000404902,24.13869999863439]},"properties":{"OBJECTID":18,"NAMEEN":"Saham Extended Health Center","WILLAYAT":" Wilayat Saham","GOVERNORATE":" Al Batinah North Governorate","LATITUDE":24.1387,"LONGITUDE":56.872199999999999}},{"type":"Feature","id":19,"geometry":{"type":"Point","coordinates":[59.517399999891289,22.580499998554604]},"properties":{"OBJECTID":19,"NAMEEN":"Sur Extended Health Center","WILLAYAT":" Wilayat Sur","GOVERNORATE":" Ash Sharqiyah South Governorate","LATITUDE":22.580500000000001,"LONGITUDE":59.517400000000002}},{"type":"Feature","id":20,"geometry":{"type":"Point","coordinates":[56.51409999952606,23.240599999269282]},"properties":{"OBJECTID":20,"NAMEEN":"Ibri Extended Health Center","WILLAYAT":" Wilayat Ibri","GOVERNORATE":" Adh Dhahirah Governorate","LATITUDE":23.240600000000001,"LONGITUDE":56.514099999999999}},{"type":"Feature","id":21,"geometry":{"type":"Point","coordinates":[58.895100000280145,23.214799999758274]},"properties":{"OBJECTID":21,"NAMEEN":"Qurayyat Extended Health Center","WILLAYAT":" Wilayat Qurayyat","GOVERNORATE":" Muscat Governorate","LATITUDE":23.2148,"LONGITUDE":58.895099999999999}},{"type":"Feature","id":22,"geometry":{"type":"Point","coordinates":[57.523200000183166,22.951600000043307]},"properties":{"OBJECTID":22,"NAMEEN":"Nizwa Extended Health Center","WILLAYAT":" Wilayat Nizwa","GOVERNORATE":" Ad Dakhliyah Governorate","LATITUDE":22.951599999999999,"LONGITUDE":57.523200000000003}},{"type":"Feature","id":23,"geometry":{"type":"Point","coordinates":[55.783891190150712,24.257570471873102]},"properties":{"OBJECTID":23,"NAMEEN":"Al Buraymi Extended Health Center","WILLAYAT":" Wilayat Al Buraymi","GOVERNORATE":" Al Buraymi Governorate","LATITUDE":24.257570470000001,"LONGITUDE":55.783891189999999}}]}