{"type":"FeatureCollection","features":[{"type":"Feature","id":0,"geometry":{"type":"Point","coordinates":[56.387499999862236,24.865300000430224]},"properties":{"FID":0,"NAMEEN":"Abu Baqrah Health Center","WILLAYAT":" Wilayat Shinas","GOV":" Al Batinah North Governorate","LATITUDE":24.865300000000001,"LONGITUDE":56.387500000000003}},{"type":"Feature","id":1,"geometry":{"type":"Point","coordinates":[58.885199999945947,22.891399999926968]},"properties":{"FID":1,"NAMEEN":"Ismaiyyah Health Center","WILLAYAT":" Wilayat Dama Wa At Taiyin","GOV":" Ash Sharqiyah North Governorate","LATITUDE":22.891400000000001,"LONGITUDE":58.885199999999998}},{"type":"Feature","id":2,"geometry":{"type":"Point","coordinates":[59.638099999745073,21.958900001344382]},"properties":{"FID":2,"NAMEEN":"Asilah Health Center","WILLAYAT":" Wilayat Jaalan Bani Bu Ali","GOV":" Ash Sharqiyah South Governorate","LATITUDE":21.9589,"LONGITUDE":59.638100000000001}},{"type":"Feature","id":3,"geometry":{"type":"Point","coordinates":[57.679800000444637,23.478499998638583]},"properties":{"FID":3,"NAMEEN":"Al Abyad Health Center","WILLAYAT":" Wilayat Nakhal","GOV":" Al Batinah South Governorate","LATITUDE":23.4785,"LONGITUDE":57.6798}},{"type":"Feature","id":4,"geometry":{"type":"Point","coordinates":[56.457299999690974,23.219699998786599]},"properties":{"FID":4,"NAMEEN":"Al Akhdar Health Centre","WILLAYAT":" Wilayat Ibri","GOV":" Adh Dhahirah Governorate","LATITUDE":23.2197,"LONGITUDE":56.457299999999996}},{"type":"Feature","id":5,"geometry":{"type":"Point","coordinates":[59.564300000281122,21.847999998585067]},"properties":{"FID":5,"NAMEEN":"Al Ashkharah Health Center","WILLAYAT":" Wilayat Jaalan Bani Bu Ali","GOV":" Ash Sharqiyah South Governorate","LATITUDE":21.847999999999999,"LONGITUDE":59.564300000000003}},{"type":"Feature","id":6,"geometry":{"type":"Point","coordinates":[58.211405999779629,22.384391999695616]},"properties":{"FID":6,"NAMEEN":"Al Aflaj Health Center","WILLAYAT":" Wilayat Al Mudaybi","GOV":" Ash Sharqiyah North Governorate","LATITUDE":22.384391999999998,"LONGITUDE":58.211405999999997}},{"type":"Feature","id":7,"geometry":{"type":"Point","coordinates":[58.351700000392789,23.534499998665073]},"properties":{"FID":7,"NAMEEN":"AL Ansab HC","WILLAYAT":" Wilayat Bawshar","GOV":" Muscat Governorate","LATITUDE":23.534500000000001,"LONGITUDE":58.351700000000001}},{"type":"Feature","id":8,"geometry":{"type":"Point","coordinates":[57.18530000000807,23.916499999872872]},"properties":{"FID":8,"NAMEEN":"Al Bidayah Health Center","WILLAYAT":" Wilayat As Suwayq","GOV":" Al Batinah North Governorate","LATITUDE":23.916499999999999,"LONGITUDE":57.185299999999998}},{"type":"Feature","id":9,"geometry":{"type":"Point","coordinates":[57.515099999641166,23.788400000115306]},"properties":{"FID":9,"NAMEEN":"Al Tharmed Health Centre","WILLAYAT":" Wilayat As Suwayq","GOV":" Al Batinah North Governorate","LATITUDE":23.788399999999999,"LONGITUDE":57.515099999999997}},{"type":"Feature","id":10,"geometry":{"type":"Point","coordinates":[57.978500000222681,21.914600000382244]},"properties":{"FID":10,"NAMEEN":"Al Jaza Health Center","WILLAYAT":" Wilayat Al Mudaybi","GOV":" Ash Sharqiyah North Governorate","LATITUDE":21.9146,"LONGITUDE":57.978499999999997}},{"type":"Feature","id":11,"geometry":{"type":"Point","coordinates":[58.507299999693096,23.398399998726841]},"properties":{"FID":11,"NAMEEN":"Al Hajir Health Center","WILLAYAT":" Wilayat Al Amrat","GOV":" Muscat Governorate","LATITUDE":23.398399999999999,"LONGITUDE":58.507300000000001}},{"type":"Feature","id":12,"geometry":{"type":"Point","coordinates":[53.097600000168399,18.458799998718042]},"properties":{"FID":12,"NAMEEN":"Al Hashman Health Centre","WILLAYAT":" Wilayat Thumrayt","GOV":" Dhofar Governorate","LATITUDE":18.4588,"LONGITUDE":53.0976}},{"type":"Feature","id":13,"geometry":{"type":"Point","coordinates":[55.964800000455959,17.508500000054866]},"properties":{"FID":13,"NAMEEN":"Al Hallaniyat Health Center","WILLAYAT":" Wilayat Shalim Wa Juzor Al Hallaniyat","GOV":" Dhofar Governorate","LATITUDE":17.508500000000002,"LONGITUDE":55.964799999999997}},{"type":"Feature","id":14,"geometry":{"type":"Point","coordinates":[57.274199999888893,23.09729999972356]},"properties":{"FID":14,"NAMEEN":"Al Hamra Health Center","WILLAYAT":" Wilayat Al Hamra","GOV":" Ad Dakhliyah Governorate","LATITUDE":23.097300000000001,"LONGITUDE":57.2742}},{"type":"Feature","id":15,"geometry":{"type":"Point","coordinates":[57.329900000083263,23.542199998724001]},"properties":{"FID":15,"NAMEEN":"Al Hawqayn Health Center","WILLAYAT":" Wilayat Ar Rustaq","GOV":" Al Batinah South Governorate","LATITUDE":23.542200000000001,"LONGITUDE":57.329900000000002}},{"type":"Feature","id":16,"geometry":{"type":"Point","coordinates":[58.221600000166298,23.614999999609182]},"properties":{"FID":16,"NAMEEN":"Al Hayl Health Center","WILLAYAT":" Wilayat As Seeb","GOV":" Muscat Governorate","LATITUDE":23.614999999999998,"LONGITUDE":58.221600000000002}},{"type":"Feature","id":17,"geometry":{"type":"Point","coordinates":[57.330299999905002,23.881100001309569]},"properties":{"FID":17,"NAMEEN":"Al Khadra Health Center","WILLAYAT":" Wilayat As Suwayq","GOV":" Al Batinah North Governorate","LATITUDE":23.8811,"LONGITUDE":57.330300000000001}},{"type":"Feature","id":18,"geometry":{"type":"Point","coordinates":[58.063200000457883,20.470899998780521]},"properties":{"FID":18,"NAMEEN":"Al Khaluf Health Center","WILLAYAT":" Wilayat Mahawt","GOV":" Al Wusta Governorate","LATITUDE":20.4709,"LONGITUDE":58.063200000000002}},{"type":"Feature","id":19,"geometry":{"type":"Point","coordinates":[58.203700000129437,23.622500001431209]},"properties":{"FID":19,"NAMEEN":"Al Khawd Health Center","WILLAYAT":" Wilayat As Seeb","GOV":" Muscat Governorate","LATITUDE":23.622499999999999,"LONGITUDE":58.203699999999998}},{"type":"Feature","id":20,"geometry":{"type":"Point","coordinates":[58.431300000319979,23.581900001032324]},"properties":{"FID":20,"NAMEEN":"Al Khuwayr North Health Center","WILLAYAT":" Wilayat Bawshar","GOV":" Muscat Governorate","LATITUDE":23.581900000000001,"LONGITUDE":58.4313}},{"type":"Feature","id":21,"geometry":{"type":"Point","coordinates":[54.17360000008987,17.022999999853937]},"properties":{"FID":21,"NAMEEN":"Ad Dahareez Health Center","WILLAYAT":" Wilayat Salalah","GOV":" Dhofar Governorate","LATITUDE":17.023,"LONGITUDE":54.1736}},{"type":"Feature","id":22,"geometry":{"type":"Point","coordinates":[57.112899999712369,23.445199999712663]},"properties":{"FID":22,"NAMEEN":"Ar Razi (Sini) Health Center","WILLAYAT":" Wilayat Ar Rustaq","GOV":" Al Batinah South Governorate","LATITUDE":23.4452,"LONGITUDE":57.112900000000003}},{"type":"Feature","id":23,"geometry":{"type":"Point","coordinates":[57.425499999746478,23.387499998900797]},"properties":{"FID":23,"NAMEEN":"Ar Rustaq Health Center","WILLAYAT":" Wilayat Ar Rustaq","GOV":" Al Batinah South Governorate","LATITUDE":23.387499999999999,"LONGITUDE":57.4255}},{"type":"Feature","id":24,"geometry":{"type":"Point","coordinates":[55.858300000153051,24.896999999975879]},"properties":{"FID":24,"NAMEEN":"Rawdah Health Center","WILLAYAT":" Wilayat Mahadah","GOV":" Al Buraymi Governorate","LATITUDE":24.896999999999998,"LONGITUDE":55.8583}},{"type":"Feature","id":25,"geometry":{"type":"Point","coordinates":[59.768300000230163,22.182499999192121]},"properties":{"FID":25,"NAMEEN":"Ar Ruways Health Center","WILLAYAT":" Wilayat Jaalan Bani Bu Ali","GOV":" Ash Sharqiyah South Governorate","LATITUDE":22.182500000000001,"LONGITUDE":59.768300000000004}},{"type":"Feature","id":26,"geometry":{"type":"Point","coordinates":[57.348999999885685,22.027799999396208]},"properties":{"FID":26,"NAMEEN":"Az Zahia Health Center","WILLAYAT":" Wilayat Adam","GOV":" Ad Dakhliyah Governorate","LATITUDE":22.027799999999999,"LONGITUDE":57.348999999999997}},{"type":"Feature","id":27,"geometry":{"type":"Point","coordinates":[54.158099999856105,17.05180000033717]},"properties":{"FID":27,"NAMEEN":"As Saadah Health Center","WILLAYAT":" Wilayat Salalah","GOV":" Dhofar Governorate","LATITUDE":17.0518,"LONGITUDE":54.158099999999997}},{"type":"Feature","id":28,"geometry":{"type":"Point","coordinates":[55.963500000258229,23.600299998663811]},"properties":{"FID":28,"NAMEEN":"As Sunaynah Health Center","WILLAYAT":" Wilayat As Sunaynah","GOV":" Al Buraymi Governorate","LATITUDE":23.600300000000001,"LONGITUDE":55.963500000000003}},{"type":"Feature","id":29,"geometry":{"type":"Point","coordinates":[57.733899999647427,23.725500000736147]},"properties":{"FID":29,"NAMEEN":"As Sawadi Health Center","WILLAYAT":" Wilayat Barka","GOV":" Al Batinah South Governorate","LATITUDE":23.7255,"LONGITUDE":57.733899999999998}},{"type":"Feature","id":30,"geometry":{"type":"Point","coordinates":[59.679499999582973,22.076800000178736]},"properties":{"FID":30,"NAMEEN":"As Siwayh Health Center","WILLAYAT":" Wilayat Jaalan Bani Bu Ali","GOV":" Ash Sharqiyah South Governorate","LATITUDE":22.076799999999999,"LONGITUDE":59.679499999999997}},{"type":"Feature","id":31,"geometry":{"type":"Point","coordinates":[58.192499999933531,23.662599999156289]},"properties":{"FID":31,"NAMEEN":"As Seeb Health Center","WILLAYAT":" Wilayat As Seeb","GOV":" Muscat Governorate","LATITUDE":23.662600000000001,"LONGITUDE":58.192500000000003}},{"type":"Feature","id":32,"geometry":{"type":"Point","coordinates":[58.782100000473484,23.426100001099851]},"properties":{"FID":32,"NAMEEN":"As Sifah Health Center","WILLAYAT":" Wilayat Muscat","GOV":" Muscat Governorate","LATITUDE":23.426100000000002,"LONGITUDE":58.7821}},{"type":"Feature","id":33,"geometry":{"type":"Point","coordinates":[58.15000000044737,23.694900000240324]},"properties":{"FID":33,"NAMEEN":"Ash Shaadi Health Center","WILLAYAT":" Wilayat As Seeb","GOV":" Muscat Governorate","LATITUDE":23.694900000000001,"LONGITUDE":58.149999999999999}},{"type":"Feature","id":34,"geometry":{"type":"Point","coordinates":[57.44820000029987,23.844300000414503]},"properties":{"FID":34,"NAMEEN":"Al Shiraysah Health Center","WILLAYAT":" Wilayat As Suwayq","GOV":" Al Batinah North Governorate","LATITUDE":23.8443,"LONGITUDE":57.4482}},{"type":"Feature","id":35,"geometry":{"type":"Point","coordinates":[55.616899999655665,17.886799999689131]},"properties":{"FID":35,"NAMEEN":"Ash Shuwaymiyah Health Center","WILLAYAT":" Wilayat Shalim Wa Juzor Al Hallaniyat","GOV":" Dhofar Governorate","LATITUDE":17.886800000000001,"LONGITUDE":55.616900000000001}},{"type":"Feature","id":36,"geometry":{"type":"Point","coordinates":[56.714000000165008,24.362600000571895]},"properties":{"FID":36,"NAMEEN":"Al Tareef Health center","WILLAYAT":" Wilayat Sohar","GOV":" Al Batinah North Governorate","LATITUDE":24.3626,"LONGITUDE":56.713999999999999}},{"type":"Feature","id":37,"geometry":{"type":"Point","coordinates":[58.822399999944167,22.600500000739675]},"properties":{"FID":37,"NAMEEN":"Adh Dhahir Health Center","WILLAYAT":" Wilayat Bidiyah","GOV":" Ash Sharqiyah North Governorate","LATITUDE":22.6005,"LONGITUDE":58.822400000000002}},{"type":"Feature","id":38,"geometry":{"type":"Point","coordinates":[58.491599999726908,23.471699999553273]},"properties":{"FID":38,"NAMEEN":"Al Amrat Health Center","WILLAYAT":" Wilayat Al Amrat","GOV":" Muscat Governorate","LATITUDE":23.471699999999998,"LONGITUDE":58.491599999999998}},{"type":"Feature","id":39,"geometry":{"type":"Point","coordinates":[58.35720000029017,23.601199998798506]},"properties":{"FID":39,"NAMEEN":"Al Azaiba Health Center","WILLAYAT":" Wilayat Bawshar","GOV":" Muscat Governorate","LATITUDE":23.601199999999999,"LONGITUDE":58.357199999999999}},{"type":"Feature","id":40,"geometry":{"type":"Point","coordinates":[57.539699999647802,23.312599999631153]},"properties":{"FID":40,"NAMEEN":"Al Awabi Health Center","WILLAYAT":" Wilayat Al Awabi","GOV":" Al Batinah South Governorate","LATITUDE":23.3126,"LONGITUDE":57.539700000000003}},{"type":"Feature","id":41,"geometry":{"type":"Point","coordinates":[56.806899999968742,24.265500000402991]},"properties":{"FID":41,"NAMEEN":"Al Uwaynat Health Center","WILLAYAT":" Wilayat Sohar","GOV":" Al Batinah North Governorate","LATITUDE":24.265499999999999,"LONGITUDE":56.806899999999999}},{"type":"Feature","id":42,"geometry":{"type":"Point","coordinates":[59.545399999816162,22.56299999911943]},"properties":{"FID":42,"NAMEEN":"Al Ayjah Health Center","WILLAYAT":" Wilayat Sur","GOV":" Ash Sharqiyah South Governorate","LATITUDE":22.562999999999999,"LONGITUDE":59.545400000000001}},{"type":"Feature","id":43,"geometry":{"type":"Point","coordinates":[56.558800000471578,23.297300000188446]},"properties":{"FID":43,"NAMEEN":"Al Ainin Health Center","WILLAYAT":" Wilayat Ibri","GOV":" Adh Dhahirah Governorate","LATITUDE":23.2973,"LONGITUDE":56.558799999999998}},{"type":"Feature","id":44,"geometry":{"type":"Point","coordinates":[58.051499999741345,22.371599999567945]},"properties":{"FID":44,"NAMEEN":"Al Uyun Health Center","WILLAYAT":" Wilayat Al Mudaybi","GOV":" Ash Sharqiyah North Governorate","LATITUDE":22.371600000000001,"LONGITUDE":58.051499999999997}},{"type":"Feature","id":45,"geometry":{"type":"Point","coordinates":[57.159100000332529,22.971699999982871]},"properties":{"FID":45,"NAMEEN":"Al Ghafat Health Center","WILLAYAT":" Wilayat Bahla","GOV":" Ad Dakhliyah Governorate","LATITUDE":22.971699999999998,"LONGITUDE":57.159100000000002}},{"type":"Feature","id":46,"geometry":{"type":"Point","coordinates":[56.064900000118406,18.627200000282876]},"properties":{"FID":46,"NAMEEN":"Al Ghubrah Al Janubiya Health Center","WILLAYAT":" Wilayat Al Jazir","GOV":" Al Wusta Governorate","LATITUDE":18.627199999999998,"LONGITUDE":56.064900000000002}},{"type":"Feature","id":47,"geometry":{"type":"Point","coordinates":[58.401300000084468,23.597999999014142]},"properties":{"FID":47,"NAMEEN":"Al Ghubrah Health Center","WILLAYAT":" Wilayat Bawshar","GOV":" Muscat Governorate","LATITUDE":23.597999999999999,"LONGITUDE":58.401299999999999}},{"type":"Feature","id":48,"geometry":{"type":"Point","coordinates":[56.858299999579664,24.185900000603727]},"properties":{"FID":48,"NAMEEN":"Al Ghuwaysah Health Center","WILLAYAT":" Wilayat Saham","GOV":" Al Batinah North Governorate","LATITUDE":24.1859,"LONGITUDE":56.8583}},{"type":"Feature","id":49,"geometry":{"type":"Point","coordinates":[59.250799999725068,21.48299999890266]},"properties":{"FID":49,"NAMEEN":"Al Ghaynah Health Center","WILLAYAT":" Wilayat Jaalan Bani Bu Hasan","GOV":" Ash Sharqiyah South Governorate","LATITUDE":21.483000000000001,"LONGITUDE":59.250799999999998}},{"type":"Feature","id":50,"geometry":{"type":"Point","coordinates":[56.168099999575524,24.036599999058286]},"properties":{"FID":50,"NAMEEN":"Al Fayyad Health Center","WILLAYAT":" Wilayat Al Buraymi","GOV":" Al Buraymi Governorate","LATITUDE":24.0366,"LONGITUDE":56.168100000000003}},{"type":"Feature","id":51,"geometry":{"type":"Point","coordinates":[58.689900000148874,22.581900001316889]},"properties":{"FID":51,"NAMEEN":"Al Qabil Health Center","WILLAYAT":" Wilayat Al Qabil","GOV":" Ash Sharqiyah North Governorate","LATITUDE":22.581900000000001,"LONGITUDE":58.689900000000002}},{"type":"Feature","id":52,"geometry":{"type":"Point","coordinates":[57.928000000430828,22.896299998692786]},"properties":{"FID":52,"NAMEEN":"Al Qaryatayn Health Center","WILLAYAT":" Wilayat Izki","GOV":" Ad Dakhliyah Governorate","LATITUDE":22.8963,"LONGITUDE":57.927999999999997}},{"type":"Feature","id":53,"geometry":{"type":"Point","coordinates":[57.062900000362248,24.013299999710867]},"properties":{"FID":53,"NAMEEN":"Al Qasbiyyah Health Center","WILLAYAT":" Wilayat Al Khaburah","GOV":" Al Batinah North Governorate","LATITUDE":24.013300000000001,"LONGITUDE":57.062899999999999}},{"type":"Feature","id":54,"geometry":{"type":"Point","coordinates":[59.216000000109034,22.197799998830352]},"properties":{"FID":54,"NAMEEN":"Al Kamil Wa Al Wafi Health Center","WILLAYAT":" Wilayat Al Kamil Wa Al Wafi","GOV":" Ash Sharqiyah South Governorate","LATITUDE":22.197800000000001,"LONGITUDE":59.216000000000001}},{"type":"Feature","id":55,"geometry":{"type":"Point","coordinates":[56.547099999988788,18.216600001446565]},"properties":{"FID":55,"NAMEEN":"Al Lakbi Health Center","WILLAYAT":" Wilayat Al Jazir","GOV":" Al Wusta Governorate","LATITUDE":18.2166,"LONGITUDE":56.5471}},{"type":"Feature","id":56,"geometry":{"type":"Point","coordinates":[58.863599999772525,23.086999999317534]},"properties":{"FID":56,"NAMEEN":"Al Mazari Health Center","WILLAYAT":" Wilayat Qurayyat","GOV":" Muscat Governorate","LATITUDE":23.087,"LONGITUDE":58.863599999999998}},{"type":"Feature","id":57,"geometry":{"type":"Point","coordinates":[52.65519999968113,17.841999999800819]},"properties":{"FID":57,"NAMEEN":"Al Mazyunah Health Center","WILLAYAT":" Wilayat Al Mazyunah","GOV":" Dhofar Governorate","LATITUDE":17.841999999999999,"LONGITUDE":52.655200000000001}},{"type":"Feature","id":58,"geometry":{"type":"Point","coordinates":[57.157199999694342,23.792499999557059]},"properties":{"FID":58,"NAMEEN":"Mashayiq Health Center","WILLAYAT":" Wilayat As Suwayq","GOV":" Al Batinah North Governorate","LATITUDE":23.7925,"LONGITUDE":57.157200000000003}},{"type":"Feature","id":59,"geometry":{"type":"Point","coordinates":[57.647999999632255,23.757399999633414]},"properties":{"FID":59,"NAMEEN":"Al Musanaah Health Center","WILLAYAT":" Wilayat Al Musanaah","GOV":" Al Batinah South Governorate","LATITUDE":23.757400000000001,"LONGITUDE":57.648000000000003}},{"type":"Feature","id":60,"geometry":{"type":"Point","coordinates":[58.120500000269494,22.571300000081127]},"properties":{"FID":60,"NAMEEN":"Al Mudaybi Health Center","WILLAYAT":" Wilayat Al Mudaybi","GOV":" Ash Sharqiyah North Governorate","LATITUDE":22.571300000000001,"LONGITUDE":58.1205}},{"type":"Feature","id":61,"geometry":{"type":"Point","coordinates":[58.127899999632433,23.660399999159431]},"properties":{"FID":61,"NAMEEN":"Al Mabeela Health Center","WILLAYAT":" Wilayat As Seeb","GOV":" Muscat Governorate","LATITUDE":23.660399999999999,"LONGITUDE":58.127899999999997}},{"type":"Feature","id":62,"geometry":{"type":"Point","coordinates":[57.313400000132788,22.635199999020298]},"properties":{"FID":62,"NAMEEN":"Al Maamur Health Center","WILLAYAT":" Wilayat Bahla","GOV":" Ad Dakhliyah Governorate","LATITUDE":22.635200000000001,"LONGITUDE":57.313400000000001}},{"type":"Feature","id":63,"geometry":{"type":"Point","coordinates":[56.663500000336654,24.417500000060929]},"properties":{"FID":63,"NAMEEN":"Al Multaqa Health Center","WILLAYAT":" Wilayat Sohar","GOV":" Al Batinah North Governorate","LATITUDE":24.4175,"LONGITUDE":56.663499999999999}},{"type":"Feature","id":64,"geometry":{"type":"Point","coordinates":[58.248799999964746,23.623899999696256]},"properties":{"FID":64,"NAMEEN":" Al Mawalih Ash Shamaliyyah Health Center","WILLAYAT":" Wilayat As Seeb","GOV":" Muscat Governorate","LATITUDE":23.623899999999999,"LONGITUDE":58.248800000000003}},{"type":"Feature","id":65,"geometry":{"type":"Point","coordinates":[58.228199999980532,23.602600001244813]},"properties":{"FID":65,"NAMEEN":"Al Mawaleh Health Center","WILLAYAT":" Wilayat As Seeb","GOV":" Muscat Governorate","LATITUDE":23.602599999999999,"LONGITUDE":58.228200000000001}},{"type":"Feature","id":66,"geometry":{"type":"Point","coordinates":[58.702800000394646,20.839500000649746]},"properties":{"FID":66,"NAMEEN":"An Najdah Health Center","WILLAYAT":" Wilayat Mahawt","GOV":" Al Wusta Governorate","LATITUDE":20.839500000000001,"LONGITUDE":58.702800000000003}},{"type":"Feature","id":67,"geometry":{"type":"Point","coordinates":[57.980699999924937,23.685200000299659]},"properties":{"FID":67,"NAMEEN":"An Nasim Health Center","WILLAYAT":" Wilayat Barka","GOV":" Al Batinah South Governorate","LATITUDE":23.685199999999998,"LONGITUDE":57.980699999999999}},{"type":"Feature","id":68,"geometry":{"type":"Point","coordinates":[58.478100000032775,23.486400000595225]},"properties":{"FID":68,"NAMEEN":"An Nahdah Health Center","WILLAYAT":" Wilayat Al Amrat","GOV":" Muscat Governorate","LATITUDE":23.4864,"LONGITUDE":58.478099999999998}},{"type":"Feature","id":69,"geometry":{"type":"Point","coordinates":[59.237099999967484,22.18019999854986]},"properties":{"FID":69,"NAMEEN":"Al Wafi Health Center","WILLAYAT":" Wilayat Al Kamil Wa Al Wafi","GOV":" Ash Sharqiyah South Governorate","LATITUDE":22.180199999999999,"LONGITUDE":59.237099999999998}},{"type":"Feature","id":70,"geometry":{"type":"Point","coordinates":[58.513100000309024,23.611900000445409]},"properties":{"FID":70,"NAMEEN":"Al Wutayyah Health Center","WILLAYAT":" Wilayat Mutrah","GOV":" Muscat Governorate","LATITUDE":23.611899999999999,"LONGITUDE":58.513100000000001}},{"type":"Feature","id":71,"geometry":{"type":"Point","coordinates":[56.402300000411635,23.86480000123192]},"properties":{"FID":71,"NAMEEN":"Al Wuqbah Health Center","WILLAYAT":" Wilayat Yanqul","GOV":" Adh Dhahirah Governorate","LATITUDE":23.864799999999999,"LONGITUDE":56.402299999999997}},{"type":"Feature","id":72,"geometry":{"type":"Point","coordinates":[52.880600000166773,17.375399998875171]},"properties":{"FID":72,"NAMEEN":"Andat HC","WILLAYAT":" Wilayat Al Mazyunah","GOV":" Dhofar Governorate","LATITUDE":17.375399999999999,"LONGITUDE":52.880600000000001}},{"type":"Feature","id":73,"geometry":{"type":"Point","coordinates":[53.261500000244659,18.18110000024587]},"properties":{"FID":73,"NAMEEN":"Bithnah Health Center","WILLAYAT":" Wilayat Thumrayt","GOV":" Dhofar Governorate","LATITUDE":18.181100000000001,"LONGITUDE":53.261499999999998}},{"type":"Feature","id":74,"geometry":{"type":"Point","coordinates":[58.100899999723957,23.39519999922144]},"properties":{"FID":74,"NAMEEN":"Bidbid Health Center","WILLAYAT":" Wilayat Bidbid","GOV":" Ad Dakhliyah Governorate","LATITUDE":23.395199999999999,"LONGITUDE":58.100900000000003}},{"type":"Feature","id":75,"geometry":{"type":"Point","coordinates":[58.803000000196356,22.452699999555708]},"properties":{"FID":75,"NAMEEN":"Bidiyyah Health Center","WILLAYAT":" Wilayat Bidiyah","GOV":" Ash Sharqiyah North Governorate","LATITUDE":22.4527,"LONGITUDE":58.802999999999997}},{"type":"Feature","id":76,"geometry":{"type":"Point","coordinates":[57.869399999854004,23.710000000920498]},"properties":{"FID":76,"NAMEEN":"Barka Health Center","WILLAYAT":" Wilayat Barka","GOV":" Al Batinah South Governorate","LATITUDE":23.710000000000001,"LONGITUDE":57.869399999999999}},{"type":"Feature","id":77,"geometry":{"type":"Point","coordinates":[57.659199999895137,22.919699999566088]},"properties":{"FID":77,"NAMEEN":"Birkat Al Mawz Health Center","WILLAYAT":" Wilayat Nizwa","GOV":" Ad Dakhliyah Governorate","LATITUDE":22.919699999999999,"LONGITUDE":57.659199999999998}},{"type":"Feature","id":78,"geometry":{"type":"Point","coordinates":[57.250000000293035,22.729800000929107]},"properties":{"FID":78,"NAMEEN":"Bisya Health Center","WILLAYAT":" Wilayat Bahla","GOV":" Ad Dakhliyah Governorate","LATITUDE":22.729800000000001,"LONGITUDE":57.25}},{"type":"Feature","id":79,"geometry":{"type":"Point","coordinates":[56.994800000189699,23.395700000102615]},"properties":{"FID":79,"NAMEEN":"Bilad Ash Shuhum Health Center","WILLAYAT":" Wilayat Ibri","GOV":" Adh Dhahirah Governorate","LATITUDE":23.395700000000001,"LONGITUDE":56.994799999999998}},{"type":"Feature","id":80,"geometry":{"type":"Point","coordinates":[57.765700000408764,22.807300000369629]},"properties":{"FID":80,"NAMEEN":"Buldan Al Awamir Health Center","WILLAYAT":" Wilayat Izki","GOV":" Ad Dakhliyah Governorate","LATITUDE":22.807300000000001,"LONGITUDE":57.765700000000002}},{"type":"Feature","id":81,"geometry":{"type":"Point","coordinates":[59.135400000401283,22.992599999597818]},"properties":{"FID":81,"NAMEEN":"Bamah Health Center","WILLAYAT":" Wilayat Qurayyat","GOV":" Muscat Governorate","LATITUDE":22.992599999999999,"LONGITUDE":59.135399999999997}},{"type":"Feature","id":82,"geometry":{"type":"Point","coordinates":[56.468900000298589,23.140400000086668]},"properties":{"FID":82,"NAMEEN":"Tanam Health Center","WILLAYAT":" Wilayat Ibri","GOV":" Adh Dhahirah Governorate","LATITUDE":23.1404,"LONGITUDE":56.468899999999998}},{"type":"Feature","id":83,"geometry":{"type":"Point","coordinates":[57.467700000222244,23.036599999310297]},"properties":{"FID":83,"NAMEEN":"Tanuf Health Center","WILLAYAT":" Wilayat Nizwa","GOV":" Ad Dakhliyah Governorate","LATITUDE":23.0366,"LONGITUDE":57.467700000000001}},{"type":"Feature","id":84,"geometry":{"type":"Point","coordinates":[52.78619999980021,17.540999999347846]},"properties":{"FID":84,"NAMEEN":"Tosinat Health Centre","WILLAYAT":" Wilayat Al Mazyunah","GOV":" Dhofar Governorate","LATITUDE":17.541,"LONGITUDE":52.786200000000001}},{"type":"Feature","id":85,"geometry":{"type":"Point","coordinates":[54.047700000354283,17.627800001365252]},"properties":{"FID":85,"NAMEEN":"Thumrayt Health Center","WILLAYAT":" Wilayat Thumrayt","GOV":" Dhofar Governorate","LATITUDE":17.627800000000001,"LONGITUDE":54.047699999999999}},{"type":"Feature","id":86,"geometry":{"type":"Point","coordinates":[57.089600000275276,23.134299999446942]},"properties":{"FID":86,"NAMEEN":"Jabal Al Kaur Health Center","WILLAYAT":" Wilayat Bahla","GOV":" Ad Dakhliyah Governorate","LATITUDE":23.1343,"LONGITUDE":57.089599999999997}},{"type":"Feature","id":87,"geometry":{"type":"Point","coordinates":[58.112000000377272,23.641799998648956]},"properties":{"FID":87,"NAMEEN":"South Al Mabeela Health Center","WILLAYAT":" Wilayat As Seeb","GOV":" Muscat Governorate","LATITUDE":23.6418,"LONGITUDE":58.112000000000002}},{"type":"Feature","id":88,"geometry":{"type":"Point","coordinates":[54.497900000351507,17.250399999264914]},"properties":{"FID":88,"NAMEEN":"Jibjat Health Center","WILLAYAT":" Wilayat Taqah","GOV":" Dhofar Governorate","LATITUDE":17.250399999999999,"LONGITUDE":54.497900000000001}},{"type":"Feature","id":89,"geometry":{"type":"Point","coordinates":[55.269399999830895,17.444300000257179]},"properties":{"FID":89,"NAMEEN":"Hasik Health Center","WILLAYAT":" Wilayat Sadah","GOV":" Dhofar Governorate","LATITUDE":17.444299999999998,"LONGITUDE":55.269399999999997}},{"type":"Feature","id":90,"geometry":{"type":"Point","coordinates":[54.030699999749494,17.231600000395385]},"properties":{"FID":90,"NAMEEN":"Hejayf Health Center","WILLAYAT":" Wilayat Salalah","GOV":" Dhofar Governorate","LATITUDE":17.2316,"LONGITUDE":54.030700000000003}},{"type":"Feature","id":91,"geometry":{"type":"Point","coordinates":[55.218900000170578,17.198600000439175]},"properties":{"FID":91,"NAMEEN":"Hadbin Health Center","WILLAYAT":" Wilayat Sadah","GOV":" Dhofar Governorate","LATITUDE":17.198599999999999,"LONGITUDE":55.218899999999998}},{"type":"Feature","id":92,"geometry":{"type":"Point","coordinates":[55.846999999604094,24.004599999730697]},"properties":{"FID":92,"NAMEEN":"Hafit Health Center","WILLAYAT":" Wilayat Al Buraymi","GOV":" Al Buraymi Governorate","LATITUDE":24.0046,"LONGITUDE":55.847000000000001}},{"type":"Feature","id":93,"geometry":{"type":"Point","coordinates":[56.972899999720632,24.050599999747359]},"properties":{"FID":93,"NAMEEN":"Hafit Health Center","WILLAYAT":" Wilayat Saham","GOV":" Al Batinah North Governorate","LATITUDE":24.050599999999999,"LONGITUDE":56.972900000000003}},{"type":"Feature","id":94,"geometry":{"type":"Point","coordinates":[56.626300000288239,22.723799999597162]},"properties":{"FID":94,"NAMEEN":"Hamra Ad Druaa Health Center","WILLAYAT":" Wilayat Ibri","GOV":" Adh Dhahirah Governorate","LATITUDE":22.723800000000001,"LONGITUDE":56.626300000000001}},{"type":"Feature","id":95,"geometry":{"type":"Point","coordinates":[58.556800000059056,23.621800000397773]},"properties":{"FID":95,"NAMEEN":"Hai Al Mina Health Center","WILLAYAT":" Wilayat Mutrah","GOV":" Muscat Governorate","LATITUDE":23.6218,"LONGITUDE":58.556800000000003}},{"type":"Feature","id":96,"geometry":{"type":"Point","coordinates":[53.159500000222877,16.69639999965592]},"properties":{"FID":96,"NAMEEN":"Khadrafi Health Center","WILLAYAT":" Wilayat Dalkut","GOV":" Dhofar Governorate","LATITUDE":16.696400000000001,"LONGITUDE":53.159500000000001}},{"type":"Feature","id":97,"geometry":{"type":"Point","coordinates":[59.187299999841947,21.373400000821462]},"properties":{"FID":97,"NAMEEN":"Khuwaymah Health Center","WILLAYAT":" Wilayat Jaalan Bani Bu Ali","GOV":" Ash Sharqiyah South Governorate","LATITUDE":21.3734,"LONGITUDE":59.1873}},{"type":"Feature","id":98,"geometry":{"type":"Point","coordinates":[54.983900000305397,17.869899998649778]},"properties":{"FID":98,"NAMEEN":"Dimit Health Center","WILLAYAT":" Wilayat Shalim Wa Juzor Al Hallaniyat","GOV":" Dhofar Governorate","LATITUDE":17.869900000000001,"LONGITUDE":54.983899999999998}},{"type":"Feature","id":99,"geometry":{"type":"Point","coordinates":[54.338600000061028,17.591499998708439]},"properties":{"FID":99,"NAMEEN":"Dhahbon Health Center","WILLAYAT":" Wilayat Thumrayt","GOV":" Dhofar Governorate","LATITUDE":17.5915,"LONGITUDE":54.3386}},{"type":"Feature","id":100,"geometry":{"type":"Point","coordinates":[59.797299999756362,22.523200000103589]},"properties":{"FID":100,"NAMEEN":"Ras Al Had Health Center","WILLAYAT":" Wilayat Sur","GOV":" Ash Sharqiyah South Governorate","LATITUDE":22.523199999999999,"LONGITUDE":59.7973}},{"type":"Feature","id":101,"geometry":{"type":"Point","coordinates":[57.781700000061321,18.978300000123539]},"properties":{"FID":101,"NAMEEN":"Ras Madrakah Health Center","WILLAYAT":" Wilayat Ad Duqm","GOV":" Al Wusta Governorate","LATITUDE":18.978300000000001,"LONGITUDE":57.781700000000001}},{"type":"Feature","id":102,"geometry":{"type":"Point","coordinates":[56.364199999765866,24.352700000681715]},"properties":{"FID":102,"NAMEEN":"Rahab Health Center","WILLAYAT":" Wilayat Liwa","GOV":" Al Batinah North Governorate","LATITUDE":24.352699999999999,"LONGITUDE":56.364199999999997}},{"type":"Feature","id":103,"geometry":{"type":"Point","coordinates":[58.537999999598313,23.602299999276536]},"properties":{"FID":103,"NAMEEN":"Ruwi Health Center","WILLAYAT":" Wilayat Mutrah","GOV":" Muscat Governorate","LATITUDE":23.6023,"LONGITUDE":58.537999999999997}},{"type":"Feature","id":104,"geometry":{"type":"Point","coordinates":[58.168799999844339,22.836300000859424]},"properties":{"FID":104,"NAMEEN":"Samad Ash Shan Health Center","WILLAYAT":" Wilayat Al Mudaybi","GOV":" Ash Sharqiyah North Governorate","LATITUDE":22.836300000000001,"LONGITUDE":58.168799999999997}},{"type":"Feature","id":105,"geometry":{"type":"Point","coordinates":[59.050500000179177,22.461800000186635]},"properties":{"FID":105,"NAMEEN":"Sayq Wa Sabt Health Center","WILLAYAT":" Wilayat Al Kamil Wa Al Wafi","GOV":" Ash Sharqiyah South Governorate","LATITUDE":22.4618,"LONGITUDE":59.0505}},{"type":"Feature","id":106,"geometry":{"type":"Point","coordinates":[57.905400000219664,22.975800000359566]},"properties":{"FID":106,"NAMEEN":"Sayma Wa Maqazzah Health Center","WILLAYAT":" Wilayat Izki","GOV":" Ad Dakhliyah Governorate","LATITUDE":22.9758,"LONGITUDE":57.9054}},{"type":"Feature","id":107,"geometry":{"type":"Point","coordinates":[56.267100000075871,17.939099999139529]},"properties":{"FID":107,"NAMEEN":"Sharbthat Health Center","WILLAYAT":" Wilayat Shalim Wa Juzor Al Hallaniyat","GOV":" Dhofar Governorate","LATITUDE":17.9391,"LONGITUDE":56.267099999999999}},{"type":"Feature","id":108,"geometry":{"type":"Point","coordinates":[55.639799999548643,18.096199999646426]},"properties":{"FID":108,"NAMEEN":"Shalim Health Center","WILLAYAT":" Wilayat Shalim Wa Juzor Al Hallaniyat","GOV":" Dhofar Governorate","LATITUDE":18.0962,"LONGITUDE":55.639800000000001}},{"type":"Feature","id":109,"geometry":{"type":"Point","coordinates":[53.468999999984831,16.821799998910979]},"properties":{"FID":109,"NAMEEN":"Shahb Asayb Health Center","WILLAYAT":" Wilayat Rakhyut","GOV":" Dhofar Governorate","LATITUDE":16.8218,"LONGITUDE":53.469000000000001}},{"type":"Feature","id":110,"geometry":{"type":"Point","coordinates":[57.808400000316297,20.200999998791296]},"properties":{"FID":110,"NAMEEN":"Sarab Health Center","WILLAYAT":" Wilayat Mahawt","GOV":" Al Wusta Governorate","LATITUDE":20.201000000000001,"LONGITUDE":57.808399999999999}},{"type":"Feature","id":111,"geometry":{"type":"Point","coordinates":[54.090200000209713,17.018399999963432]},"properties":{"FID":111,"NAMEEN":"Salalah Al Jadidah Health Center","WILLAYAT":" Wilayat Salalah","GOV":" Dhofar Governorate","LATITUDE":17.0184,"LONGITUDE":54.090200000000003}},{"type":"Feature","id":112,"geometry":{"type":"Point","coordinates":[54.077599999662326,17.009600000352684]},"properties":{"FID":112,"NAMEEN":"Salalah Al Gharbiah Health Center","WILLAYAT":" Wilayat Salalah","GOV":" Dhofar Governorate","LATITUDE":17.009599999999999,"LONGITUDE":54.077599999999997}},{"type":"Feature","id":113,"geometry":{"type":"Point","coordinates":[54.916299999645865,17.110300000958919]},"properties":{"FID":113,"NAMEEN":"Sawb Health Center","WILLAYAT":" Wilayat Sadah","GOV":" Dhofar Governorate","LATITUDE":17.110299999999999,"LONGITUDE":54.9163}},{"type":"Feature","id":114,"geometry":{"type":"Point","coordinates":[59.515900000196289,22.580800001121197]},"properties":{"FID":114,"NAMEEN":"Sur Health Center","WILLAYAT":" Wilayat Sur","GOV":" Ash Sharqiyah South Governorate","LATITUDE":22.5808,"LONGITUDE":59.515900000000002}},{"type":"Feature","id":115,"geometry":{"type":"Point","coordinates":[58.129700000401478,23.078400000908889]},"properties":{"FID":115,"NAMEEN":"Sawmra Health Center","WILLAYAT":" Wilayat Samail","GOV":" Ad Dakhliyah Governorate","LATITUDE":23.078399999999998,"LONGITUDE":58.1297}},{"type":"Feature","id":116,"geometry":{"type":"Point","coordinates":[58.685200000270754,23.211800000348926]},"properties":{"FID":116,"NAMEEN":"Siya Health Center","WILLAYAT":" Wilayat Qurayyat","GOV":" Muscat Governorate","LATITUDE":23.2118,"LONGITUDE":58.685200000000002}},{"type":"Feature","id":117,"geometry":{"type":"Point","coordinates":[53.239500000122625,16.704399999218413]},"properties":{"FID":117,"NAMEEN":"Dalkut Health Center","WILLAYAT":" Wilayat Dalkut","GOV":" Dhofar Governorate","LATITUDE":16.7044,"LONGITUDE":53.2395}},{"type":"Feature","id":118,"geometry":{"type":"Point","coordinates":[56.254400000429214,23.564099998915729]},"properties":{"FID":118,"NAMEEN":"Dank Health Center","WILLAYAT":" Wilayat Dank","GOV":" Adh Dhahirah Governorate","LATITUDE":23.5641,"LONGITUDE":56.254399999999997}},{"type":"Feature","id":119,"geometry":{"type":"Point","coordinates":[59.266600000088275,22.386499998651679]},"properties":{"FID":119,"NAMEEN":"Tahwah Health Center","WILLAYAT":" Wilayat Al Kamil Wa Al Wafi","GOV":" Ash Sharqiyah South Governorate","LATITUDE":22.386500000000002,"LONGITUDE":59.266599999999997}},{"type":"Feature","id":120,"geometry":{"type":"Point","coordinates":[53.938099999560805,17.12309999981689]},"properties":{"FID":120,"NAMEEN":"Titam Health Center","WILLAYAT":" Wilayat Salalah","GOV":" Dhofar Governorate","LATITUDE":17.123100000000001,"LONGITUDE":53.938099999999999}},{"type":"Feature","id":121,"geometry":{"type":"Point","coordinates":[59.256100000030585,22.829600001012093]},"properties":{"FID":121,"NAMEEN":"Tiwi Health Center","WILLAYAT":" Wilayat Sur","GOV":" Ash Sharqiyah South Governorate","LATITUDE":22.829599999999999,"LONGITUDE":59.256100000000004}},{"type":"Feature","id":122,"geometry":{"type":"Point","coordinates":[54.032299999926984,17.020800000336106]},"properties":{"FID":122,"NAMEEN":"Awqad Health Center","WILLAYAT":" Wilayat Salalah","GOV":" Dhofar Governorate","LATITUDE":17.020800000000001,"LONGITUDE":54.032299999999999}},{"type":"Feature","id":123,"geometry":{"type":"Point","coordinates":[56.961800000059611,22.280599999847812]},"properties":{"FID":123,"NAMEEN":"Uwayfiyah Health Center","WILLAYAT":" Wilayat Bahla","GOV":" Ad Dakhliyah Governorate","LATITUDE":22.2806,"LONGITUDE":56.961799999999997}},{"type":"Feature","id":124,"geometry":{"type":"Point","coordinates":[57.263599999671698,21.391100001290717]},"properties":{"FID":124,"NAMEEN":" Gapah Health Center","WILLAYAT":" Wilayat Adam","GOV":" Ad Dakhliyah Governorate","LATITUDE":21.391100000000002,"LONGITUDE":57.263599999999997}},{"type":"Feature","id":125,"geometry":{"type":"Point","coordinates":[57.543699999912278,22.873600001050665]},"properties":{"FID":125,"NAMEEN":"Firq Health Centrer","WILLAYAT":" Wilayat Nizwa","GOV":" Ad Dakhliyah Governorate","LATITUDE":22.8736,"LONGITUDE":57.543700000000001}},{"type":"Feature","id":126,"geometry":{"type":"Point","coordinates":[56.613599999629344,24.436899998558676]},"properties":{"FID":126,"NAMEEN":"Falaj Al Qabail Health Center","WILLAYAT":" Wilayat Sohar","GOV":" Al Batinah North Governorate","LATITUDE":24.436900000000001,"LONGITUDE":56.613599999999998}},{"type":"Feature","id":127,"geometry":{"type":"Point","coordinates":[59.169300000056055,22.137700001126209]},"properties":{"FID":127,"NAMEEN":"Falaj Al Mashayikh Health Center","WILLAYAT":" Wilayat Jaalan Bani Bu Hasan","GOV":" Ash Sharqiyah South Governorate","LATITUDE":22.137699999999999,"LONGITUDE":59.1693}},{"type":"Feature","id":128,"geometry":{"type":"Point","coordinates":[58.110799999826575,23.466399998933703]},"properties":{"FID":128,"NAMEEN":"Fanja Health Center","WILLAYAT":" Wilayat Bidbid","GOV":" Ad Dakhliyah Governorate","LATITUDE":23.4664,"LONGITUDE":58.110799999999998}},{"type":"Feature","id":129,"geometry":{"type":"Point","coordinates":[56.203000000131055,23.933399999900907]},"properties":{"FID":129,"NAMEEN":"Qumayra Health Center","WILLAYAT":" Wilayat Dank","GOV":" Adh Dhahirah Governorate","LATITUDE":23.933399999999999,"LONGITUDE":56.203000000000003}},{"type":"Feature","id":130,"geometry":{"type":"Point","coordinates":[54.085000000000328,17.250700001113014]},"properties":{"FID":130,"NAMEEN":"Qayrun Hayriti Health Center","WILLAYAT":" Wilayat Salalah","GOV":" Dhofar Governorate","LATITUDE":17.250699999999998,"LONGITUDE":54.085000000000001}},{"type":"Feature","id":131,"geometry":{"type":"Point","coordinates":[56.418899999522765,26.342300000378081]},"properties":{"FID":131,"NAMEEN":"Kumzar Health Center","WILLAYAT":" Wilayat Khasab","GOV":" Musandam Governorate","LATITUDE":26.342300000000002,"LONGITUDE":56.418900000000001}},{"type":"Feature","id":132,"geometry":{"type":"Point","coordinates":[56.761900000095274,23.541600000116425]},"properties":{"FID":132,"NAMEEN":"Kahnat Health Center","WILLAYAT":" Wilayat Ibri","GOV":" Adh Dhahirah Governorate","LATITUDE":23.541599999999999,"LONGITUDE":56.761899999999997}},{"type":"Feature","id":133,"geometry":{"type":"Point","coordinates":[55.170600000160846,17.95649999932299]},"properties":{"FID":133,"NAMEEN":"Kubut Health Center","WILLAYAT":" Wilayat Shalim Wa Juzor Al Hallaniyat","GOV":" Dhofar Governorate","LATITUDE":17.956499999999998,"LONGITUDE":55.1706}},{"type":"Feature","id":134,"geometry":{"type":"Point","coordinates":[58.113299999565093,23.328900000340614]},"properties":{"FID":134,"NAMEEN":"Lizugh Health Center","WILLAYAT":" Wilayat Samail","GOV":" Ad Dakhliyah Governorate","LATITUDE":23.328900000000001,"LONGITUDE":58.113300000000002}},{"type":"Feature","id":135,"geometry":{"type":"Point","coordinates":[56.564800000081576,24.516699999797737]},"properties":{"FID":135,"NAMEEN":"Liwa Health Center","WILLAYAT":" Wilayat Liwa","GOV":" Al Batinah North Governorate","LATITUDE":24.5167,"LONGITUDE":56.564799999999998}},{"type":"Feature","id":136,"geometry":{"type":"Point","coordinates":[56.425000000255125,25.940600000395978]},"properties":{"FID":136,"NAMEEN":"Lima Health Center","WILLAYAT":" Wilayat Khasab","GOV":" Musandam Governorate","LATITUDE":25.9406,"LONGITUDE":56.424999999999997}},{"type":"Feature","id":137,"geometry":{"type":"Point","coordinates":[55.954700000319257,24.420900000413905]},"properties":{"FID":137,"NAMEEN":"Mahadah Health Center","WILLAYAT":" Wilayat Mahadah","GOV":" Al Buraymi Governorate","LATITUDE":24.4209,"LONGITUDE":55.954700000000003}},{"type":"Feature","id":138,"geometry":{"type":"Point","coordinates":[58.28979999958122,20.76529999980572]},"properties":{"FID":138,"NAMEEN":"Mahawt Health Center","WILLAYAT":" Wilayat Mahawt","GOV":" Al Wusta Governorate","LATITUDE":20.7653,"LONGITUDE":58.2898}},{"type":"Feature","id":139,"geometry":{"type":"Point","coordinates":[56.331800000038079,25.290899998798892]},"properties":{"FID":139,"NAMEEN":"Madha Health Center","WILLAYAT":" Wilayat Madha","GOV":" Musandam Governorate","LATITUDE":25.290900000000001,"LONGITUDE":56.331800000000001}},{"type":"Feature","id":140,"geometry":{"type":"Point","coordinates":[58.372900000167853,23.130700000383598]},"properties":{"FID":140,"NAMEEN":"Mis Health Center","WILLAYAT":" Wilayat Bidbid","GOV":" Ad Dakhliyah Governorate","LATITUDE":23.130700000000001,"LONGITUDE":58.372900000000001}},{"type":"Feature","id":141,"geometry":{"type":"Point","coordinates":[58.589099999971026,23.614399999222435]},"properties":{"FID":141,"NAMEEN":"Muscat Health Center","WILLAYAT":" Wilayat Muscat","GOV":" Muscat Governorate","LATITUDE":23.6144,"LONGITUDE":58.589100000000002}},{"type":"Feature","id":142,"geometry":{"type":"Point","coordinates":[53.348900000238359,17.482799999416546]},"properties":{"FID":142,"NAMEEN":"Mudayy Health Center","WILLAYAT":" Wilayat Thumrayt","GOV":" Dhofar Governorate","LATITUDE":17.482800000000001,"LONGITUDE":53.3489}},{"type":"Feature","id":143,"geometry":{"type":"Point","coordinates":[58.562799999897507,23.615700000900699]},"properties":{"FID":143,"NAMEEN":"Matrah Health Center","WILLAYAT":" Wilayat Mutrah","GOV":" Muscat Governorate","LATITUDE":23.6157,"LONGITUDE":58.562800000000003}},{"type":"Feature","id":144,"geometry":{"type":"Point","coordinates":[53.220499999561262,16.985099999368465]},"properties":{"FID":144,"NAMEEN":"Matoura & Jijwal HC","WILLAYAT":" Wilayat Al Mazyunah","GOV":" Dhofar Governorate","LATITUDE":16.985099999999999,"LONGITUDE":53.220500000000001}},{"type":"Feature","id":145,"geometry":{"type":"Point","coordinates":[54.890100000193243,19.565199998838153]},"properties":{"FID":145,"NAMEEN":"Muqshin Health Center","WILLAYAT":" Wilayat Muqshin","GOV":" Dhofar Governorate","LATITUDE":19.565200000000001,"LONGITUDE":54.890099999999997}},{"type":"Feature","id":146,"geometry":{"type":"Point","coordinates":[56.869699999667986,23.378399999865845]},"properties":{"FID":146,"NAMEEN":"Maqniyat Health Center","WILLAYAT":" Wilayat Ibri","GOV":" Adh Dhahirah Governorate","LATITUDE":23.378399999999999,"LONGITUDE":56.869700000000002}},{"type":"Feature","id":147,"geometry":{"type":"Point","coordinates":[57.60610000038821,22.770400000865717]},"properties":{"FID":147,"NAMEEN":"Manah Health Center","WILLAYAT":" Wilayat Manah","GOV":" Ad Dakhliyah Governorate","LATITUDE":22.770399999999999,"LONGITUDE":57.606099999999998}},{"type":"Feature","id":148,"geometry":{"type":"Point","coordinates":[52.444099999556535,18.593399999936434]},"properties":{"FID":148,"NAMEEN":"Mitan Health Center","WILLAYAT":" Wilayat Al Mazyunah","GOV":" Dhofar Governorate","LATITUDE":18.593399999999999,"LONGITUDE":52.444099999999999}},{"type":"Feature","id":149,"geometry":{"type":"Point","coordinates":[56.554999999880486,24.561499999755647]},"properties":{"FID":149,"NAMEEN":"Nabr Health Center","WILLAYAT":" Wilayat Liwa","GOV":" Al Batinah North Governorate","LATITUDE":24.561499999999999,"LONGITUDE":56.555}},{"type":"Feature","id":150,"geometry":{"type":"Point","coordinates":[57.81770000000185,23.395099999272528]},"properties":{"FID":150,"NAMEEN":"Nakhal Health Center","WILLAYAT":" Wilayat Nakhal","GOV":" Al Batinah South Governorate","LATITUDE":23.395099999999999,"LONGITUDE":57.817700000000002}},{"type":"Feature","id":151,"geometry":{"type":"Point","coordinates":[56.733100000216808,23.424699998919309]},"properties":{"FID":151,"NAMEEN":"Hijayrmat Health Center","WILLAYAT":" Wilayat Ibri","GOV":" Adh Dhahirah Governorate","LATITUDE":23.424700000000001,"LONGITUDE":56.7331}},{"type":"Feature","id":152,"geometry":{"type":"Point","coordinates":[52.943499999897107,17.069800000977065]},"properties":{"FID":152,"NAMEEN":"Harwib Health Center","WILLAYAT":" Wilayat Al Mazyunah","GOV":" Dhofar Governorate","LATITUDE":17.069800000000001,"LONGITUDE":52.9435}},{"type":"Feature","id":153,"geometry":{"type":"Point","coordinates":[57.133100000276301,23.647099999635266]},"properties":{"FID":153,"NAMEEN":"Wadi Al Jahawir Health Center","WILLAYAT":" Wilayat As Suwayq","GOV":" Al Batinah North Governorate","LATITUDE":23.647099999999998,"LONGITUDE":57.133099999999999}},{"type":"Feature","id":154,"geometry":{"type":"Point","coordinates":[56.309100000216858,24.3801000010872]},"properties":{"FID":154,"NAMEEN":"Wadi Al Hyool Health Center","WILLAYAT":" Wilayat Mahadah","GOV":" Al Buraymi Governorate","LATITUDE":24.380099999999999,"LONGITUDE":56.309100000000001}},{"type":"Feature","id":155,"geometry":{"type":"Point","coordinates":[57.32940000016805,23.284799999599269]},"properties":{"FID":155,"NAMEEN":"Wadi As Sahtan Health Center","WILLAYAT":" Wilayat Ar Rustaq","GOV":" Al Batinah South Governorate","LATITUDE":23.284800000000001,"LONGITUDE":57.3294}},{"type":"Feature","id":156,"geometry":{"type":"Point","coordinates":[58.977500000395949,23.047400000191001]},"properties":{"FID":156,"NAMEEN":"Wadi Al Arbiyyin Health Center","WILLAYAT":" Wilayat Qurayyat","GOV":" Muscat Governorate","LATITUDE":23.0474,"LONGITUDE":58.977499999999999}},{"type":"Feature","id":157,"geometry":{"type":"Point","coordinates":[56.949400000452727,23.210300000097813]},"properties":{"FID":157,"NAMEEN":"Wadi Al Ayn Wa Al Hajar Health Center","WILLAYAT":" Wilayat Ibri","GOV":" Adh Dhahirah Governorate","LATITUDE":23.2103,"LONGITUDE":56.949399999999997}},{"type":"Feature","id":158,"geometry":{"type":"Point","coordinates":[58.565699999898825,23.581800000918182]},"properties":{"FID":158,"NAMEEN":"Al Wadi Al Kabir Health Center","WILLAYAT":" Wilayat Mutrah","GOV":" Muscat Governorate","LATITUDE":23.581800000000001,"LONGITUDE":58.5657}},{"type":"Feature","id":159,"geometry":{"type":"Point","coordinates":[57.834200000075057,23.472200000955294]},"properties":{"FID":159,"NAMEEN":"Wadi Al Maawil Health Center","WILLAYAT":" Wilayat Wadi Al Maawil","GOV":" Al Batinah South Governorate","LATITUDE":23.472200000000001,"LONGITUDE":57.834200000000003}},{"type":"Feature","id":160,"geometry":{"type":"Point","coordinates":[59.35600000016683,22.549200000359765]},"properties":{"FID":160,"NAMEEN":"Wadi Al Minqal Health Center","WILLAYAT":" Wilayat Sur","GOV":" Ash Sharqiyah South Governorate","LATITUDE":22.549199999999999,"LONGITUDE":59.356000000000002}},{"type":"Feature","id":161,"geometry":{"type":"Point","coordinates":[59.274299999922199,22.642299999754091]},"properties":{"FID":161,"NAMEEN":"Wadi Bani Jabir Health Center","WILLAYAT":" Wilayat Sur","GOV":" Ash Sharqiyah South Governorate","LATITUDE":22.642299999999999,"LONGITUDE":59.274299999999997}},{"type":"Feature","id":162,"geometry":{"type":"Point","coordinates":[59.095200000114893,22.579500001157218]},"properties":{"FID":162,"NAMEEN":"Wadi Bani Khalid Health Center","WILLAYAT":" Wilayat Wadi Bani Khalid","GOV":" Ash Sharqiyah North Governorate","LATITUDE":22.579499999999999,"LONGITUDE":59.095199999999998}},{"type":"Feature","id":163,"geometry":{"type":"Point","coordinates":[57.84570000006746,23.142100000873274]},"properties":{"FID":163,"NAMEEN":"Wadi Bani Rawahah Health Center","WILLAYAT":" Wilayat Samail","GOV":" Ad Dakhliyah Governorate","LATITUDE":23.142099999999999,"LONGITUDE":57.845700000000001}},{"type":"Feature","id":164,"geometry":{"type":"Point","coordinates":[56.866400000133055,23.789100001039191]},"properties":{"FID":164,"NAMEEN":"Wadi Bani Umar Health Center","WILLAYAT":" Wilayat Saham","GOV":" Al Batinah North Governorate","LATITUDE":23.789100000000001,"LONGITUDE":56.866399999999999}},{"type":"Feature","id":165,"geometry":{"type":"Point","coordinates":[57.448499999899518,23.270899999923284]},"properties":{"FID":165,"NAMEEN":"Wadi Bani Awf Health Center","WILLAYAT":" Wilayat Ar Rustaq","GOV":" Al Batinah South Governorate","LATITUDE":23.270900000000001,"LONGITUDE":57.448500000000003}},{"type":"Feature","id":166,"geometry":{"type":"Point","coordinates":[58.502899999607472,22.98469999977517]},"properties":{"FID":166,"NAMEEN":"Wadi Dama Health Center","WILLAYAT":" Wilayat Dama Wa At Taiyin","GOV":" Ash Sharqiyah North Governorate","LATITUDE":22.9847,"LONGITUDE":58.502899999999997}},{"type":"Feature","id":167,"geometry":{"type":"Point","coordinates":[56.665999999891817,23.771299998854371]},"properties":{"FID":167,"NAMEEN":"Wadi Shafan Health Center","WILLAYAT":" Wilayat Al Khaburah","GOV":" Al Batinah North Governorate","LATITUDE":23.7713,"LONGITUDE":56.665999999999997}},{"type":"Feature","id":168,"geometry":{"type":"Point","coordinates":[56.509600000245221,23.982199999769644]},"properties":{"FID":168,"NAMEEN":"Wadi Ahin Health Center","WILLAYAT":" Wilayat Sohar","GOV":" Al Batinah North Governorate","LATITUDE":23.982199999999999,"LONGITUDE":56.509599999999999}},{"type":"Feature","id":169,"geometry":{"type":"Point","coordinates":[58.006400000174757,22.880700000278427]},"properties":{"FID":169,"NAMEEN":"Wadi Indam Health Center","WILLAYAT":" Wilayat Al Mudaybi","GOV":" Ash Sharqiyah North Governorate","LATITUDE":22.880700000000001,"LONGITUDE":58.006399999999999}},{"type":"Feature","id":170,"geometry":{"type":"Point","coordinates":[56.461099999750743,23.50560000004155]},"properties":{"FID":170,"NAMEEN":"Wadi Fida Health Center","WILLAYAT":" Wilayat Dank","GOV":" Adh Dhahirah Governorate","LATITUDE":23.505600000000001,"LONGITUDE":56.461100000000002}},{"type":"Feature","id":171,"geometry":{"type":"Point","coordinates":[57.982899999544948,23.026000001213074]},"properties":{"FID":171,"NAMEEN":"Wadi Mahram Health Center","WILLAYAT":" Wilayat Samail","GOV":" Ad Dakhliyah Governorate","LATITUDE":23.026,"LONGITUDE":57.982900000000001}},{"type":"Feature","id":172,"geometry":{"type":"Point","coordinates":[58.63969999954648,22.727900000418654]},"properties":{"FID":172,"NAMEEN":"Wadi Nam Health Center","WILLAYAT":" Wilayat Al Qabil","GOV":" Ash Sharqiyah North Governorate","LATITUDE":22.727900000000002,"LONGITUDE":58.639699999999998}},{"type":"Feature","id":173,"geometry":{"type":"Point","coordinates":[56.920000000080201,18.834600000260327]},"properties":{"FID":173,"NAMEEN":"Wadi Hitam Health Center","WILLAYAT":" Wilayat Ad Duqm","GOV":" Al Wusta Governorate","LATITUDE":18.834599999999998,"LONGITUDE":56.920000000000002}},{"type":"Feature","id":174,"geometry":{"type":"Point","coordinates":[57.552499999865141,23.793800000444694]},"properties":{"FID":174,"NAMEEN":"Wudam Health Center","WILLAYAT":" Wilayat Al Musanaah","GOV":" Al Batinah South Governorate","LATITUDE":23.793800000000001,"LONGITUDE":57.552500000000002}},{"type":"Feature","id":175,"geometry":{"type":"Point","coordinates":[58.661900000460193,23.506200000581575]},"properties":{"FID":175,"NAMEEN":"Yiti Health Center","WILLAYAT":" Wilayat Muscat","GOV":" Muscat Governorate","LATITUDE":23.5062,"LONGITUDE":58.661900000000003}},{"type":"Feature","id":176,"geometry":{"type":"Point","coordinates":[56.460000000364282,19.050000001185541]},"properties":{"FID":176,"NAMEEN":" North Al Ghubrah(Rima) Health Center","WILLAYAT":" Wilayat Al Jazir","GOV":" Al Wusta Governorate","LATITUDE":19.050000000000001,"LONGITUDE":56.460000000000001}},{"type":"Feature","id":177,"geometry":{"type":"Point","coordinates":[59.282599999556254,22.081299999626864]},"properties":{"FID":177,"NAMEEN":"Jaalan Bani Bu Hasan Health Center","WILLAYAT":" Wilayat Jaalan Bani Bu Hasan","GOV":" Ash Sharqiyah South Governorate","LATITUDE":22.081299999999999,"LONGITUDE":59.282600000000002}},{"type":"Feature","id":178,"geometry":{"type":"Point","coordinates":[58.429597209692403,23.594119449960893]},"properties":{"FID":178,"NAMEEN":"Al Khuwayr North Health Center","WILLAYAT":" Wilayat Bawshar","GOV":" Muscat Governorate","LATITUDE":23.594119450000001,"LONGITUDE":58.429597209999997}},{"type":"Feature","id":179,"geometry":{"type":"Point","coordinates":[56.484361096794103,23.660688893945569]},"properties":{"FID":179,"NAMEEN":"Yankul Health Centre","WILLAYAT":" Wilayat Yanqul","GOV":" Adh Dhahirah Governorate","LATITUDE":23.660688889999999,"LONGITUDE":56.484361100000001}},{"type":"Feature","id":180,"geometry":{"type":"Point","coordinates":[53.100713888785592,16.671944444294269]},"properties":{"FID":180,"NAMEEN":"Sarfyt Health Centre","WILLAYAT":" Wilayat Dalkut","GOV":" Dhofar Governorate","LATITUDE":16.671944440000001,"LONGITUDE":53.100713890000002}},{"type":"Feature","id":181,"geometry":{"type":"Point","coordinates":[56.24448202706089,23.416181214862863]},"properties":{"FID":181,"NAMEEN":"Al Mamur Health Center","WILLAYAT":" Wilayat Ibri","GOV":" Adh Dhahirah Governorate","LATITUDE":23.416181210000001,"LONGITUDE":56.24448203}},{"type":"Feature","id":182,"geometry":{"type":"Point","coordinates":[57.187464934710462,19.552678648624795]},"properties":{"FID":182,"NAMEEN":"Al Agaiz Health Centre","WILLAYAT":" Wilayat Hayma","GOV":" Al Wusta Governorate","LATITUDE":19.552678650000001,"LONGITUDE":57.187464929999997}}]}