{"type":"FeatureCollection","features":[{"type":"Feature","id":0,"geometry":{"type":"Point","coordinates":[54.149678647080925,17.052321566612456]},"properties":{"FID":0,"NAMEEN":"Muscat Pharmacy - Salalah","WILLAYAT":" Wilayat Salalah","GOV":" Dhofar Governorate","LATITUDE":17.05232157,"LONGITUDE":54.149678649999998}},{"type":"Feature","id":1,"geometry":{"type":"Point","coordinates":[54.049248786890573,17.004177854716705]},"properties":{"FID":1,"NAMEEN":"Saba Pharmacy - Salalah","WILLAYAT":" Wilayat Salalah","GOV":" Dhofar Governorate","LATITUDE":17.004177850000001,"LONGITUDE":54.04924879}},{"type":"Feature","id":2,"geometry":{"type":"Point","coordinates":[54.06515450361087,17.020155005023966]},"properties":{"FID":2,"NAMEEN":"Oman Eye Center Pharmacy - Salalah","WILLAYAT":" Wilayat Salalah","GOV":" Dhofar Governorate","LATITUDE":17.02015501,"LONGITUDE":54.065154499999998}},{"type":"Feature","id":3,"geometry":{"type":"Point","coordinates":[54.072274721794479,17.022420080658179]},"properties":{"FID":3,"NAMEEN":"Al Hakeem Pharmacy - Salalah","WILLAYAT":" Wilayat Salalah","GOV":" Dhofar Governorate","LATITUDE":17.02242008,"LONGITUDE":54.072274720000003}},{"type":"Feature","id":4,"geometry":{"type":"Point","coordinates":[54.061437932911794,17.005085175202709]},"properties":{"FID":4,"NAMEEN":"Hala Pharmacy - Salalah","WILLAYAT":" Wilayat Salalah","GOV":" Dhofar Governorate","LATITUDE":17.005085179999998,"LONGITUDE":54.061437929999997}},{"type":"Feature","id":5,"geometry":{"type":"Point","coordinates":[54.069221195183715,17.00734074614774]},"properties":{"FID":5,"NAMEEN":"Arabian Pharmacy - Salalah","WILLAYAT":" Wilayat Salalah","GOV":" Dhofar Governorate","LATITUDE":17.007340750000001,"LONGITUDE":54.069221200000001}},{"type":"Feature","id":6,"geometry":{"type":"Point","coordinates":[54.074172599878395,17.008019124095014]},"properties":{"FID":6,"NAMEEN":"Hala Pharmacy - Salalah","WILLAYAT":" Wilayat Salalah","GOV":" Dhofar Governorate","LATITUDE":17.00801912,"LONGITUDE":54.074172599999997}},{"type":"Feature","id":7,"geometry":{"type":"Point","coordinates":[54.078245088367723,17.009249223008187]},"properties":{"FID":7,"NAMEEN":"Rawae Al Majd Pharmacy - Salalah","WILLAYAT":" Wilayat Salalah","GOV":" Dhofar Governorate","LATITUDE":17.009249220000001,"LONGITUDE":54.078245090000003}},{"type":"Feature","id":8,"geometry":{"type":"Point","coordinates":[54.109981975534346,17.017034749171778]},"properties":{"FID":8,"NAMEEN":"Al Riyadh Pharmacy - Salalah","WILLAYAT":" Wilayat Salalah","GOV":" Dhofar Governorate","LATITUDE":17.017034750000001,"LONGITUDE":54.109981980000001}},{"type":"Feature","id":9,"geometry":{"type":"Point","coordinates":[54.160797080447757,17.020199091619016]},"properties":{"FID":9,"NAMEEN":"Muscat Pharmacy - Salalah","WILLAYAT":" Wilayat Salalah","GOV":" Dhofar Governorate","LATITUDE":17.020199089999998,"LONGITUDE":54.160797080000002}},{"type":"Feature","id":10,"geometry":{"type":"Point","coordinates":[54.393520971696937,17.038038868892858]},"properties":{"FID":10,"NAMEEN":"Hayil Pharmacy - Taqah","WILLAYAT":" Wilayat Taqah","GOV":" Dhofar Governorate","LATITUDE":17.038038870000001,"LONGITUDE":54.393520969999997}},{"type":"Feature","id":11,"geometry":{"type":"Point","coordinates":[54.093295899374169,17.014551981864379]},"properties":{"FID":11,"NAMEEN":"Mazoon Pharmacy - Salalah","WILLAYAT":" Wilayat Salalah","GOV":" Dhofar Governorate","LATITUDE":17.01455198,"LONGITUDE":54.093295900000001}},{"type":"Feature","id":12,"geometry":{"type":"Point","coordinates":[54.098860522268616,17.013928725795338]},"properties":{"FID":12,"NAMEEN":"Capital Pharmacy - Salalah","WILLAYAT":" Wilayat Salalah","GOV":" Dhofar Governorate","LATITUDE":17.01392873,"LONGITUDE":54.098860520000002}},{"type":"Feature","id":13,"geometry":{"type":"Point","coordinates":[54.152364499574347,17.052760828019871]},"properties":{"FID":13,"NAMEEN":"Naif Pharmacy - Salalah","WILLAYAT":" Wilayat Salalah","GOV":" Dhofar Governorate","LATITUDE":17.05276083,"LONGITUDE":54.152364499999997}},{"type":"Feature","id":14,"geometry":{"type":"Point","coordinates":[58.541565786563602,23.596959685686123]},"properties":{"FID":14,"NAMEEN":"Bahwan Pharmacy - Mutrah","WILLAYAT":" Wilayat Mutrah","GOV":" Muscat Governorate","LATITUDE":23.596959689999998,"LONGITUDE":58.54156579}},{"type":"Feature","id":15,"geometry":{"type":"Point","coordinates":[58.542785562423248,23.596470591591057]},"properties":{"FID":15,"NAMEEN":"Ibn Sina Pharmacy - Mutrah","WILLAYAT":" Wilayat Mutrah","GOV":" Muscat Governorate","LATITUDE":23.596470589999999,"LONGITUDE":58.542785559999999}},{"type":"Feature","id":16,"geometry":{"type":"Point","coordinates":[54.090905430448849,17.012411848352599]},"properties":{"FID":16,"NAMEEN":"National Pharmacy - Salalah","WILLAYAT":" Wilayat Salalah","GOV":" Dhofar Governorate","LATITUDE":17.012411849999999,"LONGITUDE":54.090905429999999}},{"type":"Feature","id":17,"geometry":{"type":"Point","coordinates":[57.422669450785726,23.390734630056826]},"properties":{"FID":17,"NAMEEN":"Badar Al Jashmi Pharmacy - Ar Rustaq","WILLAYAT":" Wilayat Ar Rustaq","GOV":" Al Batinah South Governorate","LATITUDE":23.390734630000001,"LONGITUDE":57.422669450000001}},{"type":"Feature","id":18,"geometry":{"type":"Point","coordinates":[54.084337091455993,17.019995565327168]},"properties":{"FID":18,"NAMEEN":"Salalah Pharmacy - Salalah","WILLAYAT":" Wilayat Salalah","GOV":" Dhofar Governorate","LATITUDE":17.019995569999999,"LONGITUDE":54.084337089999998}},{"type":"Feature","id":19,"geometry":{"type":"Point","coordinates":[58.455330799174902,23.599671706155359]},"properties":{"FID":19,"NAMEEN":"Muscat Pharmacy - Bawshar","WILLAYAT":" Wilayat Bawshar","GOV":" Muscat Governorate","LATITUDE":23.599671709999999,"LONGITUDE":58.455330799999999}},{"type":"Feature","id":20,"geometry":{"type":"Point","coordinates":[58.384196511365083,23.589279342328563]},"properties":{"FID":20,"NAMEEN":"Muscat Pharmacy - Bawshar","WILLAYAT":" Wilayat Bawshar","GOV":" Muscat Governorate","LATITUDE":23.589279340000001,"LONGITUDE":58.384196510000002}},{"type":"Feature","id":21,"geometry":{"type":"Point","coordinates":[54.106161757544385,17.015236329571714]},"properties":{"FID":21,"NAMEEN":"Mirbat Pharmacy - Salalah","WILLAYAT":" Wilayat Salalah","GOV":" Dhofar Governorate","LATITUDE":17.01523633,"LONGITUDE":54.106161759999999}},{"type":"Feature","id":22,"geometry":{"type":"Point","coordinates":[54.072961780247908,17.009247307555562]},"properties":{"FID":22,"NAMEEN":"Park Pharmacy - Salalah","WILLAYAT":" Wilayat Salalah","GOV":" Dhofar Governorate","LATITUDE":17.009247309999999,"LONGITUDE":54.07296178}},{"type":"Feature","id":23,"geometry":{"type":"Point","coordinates":[54.088704785724332,17.010901250336367]},"properties":{"FID":23,"NAMEEN":"Taiba Pharmacy - Salalah","WILLAYAT":" Wilayat Salalah","GOV":" Dhofar Governorate","LATITUDE":17.01090125,"LONGITUDE":54.088704790000001}},{"type":"Feature","id":24,"geometry":{"type":"Point","coordinates":[58.562596425931567,23.586374820250299]},"properties":{"FID":24,"NAMEEN":"Scientific Pharmacy - Mutrah","WILLAYAT":" Wilayat Mutrah","GOV":" Muscat Governorate","LATITUDE":23.58637482,"LONGITUDE":58.562596429999999}},{"type":"Feature","id":25,"geometry":{"type":"Point","coordinates":[58.562854685351056,23.587390357048104]},"properties":{"FID":25,"NAMEEN":"Al Hashar Pharmacy - Mutrah","WILLAYAT":" Wilayat Mutrah","GOV":" Muscat Governorate","LATITUDE":23.587390360000001,"LONGITUDE":58.562854690000002}},{"type":"Feature","id":26,"geometry":{"type":"Point","coordinates":[58.225938983607598,23.606047544394468]},"properties":{"FID":26,"NAMEEN":"Al Jabri Pharmacy - As Seeb","WILLAYAT":" Wilayat As Seeb","GOV":" Muscat Governorate","LATITUDE":23.606047539999999,"LONGITUDE":58.225938980000002}},{"type":"Feature","id":27,"geometry":{"type":"Point","coordinates":[58.111861000364797,23.463920999996553]},"properties":{"FID":27,"NAMEEN":"Al Shaba Al Amerah Pharmacy - Fanja","WILLAYAT":" Wilayat Bidbid","GOV":" Ad Dakhliyah Governorate","LATITUDE":23.463920999999999,"LONGITUDE":58.111860999999998}},{"type":"Feature","id":28,"geometry":{"type":"Point","coordinates":[57.455174494812262,23.485818833319751]},"properties":{"FID":28,"NAMEEN":"Al Murshed Pharmacy - Al Wishayl","WILLAYAT":" Wilayat Ar Rustaq","GOV":" Al Batinah South Governorate","LATITUDE":23.485818829999999,"LONGITUDE":57.455174489999997}},{"type":"Feature","id":29,"geometry":{"type":"Point","coordinates":[58.402432931338311,23.588511919130148]},"properties":{"FID":29,"NAMEEN":"Thuwaiba Pharmacy - Bawshar","WILLAYAT":" Wilayat Bawshar","GOV":" Muscat Governorate","LATITUDE":23.588511919999998,"LONGITUDE":58.402432930000003}},{"type":"Feature","id":30,"geometry":{"type":"Point","coordinates":[54.150635457712504,17.050048342056463]},"properties":{"FID":30,"NAMEEN":"Al Mowasah Pharmacy - Salalah","WILLAYAT":" Wilayat Salalah","GOV":" Dhofar Governorate","LATITUDE":17.05004834,"LONGITUDE":54.150635459999997}},{"type":"Feature","id":31,"geometry":{"type":"Point","coordinates":[58.491290749341175,23.476151149572939]},"properties":{"FID":31,"NAMEEN":"Scientific Pharmacy - Al Amrat","WILLAYAT":" Wilayat Al Amrat","GOV":" Muscat Governorate","LATITUDE":23.47615115,"LONGITUDE":58.491290749999997}},{"type":"Feature","id":32,"geometry":{"type":"Point","coordinates":[54.104481325892216,17.014151024854517]},"properties":{"FID":32,"NAMEEN":"Ibn Sina Pharmacy - Salalah","WILLAYAT":" Wilayat Salalah","GOV":" Dhofar Governorate","LATITUDE":17.01415102,"LONGITUDE":54.104481329999999}},{"type":"Feature","id":33,"geometry":{"type":"Point","coordinates":[54.096756524765503,17.013729462059338]},"properties":{"FID":33,"NAMEEN":"Waleed Pharmacy - Salalah","WILLAYAT":" Wilayat Salalah","GOV":" Dhofar Governorate","LATITUDE":17.01372946,"LONGITUDE":54.09675652}},{"type":"Feature","id":34,"geometry":{"type":"Point","coordinates":[54.064439836307955,17.005863094947873]},"properties":{"FID":34,"NAMEEN":"Scientific Pharmacy - Salalah","WILLAYAT":" Wilayat Salalah","GOV":" Dhofar Governorate","LATITUDE":17.005863089999998,"LONGITUDE":54.064439839999999}},{"type":"Feature","id":35,"geometry":{"type":"Point","coordinates":[54.156667000443541,17.042221999970334]},"properties":{"FID":35,"NAMEEN":"Al Hashar Pharmacy - Salalah","WILLAYAT":" Wilayat Salalah","GOV":" Dhofar Governorate","LATITUDE":17.042221999999999,"LONGITUDE":54.156666999999999}},{"type":"Feature","id":36,"geometry":{"type":"Point","coordinates":[54.038311495039508,17.003554325125204]},"properties":{"FID":36,"NAMEEN":"Muscat Pharmacy - Salalah","WILLAYAT":" Wilayat Salalah","GOV":" Dhofar Governorate","LATITUDE":17.00355433,"LONGITUDE":54.038311499999999}},{"type":"Feature","id":37,"geometry":{"type":"Point","coordinates":[54.108949659908795,17.018922985165908]},"properties":{"FID":37,"NAMEEN":"Muscat Pharmacy - Salalah","WILLAYAT":" Wilayat Salalah","GOV":" Dhofar Governorate","LATITUDE":17.01892299,"LONGITUDE":54.10894966}},{"type":"Feature","id":38,"geometry":{"type":"Point","coordinates":[55.778007857038759,24.245618105866967]},"properties":{"FID":38,"NAMEEN":"Al Buraimi Pharmacy - Al Buraymi","WILLAYAT":" Wilayat Al Buraymi","GOV":" Al Buraymi Governorate","LATITUDE":24.245618109999999,"LONGITUDE":55.778007860000002}},{"type":"Feature","id":39,"geometry":{"type":"Point","coordinates":[56.438335740236177,24.8037316569437]},"properties":{"FID":39,"NAMEEN":"Muscat Pharmacy - Al Aqur","WILLAYAT":" Wilayat Shinas","GOV":" Al Batinah North Governorate","LATITUDE":24.80373166,"LONGITUDE":56.438335739999999}},{"type":"Feature","id":40,"geometry":{"type":"Point","coordinates":[57.169058969925722,23.920569166872671]},"properties":{"FID":40,"NAMEEN":"Muscat Pharmacy - Al Bidayah","WILLAYAT":" Wilayat As Suwayq","GOV":" Al Batinah North Governorate","LATITUDE":23.92056917,"LONGITUDE":57.169058970000002}},{"type":"Feature","id":41,"geometry":{"type":"Point","coordinates":[54.111439152066133,17.017271511403081]},"properties":{"FID":41,"NAMEEN":"Scientific Pharmacy - Salalah","WILLAYAT":" Wilayat Salalah","GOV":" Dhofar Governorate","LATITUDE":17.01727151,"LONGITUDE":54.111439150000002}},{"type":"Feature","id":42,"geometry":{"type":"Point","coordinates":[56.275821475830448,19.955061339310568]},"properties":{"FID":42,"NAMEEN":"Haima Pharmacy - Hayma","WILLAYAT":" Wilayat Hayma","GOV":" Al Wusta Governorate","LATITUDE":19.95506134,"LONGITUDE":56.275821479999998}},{"type":"Feature","id":43,"geometry":{"type":"Point","coordinates":[58.894940503918932,23.226497835091731]},"properties":{"FID":43,"NAMEEN":"Al Sharaei Pharmacy - Qurayyat","WILLAYAT":" Wilayat Qurayyat","GOV":" Muscat Governorate","LATITUDE":23.22649784,"LONGITUDE":58.894940499999997}},{"type":"Feature","id":44,"geometry":{"type":"Point","coordinates":[55.789398523153842,24.257323792584213]},"properties":{"FID":44,"NAMEEN":"The Modren Pharmacy - Al Buraymi","WILLAYAT":" Wilayat Al Buraymi","GOV":" Al Buraymi Governorate","LATITUDE":24.257323790000001,"LONGITUDE":55.789398519999999}},{"type":"Feature","id":45,"geometry":{"type":"Point","coordinates":[55.786964902667393,24.257779345914315]},"properties":{"FID":45,"NAMEEN":"Fajr Al Khaleej Pharmacy - Al Buraymi","WILLAYAT":" Wilayat Al Buraymi","GOV":" Al Buraymi Governorate","LATITUDE":24.25777935,"LONGITUDE":55.786964900000001}},{"type":"Feature","id":46,"geometry":{"type":"Point","coordinates":[58.449543557277096,23.595002709959655]},"properties":{"FID":46,"NAMEEN":"Muscat Pharmacy - Bawshar","WILLAYAT":" Wilayat Bawshar","GOV":" Muscat Governorate","LATITUDE":23.595002709999999,"LONGITUDE":58.449543560000002}},{"type":"Feature","id":47,"geometry":{"type":"Point","coordinates":[58.56226421457994,23.588735710436676]},"properties":{"FID":47,"NAMEEN":"Mazoon Pharmacy - Mutrah","WILLAYAT":" Wilayat Mutrah","GOV":" Muscat Governorate","LATITUDE":23.588735710000002,"LONGITUDE":58.562264210000002}},{"type":"Feature","id":48,"geometry":{"type":"Point","coordinates":[56.248018604222274,26.183581561638299]},"properties":{"FID":48,"NAMEEN":"Muscat Pharmacy - Khasab","WILLAYAT":" Wilayat Khasab","GOV":" Musandam Governorate","LATITUDE":26.18358156,"LONGITUDE":56.248018600000002}},{"type":"Feature","id":49,"geometry":{"type":"Point","coordinates":[55.771608709693389,24.248873986024787]},"properties":{"FID":49,"NAMEEN":"Zahrat Al Buraimi Pharmacy - Al Buraymi","WILLAYAT":" Wilayat Al Buraymi","GOV":" Al Buraymi Governorate","LATITUDE":24.24887399,"LONGITUDE":55.771608710000002}},{"type":"Feature","id":50,"geometry":{"type":"Point","coordinates":[56.546925902596172,23.591275651273307]},"properties":{"FID":50,"NAMEEN":"Muscat Pharmacy - Yanqul","WILLAYAT":" Wilayat Yanqul","GOV":" Adh Dhahirah Governorate","LATITUDE":23.59127565,"LONGITUDE":56.546925899999998}},{"type":"Feature","id":51,"geometry":{"type":"Point","coordinates":[56.87693183017435,24.143160831373724]},"properties":{"FID":51,"NAMEEN":"Scientific Pharmacy - Saham","WILLAYAT":" Wilayat Saham","GOV":" Al Batinah North Governorate","LATITUDE":24.143160829999999,"LONGITUDE":56.876931829999997}},{"type":"Feature","id":52,"geometry":{"type":"Point","coordinates":[56.872720721845937,24.146955679804147]},"properties":{"FID":52,"NAMEEN":"Al Hawra Pharmacy - Al Huwayl","WILLAYAT":" Wilayat Saham","GOV":" Al Batinah North Governorate","LATITUDE":24.146955680000001,"LONGITUDE":56.872720719999997}},{"type":"Feature","id":53,"geometry":{"type":"Point","coordinates":[58.184580800001584,23.683689299670977]},"properties":{"FID":53,"NAMEEN":"Taiba Pharmacy - As Seeb","WILLAYAT":" Wilayat As Seeb","GOV":" Muscat Governorate","LATITUDE":23.683689300000001,"LONGITUDE":58.184580799999999}},{"type":"Feature","id":54,"geometry":{"type":"Point","coordinates":[58.184535300101501,23.683693800324736]},"properties":{"FID":54,"NAMEEN":"Cyber Pharmacy - As Seeb","WILLAYAT":" Wilayat As Seeb","GOV":" Muscat Governorate","LATITUDE":23.6836938,"LONGITUDE":58.1845353}},{"type":"Feature","id":55,"geometry":{"type":"Point","coordinates":[57.450658770001127,23.479279855106647]},"properties":{"FID":55,"NAMEEN":"Babil Pharmacy - Al Wishayl","WILLAYAT":" Wilayat Ar Rustaq","GOV":" Al Batinah South Governorate","LATITUDE":23.479279859999998,"LONGITUDE":57.450658769999997}},{"type":"Feature","id":56,"geometry":{"type":"Point","coordinates":[54.083628215862042,17.012799642112956]},"properties":{"FID":56,"NAMEEN":"Al Afeyah Pharmacy - Salalah","WILLAYAT":" Wilayat Salalah","GOV":" Dhofar Governorate","LATITUDE":17.012799640000001,"LONGITUDE":54.083628220000001}},{"type":"Feature","id":57,"geometry":{"type":"Point","coordinates":[57.534107800367771,22.872817799570193]},"properties":{"FID":57,"NAMEEN":"Qalaa Pharmacy - Farq","WILLAYAT":" Wilayat Nizwa","GOV":" Ad Dakhliyah Governorate","LATITUDE":22.8728178,"LONGITUDE":57.534107800000001}},{"type":"Feature","id":58,"geometry":{"type":"Point","coordinates":[54.075582023018967,17.012153343981691]},"properties":{"FID":58,"NAMEEN":"Ibn Sina Pharmacy - Salalah","WILLAYAT":" Wilayat Salalah","GOV":" Dhofar Governorate","LATITUDE":17.012153340000001,"LONGITUDE":54.075582019999999}},{"type":"Feature","id":59,"geometry":{"type":"Point","coordinates":[58.463016054895924,23.616608836676861]},"properties":{"FID":59,"NAMEEN":"Muscat Pharmacy - Bawshar","WILLAYAT":" Wilayat Bawshar","GOV":" Muscat Governorate","LATITUDE":23.616608840000001,"LONGITUDE":58.46301605}},{"type":"Feature","id":60,"geometry":{"type":"Point","coordinates":[54.070259337984204,17.008355507580962]},"properties":{"FID":60,"NAMEEN":"Al Andhar Pharmacy - Salalah","WILLAYAT":" Wilayat Salalah","GOV":" Dhofar Governorate","LATITUDE":17.008355510000001,"LONGITUDE":54.07025934}},{"type":"Feature","id":61,"geometry":{"type":"Point","coordinates":[59.327008999691706,22.016897000221519]},"properties":{"FID":61,"NAMEEN":"Muscat Pharmacy - Jaalan Bani Bu Ali","WILLAYAT":" Wilayat Jaalan Bani Bu Ali","GOV":" Ash Sharqiyah South Governorate","LATITUDE":22.016897,"LONGITUDE":59.327008999999997}},{"type":"Feature","id":62,"geometry":{"type":"Point","coordinates":[56.275124407211472,19.956922906871824]},"properties":{"FID":62,"NAMEEN":"Ibn Sina Pharmacy - Hayma","WILLAYAT":" Wilayat Hayma","GOV":" Al Wusta Governorate","LATITUDE":19.956922909999999,"LONGITUDE":56.275124409999997}},{"type":"Feature","id":63,"geometry":{"type":"Point","coordinates":[58.559409838624333,23.587290935249186]},"properties":{"FID":63,"NAMEEN":"Muscat Pharmacy - Mutrah","WILLAYAT":" Wilayat Mutrah","GOV":" Muscat Governorate","LATITUDE":23.587290939999999,"LONGITUDE":58.559409840000001}},{"type":"Feature","id":64,"geometry":{"type":"Point","coordinates":[58.127776500435985,23.6772131999215]},"properties":{"FID":64,"NAMEEN":"Al Farooq Pharmacy - As Seeb","WILLAYAT":" Wilayat As Seeb","GOV":" Muscat Governorate","LATITUDE":23.677213200000001,"LONGITUDE":58.127776500000003}},{"type":"Feature","id":65,"geometry":{"type":"Point","coordinates":[58.207616099843491,23.65871709986677]},"properties":{"FID":65,"NAMEEN":"Life Line Pharmacy - As Seeb","WILLAYAT":" Wilayat As Seeb","GOV":" Muscat Governorate","LATITUDE":23.6587171,"LONGITUDE":58.207616100000003}},{"type":"Feature","id":66,"geometry":{"type":"Point","coordinates":[58.428982468567355,23.590968723623149]},"properties":{"FID":66,"NAMEEN":"Scientific Pharmacy - Bawshar","WILLAYAT":" Wilayat Bawshar","GOV":" Muscat Governorate","LATITUDE":23.590968719999999,"LONGITUDE":58.428982470000001}},{"type":"Feature","id":67,"geometry":{"type":"Point","coordinates":[58.545132771439668,23.590572635441752]},"properties":{"FID":67,"NAMEEN":"Al Hashar Pharmacy - Mutrah","WILLAYAT":" Wilayat Mutrah","GOV":" Muscat Governorate","LATITUDE":23.590572640000001,"LONGITUDE":58.545132770000002}},{"type":"Feature","id":68,"geometry":{"type":"Point","coordinates":[58.563407878349622,23.61925200824891]},"properties":{"FID":68,"NAMEEN":"Muscat Pharmacy - Mutrah","WILLAYAT":" Wilayat Mutrah","GOV":" Muscat Governorate","LATITUDE":23.61925201,"LONGITUDE":58.56340788}},{"type":"Feature","id":69,"geometry":{"type":"Point","coordinates":[58.397318286276978,23.591335745214202]},"properties":{"FID":69,"NAMEEN":"Peaceland Pharmacy - Bawshar","WILLAYAT":" Wilayat Bawshar","GOV":" Muscat Governorate","LATITUDE":23.591335749999999,"LONGITUDE":58.397318290000001}},{"type":"Feature","id":70,"geometry":{"type":"Point","coordinates":[58.231144132712124,23.633538357828574]},"properties":{"FID":70,"NAMEEN":"Al Salam Pharmacy - As Seeb","WILLAYAT":" Wilayat As Seeb","GOV":" Muscat Governorate","LATITUDE":23.633538359999999,"LONGITUDE":58.231144129999997}},{"type":"Feature","id":71,"geometry":{"type":"Point","coordinates":[56.254005260786819,23.55980716002836]},"properties":{"FID":71,"NAMEEN":"Al Hikma Pharmacy - Dank","WILLAYAT":" Wilayat Dank","GOV":" Adh Dhahirah Governorate","LATITUDE":23.559807159999998,"LONGITUDE":56.25400526}},{"type":"Feature","id":72,"geometry":{"type":"Point","coordinates":[58.379123388147235,23.571295735145892]},"properties":{"FID":72,"NAMEEN":"Ibn Sina Pharmacy - Bawshar","WILLAYAT":" Wilayat Bawshar","GOV":" Muscat Governorate","LATITUDE":23.57129574,"LONGITUDE":58.379123389999997}},{"type":"Feature","id":73,"geometry":{"type":"Point","coordinates":[57.954537268567357,23.29982351721695]},"properties":{"FID":73,"NAMEEN":"Samail Pharmacy - Samail","WILLAYAT":" Wilayat Samail","GOV":" Ad Dakhliyah Governorate","LATITUDE":23.29982352,"LONGITUDE":57.954537270000003}},{"type":"Feature","id":74,"geometry":{"type":"Point","coordinates":[58.204242100469116,23.622654499626872]},"properties":{"FID":74,"NAMEEN":"Ibn Sina Pharmacy - As Seeb","WILLAYAT":" Wilayat As Seeb","GOV":" Muscat Governorate","LATITUDE":23.622654499999999,"LONGITUDE":58.204242100000002}},{"type":"Feature","id":75,"geometry":{"type":"Point","coordinates":[58.185208400439841,23.68275369955154]},"properties":{"FID":75,"NAMEEN":"Muscat Pharmacy - As Seeb","WILLAYAT":" Wilayat As Seeb","GOV":" Muscat Governorate","LATITUDE":23.682753699999999,"LONGITUDE":58.1852084}},{"type":"Feature","id":76,"geometry":{"type":"Point","coordinates":[55.772906220861309,24.240461584033536]},"properties":{"FID":76,"NAMEEN":"Muscat Pharmacy - Al Buraymi","WILLAYAT":" Wilayat Al Buraymi","GOV":" Al Buraymi Governorate","LATITUDE":24.240461580000002,"LONGITUDE":55.772906220000003}},{"type":"Feature","id":77,"geometry":{"type":"Point","coordinates":[58.182733499852446,23.682990699908807]},"properties":{"FID":77,"NAMEEN":"Al Jabri Pharmacy - As Seeb","WILLAYAT":" Wilayat As Seeb","GOV":" Muscat Governorate","LATITUDE":23.682990700000001,"LONGITUDE":58.182733499999998}},{"type":"Feature","id":78,"geometry":{"type":"Point","coordinates":[54.09023832510178,17.014917351066696]},"properties":{"FID":78,"NAMEEN":"Al Zaher Pharmacy - Salalah","WILLAYAT":" Wilayat Salalah","GOV":" Dhofar Governorate","LATITUDE":17.014917350000001,"LONGITUDE":54.090238329999998}},{"type":"Feature","id":79,"geometry":{"type":"Point","coordinates":[58.157157700469064,23.671916000391391]},"properties":{"FID":79,"NAMEEN":"Al Tadawy Pharmacy - As Seeb","WILLAYAT":" Wilayat As Seeb","GOV":" Muscat Governorate","LATITUDE":23.671916,"LONGITUDE":58.157157699999999}},{"type":"Feature","id":80,"geometry":{"type":"Point","coordinates":[57.424185212632459,23.432809205709219]},"properties":{"FID":80,"NAMEEN":"Muscat Pharmacy - Ar Rustaq","WILLAYAT":" Wilayat Ar Rustaq","GOV":" Al Batinah South Governorate","LATITUDE":23.432809209999999,"LONGITUDE":57.424185209999997}},{"type":"Feature","id":81,"geometry":{"type":"Point","coordinates":[56.494275249462454,23.223714552133789]},"properties":{"FID":81,"NAMEEN":"Al Aryaf Al Omania Pharmacy - Ibri","WILLAYAT":" Wilayat Ibri","GOV":" Adh Dhahirah Governorate","LATITUDE":23.22371455,"LONGITUDE":56.494275250000001}},{"type":"Feature","id":82,"geometry":{"type":"Point","coordinates":[56.51405151464494,23.236033898582619]},"properties":{"FID":82,"NAMEEN":"Muscat Pharmacy - Ibri","WILLAYAT":" Wilayat Ibri","GOV":" Adh Dhahirah Governorate","LATITUDE":23.236033899999999,"LONGITUDE":56.514051510000002}},{"type":"Feature","id":83,"geometry":{"type":"Point","coordinates":[56.513253261136597,23.250558300591777]},"properties":{"FID":83,"NAMEEN":"Al Hikma Pharmacy - Ibri","WILLAYAT":" Wilayat Ibri","GOV":" Adh Dhahirah Governorate","LATITUDE":23.250558300000002,"LONGITUDE":56.513253259999999}},{"type":"Feature","id":84,"geometry":{"type":"Point","coordinates":[58.429932636772911,23.591134132760018]},"properties":{"FID":84,"NAMEEN":"Muscat Pharmacy - Bawshar","WILLAYAT":" Wilayat Bawshar","GOV":" Muscat Governorate","LATITUDE":23.59113413,"LONGITUDE":58.429932639999997}},{"type":"Feature","id":85,"geometry":{"type":"Point","coordinates":[58.360173614329689,23.574848795183076]},"properties":{"FID":85,"NAMEEN":"Nanaa Pharmacy - Bawshar","WILLAYAT":" Wilayat Bawshar","GOV":" Muscat Governorate","LATITUDE":23.574848800000002,"LONGITUDE":58.360173609999997}},{"type":"Feature","id":86,"geometry":{"type":"Point","coordinates":[58.028891452560103,22.501247782181281]},"properties":{"FID":86,"NAMEEN":"Al Enaya Pharmacy - Sinaw","WILLAYAT":" Wilayat Al Mudaybi","GOV":" Ash Sharqiyah North Governorate","LATITUDE":22.50124778,"LONGITUDE":58.028891450000003}},{"type":"Feature","id":87,"geometry":{"type":"Point","coordinates":[57.952952640835143,23.3026864761426]},"properties":{"FID":87,"NAMEEN":"Belqees Pharmacy - Samail","WILLAYAT":" Wilayat Samail","GOV":" Ad Dakhliyah Governorate","LATITUDE":23.302686479999998,"LONGITUDE":57.952952639999999}},{"type":"Feature","id":88,"geometry":{"type":"Point","coordinates":[58.454393539553358,23.607429017386536]},"properties":{"FID":88,"NAMEEN":"Muscat Pharmacy - Bawshar","WILLAYAT":" Wilayat Bawshar","GOV":" Muscat Governorate","LATITUDE":23.607429020000001,"LONGITUDE":58.454393539999998}},{"type":"Feature","id":89,"geometry":{"type":"Point","coordinates":[59.525381830242722,22.567689223146182]},"properties":{"FID":89,"NAMEEN":"Al Jawi Pharmacy - Sur","WILLAYAT":" Wilayat Sur","GOV":" Ash Sharqiyah South Governorate","LATITUDE":22.567689219999998,"LONGITUDE":59.525381830000001}},{"type":"Feature","id":90,"geometry":{"type":"Point","coordinates":[58.544649928686489,23.593941768289127]},"properties":{"FID":90,"NAMEEN":"Muscat Pharmacy - Mutrah","WILLAYAT":" Wilayat Mutrah","GOV":" Muscat Governorate","LATITUDE":23.593941770000001,"LONGITUDE":58.544649929999999}},{"type":"Feature","id":91,"geometry":{"type":"Point","coordinates":[56.609641787940603,24.424165050384261]},"properties":{"FID":91,"NAMEEN":"Lama Pharmacy - Sohar","WILLAYAT":" Wilayat Sohar","GOV":" Al Batinah North Governorate","LATITUDE":24.424165049999999,"LONGITUDE":56.609641789999998}},{"type":"Feature","id":92,"geometry":{"type":"Point","coordinates":[58.219007721138695,23.6149206934214]},"properties":{"FID":92,"NAMEEN":"Muscat Pharmacy - As Seeb","WILLAYAT":" Wilayat As Seeb","GOV":" Muscat Governorate","LATITUDE":23.614920690000002,"LONGITUDE":58.21900772}},{"type":"Feature","id":93,"geometry":{"type":"Point","coordinates":[58.562413154795173,23.617088786689408]},"properties":{"FID":93,"NAMEEN":"Al Hashar Pharmacy - Mutrah","WILLAYAT":" Wilayat Mutrah","GOV":" Muscat Governorate","LATITUDE":23.61708879,"LONGITUDE":58.562413149999998}},{"type":"Feature","id":94,"geometry":{"type":"Point","coordinates":[54.085121117928608,17.017429748182806]},"properties":{"FID":94,"NAMEEN":"Al Janoob Pharmacy - Salalah","WILLAYAT":" Wilayat Salalah","GOV":" Dhofar Governorate","LATITUDE":17.017429750000002,"LONGITUDE":54.085121119999997}},{"type":"Feature","id":95,"geometry":{"type":"Point","coordinates":[57.438711712584642,23.848312472616236]},"properties":{"FID":95,"NAMEEN":"Muscat Pharmacy - As Suwayq","WILLAYAT":" Wilayat As Suwayq","GOV":" Al Batinah North Governorate","LATITUDE":23.84831247,"LONGITUDE":57.43871171}},{"type":"Feature","id":96,"geometry":{"type":"Point","coordinates":[58.528116709560457,22.716858339229521]},"properties":{"FID":96,"NAMEEN":"Ibn Al Haitham Pharmacy - Ibra","WILLAYAT":" Wilayat Ibra","GOV":" Ash Sharqiyah North Governorate","LATITUDE":22.716858340000002,"LONGITUDE":58.528116709999999}},{"type":"Feature","id":97,"geometry":{"type":"Point","coordinates":[58.528506780185261,22.715733130769198]},"properties":{"FID":97,"NAMEEN":"Al Bawareq Pharmacy - Ibra","WILLAYAT":" Wilayat Ibra","GOV":" Ash Sharqiyah North Governorate","LATITUDE":22.71573313,"LONGITUDE":58.528506780000001}},{"type":"Feature","id":98,"geometry":{"type":"Point","coordinates":[55.774097756444419,24.243356575564771]},"properties":{"FID":98,"NAMEEN":"Al Naseem Pharmacy - Al Buraymi","WILLAYAT":" Wilayat Al Buraymi","GOV":" Al Buraymi Governorate","LATITUDE":24.24335658,"LONGITUDE":55.774097759999997}},{"type":"Feature","id":99,"geometry":{"type":"Point","coordinates":[58.229528685970465,23.596350091120751]},"properties":{"FID":99,"NAMEEN":"Al Kawakib Pharmacy - As Seeb","WILLAYAT":" Wilayat As Seeb","GOV":" Muscat Governorate","LATITUDE":23.596350090000001,"LONGITUDE":58.229528690000002}},{"type":"Feature","id":100,"geometry":{"type":"Point","coordinates":[56.562107918815052,24.519080211293097]},"properties":{"FID":100,"NAMEEN":"Muscat Pharmacy - Liwa","WILLAYAT":" Wilayat Liwa","GOV":" Al Batinah North Governorate","LATITUDE":24.519080209999998,"LONGITUDE":56.562107920000003}},{"type":"Feature","id":101,"geometry":{"type":"Point","coordinates":[58.503747314718311,23.500324729604149]},"properties":{"FID":101,"NAMEEN":"Naher Al Kauther Pharmacy  - Al Amrat","WILLAYAT":" Wilayat Al Amrat","GOV":" Muscat Governorate","LATITUDE":23.500324729999999,"LONGITUDE":58.503747310000001}},{"type":"Feature","id":102,"geometry":{"type":"Point","coordinates":[58.384325855972918,23.59093373587708]},"properties":{"FID":102,"NAMEEN":"Scientific Pharmacy - Bawshar","WILLAYAT":" Wilayat Bawshar","GOV":" Muscat Governorate","LATITUDE":23.590933740000001,"LONGITUDE":58.384325859999997}},{"type":"Feature","id":103,"geometry":{"type":"Point","coordinates":[56.736077343720204,24.34746601962452]},"properties":{"FID":103,"NAMEEN":"Sohar Pharmacy - Sohar","WILLAYAT":" Wilayat Sohar","GOV":" Al Batinah North Governorate","LATITUDE":24.347466019999999,"LONGITUDE":56.736077340000001}},{"type":"Feature","id":104,"geometry":{"type":"Point","coordinates":[57.30855019999035,22.979536399613355]},"properties":{"FID":104,"NAMEEN":"Al Shaqsi Pharmacy - Bahla","WILLAYAT":" Wilayat Bahla","GOV":" Ad Dakhliyah Governorate","LATITUDE":22.979536400000001,"LONGITUDE":57.308550199999999}},{"type":"Feature","id":105,"geometry":{"type":"Point","coordinates":[57.424077407384864,23.391768382390847]},"properties":{"FID":105,"NAMEEN":"Rustaq Pharmacy - Ar Rustaq","WILLAYAT":" Wilayat Ar Rustaq","GOV":" Al Batinah South Governorate","LATITUDE":23.391768379999998,"LONGITUDE":57.424077410000002}},{"type":"Feature","id":106,"geometry":{"type":"Point","coordinates":[56.514348218416039,23.225670964410249]},"properties":{"FID":106,"NAMEEN":"Atika Pharmacy - Ibri","WILLAYAT":" Wilayat Ibri","GOV":" Adh Dhahirah Governorate","LATITUDE":23.225670959999999,"LONGITUDE":56.514348220000002}},{"type":"Feature","id":107,"geometry":{"type":"Point","coordinates":[54.026267874058114,17.007705541632994]},"properties":{"FID":107,"NAMEEN":"Emirates Medical Center Pharmacy - Salalah","WILLAYAT":" Wilayat Salalah","GOV":" Dhofar Governorate","LATITUDE":17.00770554,"LONGITUDE":54.026267869999998}},{"type":"Feature","id":108,"geometry":{"type":"Point","coordinates":[58.361578467671279,23.577422393356297]},"properties":{"FID":108,"NAMEEN":"Al Turki Pharmacy - Bawshar","WILLAYAT":" Wilayat Bawshar","GOV":" Muscat Governorate","LATITUDE":23.577422389999999,"LONGITUDE":58.361578469999998}},{"type":"Feature","id":109,"geometry":{"type":"Point","coordinates":[57.093147488612459,23.972147208156542]},"properties":{"FID":109,"NAMEEN":"Abu Bader Alhosni Pharmacy - Al Khaburah","WILLAYAT":" Wilayat Al Khaburah","GOV":" Al Batinah North Governorate","LATITUDE":23.972147209999999,"LONGITUDE":57.09314749}},{"type":"Feature","id":110,"geometry":{"type":"Point","coordinates":[57.330970606896322,23.857212244997548]},"properties":{"FID":110,"NAMEEN":"Abu Bader Alhosni Pharmacy - Khadra Al Saad","WILLAYAT":" Wilayat As Suwayq","GOV":" Al Batinah North Governorate","LATITUDE":23.857212239999999,"LONGITUDE":57.330970610000001}},{"type":"Feature","id":111,"geometry":{"type":"Point","coordinates":[58.435394400902794,23.594575509815346]},"properties":{"FID":111,"NAMEEN":"Sagar Pharmacy - Bawshar","WILLAYAT":" Wilayat Bawshar","GOV":" Muscat Governorate","LATITUDE":23.594575509999999,"LONGITUDE":58.4353944}},{"type":"Feature","id":112,"geometry":{"type":"Point","coordinates":[55.773932542922338,24.243878035105812]},"properties":{"FID":112,"NAMEEN":"Al Shamsi Pharmacy - Al Buraymi","WILLAYAT":" Wilayat Al Buraymi","GOV":" Al Buraymi Governorate","LATITUDE":24.243878039999998,"LONGITUDE":55.773932539999997}},{"type":"Feature","id":113,"geometry":{"type":"Point","coordinates":[54.093325809424243,17.012824466686247]},"properties":{"FID":113,"NAMEEN":"Al Hashar Pharmacy - Salalah","WILLAYAT":" Wilayat Salalah","GOV":" Dhofar Governorate","LATITUDE":17.012824470000002,"LONGITUDE":54.093325810000003}},{"type":"Feature","id":114,"geometry":{"type":"Point","coordinates":[54.09150753276365,17.013288219372345]},"properties":{"FID":114,"NAMEEN":"Al Mowasah Pharmacy - Salalah","WILLAYAT":" Wilayat Salalah","GOV":" Dhofar Governorate","LATITUDE":17.01328822,"LONGITUDE":54.091507530000001}},{"type":"Feature","id":115,"geometry":{"type":"Point","coordinates":[58.235153989676199,23.62906129001281]},"properties":{"FID":115,"NAMEEN":"Ahmad Pharmacy - As Seeb","WILLAYAT":" Wilayat As Seeb","GOV":" Muscat Governorate","LATITUDE":23.629061289999999,"LONGITUDE":58.235153990000001}},{"type":"Feature","id":116,"geometry":{"type":"Point","coordinates":[58.490964532524231,23.624288653647532]},"properties":{"FID":116,"NAMEEN":"Muscat Pharmacy - Mutrah","WILLAYAT":" Wilayat Mutrah","GOV":" Muscat Governorate","LATITUDE":23.62428865,"LONGITUDE":58.490964529999999}},{"type":"Feature","id":117,"geometry":{"type":"Point","coordinates":[58.56045231916282,23.584958467262577]},"properties":{"FID":117,"NAMEEN":"Muscat Pharmacy - Mutrah","WILLAYAT":" Wilayat Mutrah","GOV":" Muscat Governorate","LATITUDE":23.58495847,"LONGITUDE":58.560452320000003}},{"type":"Feature","id":118,"geometry":{"type":"Point","coordinates":[58.541495986784192,23.603140974836673]},"properties":{"FID":118,"NAMEEN":"Ibn Sina Pharmacy - Mutrah","WILLAYAT":" Wilayat Mutrah","GOV":" Muscat Governorate","LATITUDE":23.603140969999998,"LONGITUDE":58.541495990000001}},{"type":"Feature","id":119,"geometry":{"type":"Point","coordinates":[56.736511999929519,24.345856999748783]},"properties":{"FID":119,"NAMEEN":"Ahmed Al Sadi Pharmacy - Sohar","WILLAYAT":" Wilayat Sohar","GOV":" Al Batinah North Governorate","LATITUDE":24.345856999999999,"LONGITUDE":56.736511999999998}},{"type":"Feature","id":120,"geometry":{"type":"Point","coordinates":[58.54567429469823,23.583593853656676]},"properties":{"FID":120,"NAMEEN":"Al Pha Pharmacy - Mutrah","WILLAYAT":" Wilayat Mutrah","GOV":" Muscat Governorate","LATITUDE":23.58359385,"LONGITUDE":58.545674290000001}},{"type":"Feature","id":121,"geometry":{"type":"Point","coordinates":[58.409905471994996,23.586339091631967]},"properties":{"FID":121,"NAMEEN":"Atlas Pharmacy - Bawshar","WILLAYAT":" Wilayat Bawshar","GOV":" Muscat Governorate","LATITUDE":23.586339089999999,"LONGITUDE":58.409905469999998}},{"type":"Feature","id":122,"geometry":{"type":"Point","coordinates":[58.036025300009726,22.506130587412077]},"properties":{"FID":122,"NAMEEN":"Hala Medical Center Pharmacy - Sinaw","WILLAYAT":" Wilayat Al Mudaybi","GOV":" Ash Sharqiyah North Governorate","LATITUDE":22.506130590000001,"LONGITUDE":58.036025299999999}},{"type":"Feature","id":123,"geometry":{"type":"Point","coordinates":[54.692954390564402,16.986848862091946]},"properties":{"FID":123,"NAMEEN":"Muscat Pharmacy - Mirbat","WILLAYAT":" Wilayat Mirbat","GOV":" Dhofar Governorate","LATITUDE":16.986848859999998,"LONGITUDE":54.692954389999997}},{"type":"Feature","id":124,"geometry":{"type":"Point","coordinates":[58.405592260755526,23.586702915356678]},"properties":{"FID":124,"NAMEEN":"Ibn Sina Pharmacy - Bawshar","WILLAYAT":" Wilayat Bawshar","GOV":" Muscat Governorate","LATITUDE":23.58670292,"LONGITUDE":58.405592259999999}},{"type":"Feature","id":125,"geometry":{"type":"Point","coordinates":[56.614964751772128,24.423002247342527]},"properties":{"FID":125,"NAMEEN":"Al Qabail Pharmacy - Sohar","WILLAYAT":" Wilayat Sohar","GOV":" Al Batinah North Governorate","LATITUDE":24.42300225,"LONGITUDE":56.614964749999999}},{"type":"Feature","id":126,"geometry":{"type":"Point","coordinates":[58.232886712990897,23.607584051376929]},"properties":{"FID":126,"NAMEEN":"Al Mawaleh Pharmacy - As Seeb","WILLAYAT":" Wilayat As Seeb","GOV":" Muscat Governorate","LATITUDE":23.60758405,"LONGITUDE":58.232886710000002}},{"type":"Feature","id":127,"geometry":{"type":"Point","coordinates":[58.38182989420865,23.574997066200371]},"properties":{"FID":127,"NAMEEN":"Al Nabhani Pharmacy - Bawshar","WILLAYAT":" Wilayat Bawshar","GOV":" Muscat Governorate","LATITUDE":23.574997069999998,"LONGITUDE":58.381829889999999}},{"type":"Feature","id":128,"geometry":{"type":"Point","coordinates":[58.539563870740928,23.587666248901979]},"properties":{"FID":128,"NAMEEN":"Apollo Pharmacy - Mutrah","WILLAYAT":" Wilayat Mutrah","GOV":" Muscat Governorate","LATITUDE":23.587666250000002,"LONGITUDE":58.539563870000002}},{"type":"Feature","id":129,"geometry":{"type":"Point","coordinates":[58.382971414246789,23.57727804597301]},"properties":{"FID":129,"NAMEEN":"Waleed Pharmacy - Bawshar","WILLAYAT":" Wilayat Bawshar","GOV":" Muscat Governorate","LATITUDE":23.57727805,"LONGITUDE":58.382971410000003}},{"type":"Feature","id":130,"geometry":{"type":"Point","coordinates":[54.034771262404483,17.611660605735139]},"properties":{"FID":130,"NAMEEN":"Ibn Sina Pharmacy - Thumrayt","WILLAYAT":" Wilayat Thumrayt","GOV":" Dhofar Governorate","LATITUDE":17.611660610000001,"LONGITUDE":54.034771259999999}},{"type":"Feature","id":131,"geometry":{"type":"Point","coordinates":[56.515434916726072,23.215304815126956]},"properties":{"FID":131,"NAMEEN":"Sara Pharmacy - Ibri","WILLAYAT":" Wilayat Ibri","GOV":" Adh Dhahirah Governorate","LATITUDE":23.21530482,"LONGITUDE":56.515434919999997}},{"type":"Feature","id":132,"geometry":{"type":"Point","coordinates":[58.186933699667712,23.680779999654138]},"properties":{"FID":132,"NAMEEN":"Mahaq Pharmacy   - As Seeb","WILLAYAT":" Wilayat As Seeb","GOV":" Muscat Governorate","LATITUDE":23.680779999999999,"LONGITUDE":58.186933699999997}},{"type":"Feature","id":133,"geometry":{"type":"Point","coordinates":[57.888979255612917,23.66734841869236]},"properties":{"FID":133,"NAMEEN":"Belqees Pharmacy - As Sawmhan","WILLAYAT":" Wilayat Barka","GOV":" Al Batinah South Governorate","LATITUDE":23.66734842,"LONGITUDE":57.888979259999999}},{"type":"Feature","id":134,"geometry":{"type":"Point","coordinates":[57.891389489636566,23.666555020377718]},"properties":{"FID":134,"NAMEEN":"Al Farooq Pharmacy - As Sawmhan","WILLAYAT":" Wilayat Barka","GOV":" Al Batinah South Governorate","LATITUDE":23.666555020000001,"LONGITUDE":57.891389490000002}},{"type":"Feature","id":135,"geometry":{"type":"Point","coordinates":[57.622627415634433,23.744956872719268]},"properties":{"FID":135,"NAMEEN":"Musanna Pharmacy - At Turayf","WILLAYAT":" Wilayat Al Musanaah","GOV":" Al Batinah South Governorate","LATITUDE":23.744956869999999,"LONGITUDE":57.622627420000001}},{"type":"Feature","id":136,"geometry":{"type":"Point","coordinates":[58.545180731944988,23.591940001012706]},"properties":{"FID":136,"NAMEEN":"Ibn Sina Pharmacy - Mutrah","WILLAYAT":" Wilayat Mutrah","GOV":" Muscat Governorate","LATITUDE":23.591940000000001,"LONGITUDE":58.545180729999998}},{"type":"Feature","id":137,"geometry":{"type":"Point","coordinates":[58.4899977907642,23.608328218126339]},"properties":{"FID":137,"NAMEEN":"Muscat Pharmacy - Bawshar","WILLAYAT":" Wilayat Bawshar","GOV":" Muscat Governorate","LATITUDE":23.608328220000001,"LONGITUDE":58.489997789999997}},{"type":"Feature","id":138,"geometry":{"type":"Point","coordinates":[57.9597712001381,23.293819300036969]},"properties":{"FID":138,"NAMEEN":"Balsam Pharmacy - Samail","WILLAYAT":" Wilayat Samail","GOV":" Ad Dakhliyah Governorate","LATITUDE":23.293819299999999,"LONGITUDE":57.959771199999999}},{"type":"Feature","id":139,"geometry":{"type":"Point","coordinates":[58.562720336287107,23.616261523096291]},"properties":{"FID":139,"NAMEEN":"Muscat Pharmacy - Mutrah","WILLAYAT":" Wilayat Mutrah","GOV":" Muscat Governorate","LATITUDE":23.616261519999998,"LONGITUDE":58.562720339999998}},{"type":"Feature","id":140,"geometry":{"type":"Point","coordinates":[57.6222829748598,23.745564769136827]},"properties":{"FID":140,"NAMEEN":"Muscat Pharmacy - At Turayf","WILLAYAT":" Wilayat Al Musanaah","GOV":" Al Batinah South Governorate","LATITUDE":23.745564770000001,"LONGITUDE":57.622282970000001}},{"type":"Feature","id":141,"geometry":{"type":"Point","coordinates":[58.496799983197107,23.615564727947074]},"properties":{"FID":141,"NAMEEN":"Waleed Pharmacy - Mutrah","WILLAYAT":" Wilayat Mutrah","GOV":" Muscat Governorate","LATITUDE":23.615564729999999,"LONGITUDE":58.496799979999999}},{"type":"Feature","id":142,"geometry":{"type":"Point","coordinates":[58.541097678417579,23.601799726138484]},"properties":{"FID":142,"NAMEEN":"Al Zahra Pharmacy - Mutrah","WILLAYAT":" Wilayat Mutrah","GOV":" Muscat Governorate","LATITUDE":23.60179973,"LONGITUDE":58.54109768}},{"type":"Feature","id":143,"geometry":{"type":"Point","coordinates":[58.541880061915592,23.600580230347816]},"properties":{"FID":143,"NAMEEN":"Medicine Omani Pharmacy - Mutrah","WILLAYAT":" Wilayat Mutrah","GOV":" Muscat Governorate","LATITUDE":23.600580229999998,"LONGITUDE":58.541880059999997}},{"type":"Feature","id":144,"geometry":{"type":"Point","coordinates":[58.197156349012943,23.628930802149988]},"properties":{"FID":144,"NAMEEN":"Belqees Pharmacy - As Seeb","WILLAYAT":" Wilayat As Seeb","GOV":" Muscat Governorate","LATITUDE":23.628930799999999,"LONGITUDE":58.19715635}},{"type":"Feature","id":145,"geometry":{"type":"Point","coordinates":[56.746271000241961,24.361452999988131]},"properties":{"FID":145,"NAMEEN":"Scientific Pharmacy - Sohar","WILLAYAT":" Wilayat Sohar","GOV":" Al Batinah North Governorate","LATITUDE":24.361453000000001,"LONGITUDE":56.746271}},{"type":"Feature","id":146,"geometry":{"type":"Point","coordinates":[58.545911785102184,23.588161623753798]},"properties":{"FID":146,"NAMEEN":"Muscat Pharmacy - Mutrah","WILLAYAT":" Wilayat Mutrah","GOV":" Muscat Governorate","LATITUDE":23.588161620000001,"LONGITUDE":58.545911789999998}},{"type":"Feature","id":147,"geometry":{"type":"Point","coordinates":[58.446903284166716,23.597860683780922]},"properties":{"FID":147,"NAMEEN":"Al Hashar Pharmacy - Bawshar","WILLAYAT":" Wilayat Bawshar","GOV":" Muscat Governorate","LATITUDE":23.59786068,"LONGITUDE":58.446903280000001}},{"type":"Feature","id":148,"geometry":{"type":"Point","coordinates":[58.423875589245917,23.593645028721443]},"properties":{"FID":148,"NAMEEN":"Waleed Pharmacy - Bawshar","WILLAYAT":" Wilayat Bawshar","GOV":" Muscat Governorate","LATITUDE":23.593645030000001,"LONGITUDE":58.423875590000002}},{"type":"Feature","id":149,"geometry":{"type":"Point","coordinates":[57.893851720894354,23.664451014085532]},"properties":{"FID":149,"NAMEEN":"Badr Al Samaa Pharmacy - As Sawmhan","WILLAYAT":" Wilayat Barka","GOV":" Al Batinah South Governorate","LATITUDE":23.664451010000001,"LONGITUDE":57.893851720000001}},{"type":"Feature","id":150,"geometry":{"type":"Point","coordinates":[58.45315999967832,23.612490000168506]},"properties":{"FID":150,"NAMEEN":"Al Shati Hospital Pharmacy - Bawshar","WILLAYAT":" Wilayat Bawshar","GOV":" Muscat Governorate","LATITUDE":23.612490000000001,"LONGITUDE":58.453159999999997}},{"type":"Feature","id":151,"geometry":{"type":"Point","coordinates":[58.499139472043112,23.500064986603068]},"properties":{"FID":151,"NAMEEN":"Babil Pharmacy - Al Amrat","WILLAYAT":" Wilayat Al Amrat","GOV":" Muscat Governorate","LATITUDE":23.500064989999998,"LONGITUDE":58.499139470000003}},{"type":"Feature","id":152,"geometry":{"type":"Point","coordinates":[58.566369500392511,23.620683611232693]},"properties":{"FID":152,"NAMEEN":"Muttrah Pharmacy - Mutrah","WILLAYAT":" Wilayat Mutrah","GOV":" Muscat Governorate","LATITUDE":23.62068361,"LONGITUDE":58.5663695}},{"type":"Feature","id":153,"geometry":{"type":"Point","coordinates":[59.544677696579988,22.566946628165478]},"properties":{"FID":153,"NAMEEN":"Al Fajer Pharmacy - Sur","WILLAYAT":" Wilayat Sur","GOV":" Ash Sharqiyah South Governorate","LATITUDE":22.56694663,"LONGITUDE":59.544677700000001}},{"type":"Feature","id":154,"geometry":{"type":"Point","coordinates":[58.540314379702103,23.611914124368699]},"properties":{"FID":154,"NAMEEN":"Kimjiz Pharmacy - Mutrah","WILLAYAT":" Wilayat Mutrah","GOV":" Muscat Governorate","LATITUDE":23.611914120000002,"LONGITUDE":58.540314379999998}},{"type":"Feature","id":155,"geometry":{"type":"Point","coordinates":[54.093147001852564,17.01360928427636]},"properties":{"FID":155,"NAMEEN":"Muscat Pharmacy - Salalah","WILLAYAT":" Wilayat Salalah","GOV":" Dhofar Governorate","LATITUDE":17.013609280000001,"LONGITUDE":54.093147000000002}},{"type":"Feature","id":156,"geometry":{"type":"Point","coordinates":[58.426974438076634,23.586464345740932]},"properties":{"FID":156,"NAMEEN":"Badr Al Samaa Pharmacy - Bawshar","WILLAYAT":" Wilayat Bawshar","GOV":" Muscat Governorate","LATITUDE":23.58646435,"LONGITUDE":58.426974440000002}},{"type":"Feature","id":157,"geometry":{"type":"Point","coordinates":[54.084984939988395,17.017804889973867]},"properties":{"FID":157,"NAMEEN":"Scientific Pharmacy - Salalah","WILLAYAT":" Wilayat Salalah","GOV":" Dhofar Governorate","LATITUDE":17.017804890000001,"LONGITUDE":54.084984939999998}},{"type":"Feature","id":158,"geometry":{"type":"Point","coordinates":[56.450837033815802,24.746681002093069]},"properties":{"FID":158,"NAMEEN":"North Oman Pharmacy - Al Hamliyah","WILLAYAT":" Wilayat Shinas","GOV":" Al Batinah North Governorate","LATITUDE":24.746680999999999,"LONGITUDE":56.450837030000002}},{"type":"Feature","id":159,"geometry":{"type":"Point","coordinates":[58.203197650470784,23.638514422400814]},"properties":{"FID":159,"NAMEEN":"Taiba Pharmacy - As Seeb","WILLAYAT":" Wilayat As Seeb","GOV":" Muscat Governorate","LATITUDE":23.63851442,"LONGITUDE":58.20319765}},{"type":"Feature","id":160,"geometry":{"type":"Point","coordinates":[58.409234564232655,23.593816084068106]},"properties":{"FID":160,"NAMEEN":"Waleed Pharmacy - Bawshar","WILLAYAT":" Wilayat Bawshar","GOV":" Muscat Governorate","LATITUDE":23.59381608,"LONGITUDE":58.409234560000002}},{"type":"Feature","id":161,"geometry":{"type":"Point","coordinates":[57.537316099668566,22.864714999916643]},"properties":{"FID":161,"NAMEEN":"Al Hazfah Pharmacy - Farq","WILLAYAT":" Wilayat Nizwa","GOV":" Ad Dakhliyah Governorate","LATITUDE":22.864715,"LONGITUDE":57.537316099999998}},{"type":"Feature","id":162,"geometry":{"type":"Point","coordinates":[56.448800169271848,24.74667256127546]},"properties":{"FID":162,"NAMEEN":"Al Hashar Pharmacy - Al Hamliyah","WILLAYAT":" Wilayat Shinas","GOV":" Al Batinah North Governorate","LATITUDE":24.74667256,"LONGITUDE":56.448800169999998}},{"type":"Feature","id":163,"geometry":{"type":"Point","coordinates":[55.782977013521048,24.250299250377594]},"properties":{"FID":163,"NAMEEN":"Al Hayah Pharmacy - Al Buraymi","WILLAYAT":" Wilayat Al Buraymi","GOV":" Al Buraymi Governorate","LATITUDE":24.250299250000001,"LONGITUDE":55.782977010000003}},{"type":"Feature","id":164,"geometry":{"type":"Point","coordinates":[58.130256899947781,23.660699300273514]},"properties":{"FID":164,"NAMEEN":"Muscat Pharmacy - As Seeb","WILLAYAT":" Wilayat As Seeb","GOV":" Muscat Governorate","LATITUDE":23.660699300000001,"LONGITUDE":58.130256899999999}},{"type":"Feature","id":165,"geometry":{"type":"Point","coordinates":[58.129504700004226,23.661476599920718]},"properties":{"FID":165,"NAMEEN":"Belqees Pharmacy - As Seeb","WILLAYAT":" Wilayat As Seeb","GOV":" Muscat Governorate","LATITUDE":23.6614766,"LONGITUDE":58.129504699999998}},{"type":"Feature","id":166,"geometry":{"type":"Point","coordinates":[58.126288900251929,23.660812899702382]},"properties":{"FID":166,"NAMEEN":"Scientific Pharmacy - As Seeb","WILLAYAT":" Wilayat As Seeb","GOV":" Muscat Governorate","LATITUDE":23.6608129,"LONGITUDE":58.126288899999999}},{"type":"Feature","id":167,"geometry":{"type":"Point","coordinates":[57.892097602620694,23.707219963987772]},"properties":{"FID":167,"NAMEEN":"Barka Pharmacy - Barka","WILLAYAT":" Wilayat Barka","GOV":" Al Batinah South Governorate","LATITUDE":23.70721996,"LONGITUDE":57.8920976}},{"type":"Feature","id":168,"geometry":{"type":"Point","coordinates":[58.406320250589687,23.591048860322484]},"properties":{"FID":168,"NAMEEN":"Health 4 All Pharmacy - Bawshar","WILLAYAT":" Wilayat Bawshar","GOV":" Muscat Governorate","LATITUDE":23.591048860000001,"LONGITUDE":58.40632025}},{"type":"Feature","id":169,"geometry":{"type":"Point","coordinates":[59.514887584670781,22.578630532183503]},"properties":{"FID":169,"NAMEEN":"Muscat Pharmacy - Sur","WILLAYAT":" Wilayat Sur","GOV":" Ash Sharqiyah South Governorate","LATITUDE":22.578630530000002,"LONGITUDE":59.51488758}},{"type":"Feature","id":170,"geometry":{"type":"Point","coordinates":[57.892240600545314,23.70652253734044]},"properties":{"FID":170,"NAMEEN":"Scientific Pharmacy - Barka","WILLAYAT":" Wilayat Barka","GOV":" Al Batinah South Governorate","LATITUDE":23.706522540000002,"LONGITUDE":57.892240600000001}},{"type":"Feature","id":171,"geometry":{"type":"Point","coordinates":[57.529972000075432,22.934409900057055]},"properties":{"FID":171,"NAMEEN":"Muscat Pharmacy - Nizwa","WILLAYAT":" Wilayat Nizwa","GOV":" Ad Dakhliyah Governorate","LATITUDE":22.934409899999999,"LONGITUDE":57.529972000000001}},{"type":"Feature","id":172,"geometry":{"type":"Point","coordinates":[57.526903399885661,22.940389100198669]},"properties":{"FID":172,"NAMEEN":"Nizwa Pharmacy - Nizwa","WILLAYAT":" Wilayat Nizwa","GOV":" Ad Dakhliyah Governorate","LATITUDE":22.940389100000001,"LONGITUDE":57.526903400000002}},{"type":"Feature","id":173,"geometry":{"type":"Point","coordinates":[59.200609999662923,22.21887299966939]},"properties":{"FID":173,"NAMEEN":"Muscat Pharmacy - Al Kamil Wa Al Wafi","WILLAYAT":" Wilayat Al Kamil Wa Al Wafi","GOV":" Ash Sharqiyah South Governorate","LATITUDE":22.218872999999999,"LONGITUDE":59.200609999999998}},{"type":"Feature","id":174,"geometry":{"type":"Point","coordinates":[59.201403893910168,22.220025622399081]},"properties":{"FID":174,"NAMEEN":"Al kamil Pharmacy - Al Kamil Wa Al Wafi","WILLAYAT":" Wilayat Al Kamil Wa Al Wafi","GOV":" Ash Sharqiyah South Governorate","LATITUDE":22.220025620000001,"LONGITUDE":59.201403890000002}},{"type":"Feature","id":175,"geometry":{"type":"Point","coordinates":[58.544322842624084,23.602554308572262]},"properties":{"FID":175,"NAMEEN":"Waleed Pharmacy - Mutrah","WILLAYAT":" Wilayat Mutrah","GOV":" Muscat Governorate","LATITUDE":23.602554309999999,"LONGITUDE":58.54432284}},{"type":"Feature","id":176,"geometry":{"type":"Point","coordinates":[57.674822299530561,22.912485700103911]},"properties":{"FID":176,"NAMEEN":"Muscat Pharmacy - Birkat Al Mawz","WILLAYAT":" Wilayat Nizwa","GOV":" Ad Dakhliyah Governorate","LATITUDE":22.912485700000001,"LONGITUDE":57.674822300000002}},{"type":"Feature","id":177,"geometry":{"type":"Point","coordinates":[58.432497531794368,23.584465611217912]},"properties":{"FID":177,"NAMEEN":"Scientific Pharmacy - Bawshar","WILLAYAT":" Wilayat Bawshar","GOV":" Muscat Governorate","LATITUDE":23.584465609999999,"LONGITUDE":58.432497529999999}},{"type":"Feature","id":178,"geometry":{"type":"Point","coordinates":[58.543499095037369,23.595044194669551]},"properties":{"FID":178,"NAMEEN":"Badr Al Samaa Pharmacy - Mutrah","WILLAYAT":" Wilayat Mutrah","GOV":" Muscat Governorate","LATITUDE":23.595044189999999,"LONGITUDE":58.543499099999998}},{"type":"Feature","id":179,"geometry":{"type":"Point","coordinates":[57.54348150000493,22.965932800131313]},"properties":{"FID":179,"NAMEEN":"Al Hazfah Pharmacy - Nizwa","WILLAYAT":" Wilayat Nizwa","GOV":" Ad Dakhliyah Governorate","LATITUDE":22.965932800000001,"LONGITUDE":57.543481499999999}},{"type":"Feature","id":180,"geometry":{"type":"Point","coordinates":[57.529421299833366,22.952484500202136]},"properties":{"FID":180,"NAMEEN":"Qarn Al Rawdah Pharmacy - Nizwa","WILLAYAT":" Wilayat Nizwa","GOV":" Ad Dakhliyah Governorate","LATITUDE":22.952484500000001,"LONGITUDE":57.529421300000003}},{"type":"Feature","id":181,"geometry":{"type":"Point","coordinates":[57.525718000473965,22.952597700351095]},"properties":{"FID":181,"NAMEEN":"Dar Al Khaleej Pharmacy - Nizwa","WILLAYAT":" Wilayat Nizwa","GOV":" Ad Dakhliyah Governorate","LATITUDE":22.952597699999998,"LONGITUDE":57.525717999999998}},{"type":"Feature","id":182,"geometry":{"type":"Point","coordinates":[57.475776999871066,22.853542999692259]},"properties":{"FID":182,"NAMEEN":"Al Mubadra Pharmacy - Taymsa","WILLAYAT":" Wilayat Nizwa","GOV":" Ad Dakhliyah Governorate","LATITUDE":22.853542999999998,"LONGITUDE":57.475777000000001}},{"type":"Feature","id":183,"geometry":{"type":"Point","coordinates":[57.665440600372577,22.918019500348002]},"properties":{"FID":183,"NAMEEN":"Al Haramain Pharmacy - Birkat Al Mawz","WILLAYAT":" Wilayat Nizwa","GOV":" Ad Dakhliyah Governorate","LATITUDE":22.9180195,"LONGITUDE":57.665440599999997}},{"type":"Feature","id":184,"geometry":{"type":"Point","coordinates":[57.538148999964505,22.875849000286181]},"properties":{"FID":184,"NAMEEN":"Lulu Pharmacy - Hayl Farq","WILLAYAT":" Wilayat Nizwa","GOV":" Ad Dakhliyah Governorate","LATITUDE":22.875848999999999,"LONGITUDE":57.538148999999997}},{"type":"Feature","id":185,"geometry":{"type":"Point","coordinates":[57.298311600164865,22.965235200271771]},"properties":{"FID":185,"NAMEEN":"New Bahla Pharmacy - Bahla","WILLAYAT":" Wilayat Bahla","GOV":" Ad Dakhliyah Governorate","LATITUDE":22.965235199999999,"LONGITUDE":57.298311599999998}},{"type":"Feature","id":186,"geometry":{"type":"Point","coordinates":[57.29788270037227,22.964114000174494]},"properties":{"FID":186,"NAMEEN":"Muscat Pharmacy - Bahla","WILLAYAT":" Wilayat Bahla","GOV":" Ad Dakhliyah Governorate","LATITUDE":22.964113999999999,"LONGITUDE":57.297882700000002}},{"type":"Feature","id":187,"geometry":{"type":"Point","coordinates":[57.323851500104595,23.008371199779848]},"properties":{"FID":187,"NAMEEN":"Basmat Al Amal Pharmacy - Bahla","WILLAYAT":" Wilayat Bahla","GOV":" Ad Dakhliyah Governorate","LATITUDE":23.008371199999999,"LONGITUDE":57.323851500000004}},{"type":"Feature","id":188,"geometry":{"type":"Point","coordinates":[57.310074399786991,22.98647139971499]},"properties":{"FID":188,"NAMEEN":"New Bahla Pharmacy - Bahla","WILLAYAT":" Wilayat Bahla","GOV":" Ad Dakhliyah Governorate","LATITUDE":22.986471399999999,"LONGITUDE":57.310074399999998}},{"type":"Feature","id":189,"geometry":{"type":"Point","coordinates":[57.316225600317829,22.995567099900697]},"properties":{"FID":189,"NAMEEN":"Moon Medical Pharmacy - Bahla","WILLAYAT":" Wilayat Bahla","GOV":" Ad Dakhliyah Governorate","LATITUDE":22.995567099999999,"LONGITUDE":57.316225600000003}},{"type":"Feature","id":190,"geometry":{"type":"Point","coordinates":[57.292287700009574,23.118915199636447]},"properties":{"FID":190,"NAMEEN":"Al Farahaidy Pharmacy\n - Al Hamra","WILLAYAT":" Wilayat Al Hamra","GOV":" Ad Dakhliyah Governorate","LATITUDE":23.1189152,"LONGITUDE":57.292287700000003}},{"type":"Feature","id":191,"geometry":{"type":"Point","coordinates":[57.291886900347059,23.113526300356295]},"properties":{"FID":191,"NAMEEN":"Muscat Pharmacy - Al Hamra","WILLAYAT":" Wilayat Al Hamra","GOV":" Ad Dakhliyah Governorate","LATITUDE":23.1135263,"LONGITUDE":57.291886900000002}},{"type":"Feature","id":192,"geometry":{"type":"Point","coordinates":[57.953362663609703,23.300972426311635]},"properties":{"FID":192,"NAMEEN":"Freedom Pharmacy - Samail","WILLAYAT":" Wilayat Samail","GOV":" Ad Dakhliyah Governorate","LATITUDE":23.300972430000002,"LONGITUDE":57.953362660000003}},{"type":"Feature","id":193,"geometry":{"type":"Point","coordinates":[57.962422599719417,23.293627599750401]},"properties":{"FID":193,"NAMEEN":"Al Rahbi Pharmacy - Samail","WILLAYAT":" Wilayat Samail","GOV":" Ad Dakhliyah Governorate","LATITUDE":23.293627600000001,"LONGITUDE":57.962422599999996}},{"type":"Feature","id":194,"geometry":{"type":"Point","coordinates":[58.120391300309208,23.331263600008175]},"properties":{"FID":194,"NAMEEN":"Freedom Pharmacy - Lizugh","WILLAYAT":" Wilayat Samail","GOV":" Ad Dakhliyah Governorate","LATITUDE":23.3312636,"LONGITUDE":58.120391300000001}},{"type":"Feature","id":195,"geometry":{"type":"Point","coordinates":[57.945852200033052,23.283106299968097]},"properties":{"FID":195,"NAMEEN":"Al Anfal Pharmacy - Samail","WILLAYAT":" Wilayat Samail","GOV":" Ad Dakhliyah Governorate","LATITUDE":23.2831063,"LONGITUDE":57.945852199999997}},{"type":"Feature","id":196,"geometry":{"type":"Point","coordinates":[58.118884899842477,23.333827099748667]},"properties":{"FID":196,"NAMEEN":"Abu Bader Alhosni Pharmacy - Lizugh","WILLAYAT":" Wilayat Samail","GOV":" Ad Dakhliyah Governorate","LATITUDE":23.333827100000001,"LONGITUDE":58.118884899999998}},{"type":"Feature","id":197,"geometry":{"type":"Point","coordinates":[59.329368847242662,22.018770506176043]},"properties":{"FID":197,"NAMEEN":"Al Qurum Pharmacy - Jaalan Bani Bu Ali","WILLAYAT":" Wilayat Jaalan Bani Bu Ali","GOV":" Ash Sharqiyah South Governorate","LATITUDE":22.01877051,"LONGITUDE":59.329368850000002}},{"type":"Feature","id":198,"geometry":{"type":"Point","coordinates":[59.328514999866002,22.016337000450374]},"properties":{"FID":198,"NAMEEN":"Abu Amal Pharmacy - Jaalan Bani Bu Ali","WILLAYAT":" Wilayat Jaalan Bani Bu Ali","GOV":" Ash Sharqiyah South Governorate","LATITUDE":22.016337,"LONGITUDE":59.328515000000003}},{"type":"Feature","id":199,"geometry":{"type":"Point","coordinates":[59.330306538933144,22.017351717796831]},"properties":{"FID":199,"NAMEEN":"Al Fotuh Pharmacy - Jaalan Bani Bu Ali","WILLAYAT":" Wilayat Jaalan Bani Bu Ali","GOV":" Ash Sharqiyah South Governorate","LATITUDE":22.017351720000001,"LONGITUDE":59.330306540000002}},{"type":"Feature","id":200,"geometry":{"type":"Point","coordinates":[59.333933842215664,22.034502731621579]},"properties":{"FID":200,"NAMEEN":"Al Bawareq Pharmacy - Jaalan Bani Bu Ali","WILLAYAT":" Wilayat Jaalan Bani Bu Ali","GOV":" Ash Sharqiyah South Governorate","LATITUDE":22.03450273,"LONGITUDE":59.33393384}},{"type":"Feature","id":201,"geometry":{"type":"Point","coordinates":[59.322389273417912,22.040301057726175]},"properties":{"FID":201,"NAMEEN":"Dar Alteb Pharmacy - Jaalan Bani Bu Ali","WILLAYAT":" Wilayat Jaalan Bani Bu Ali","GOV":" Ash Sharqiyah South Governorate","LATITUDE":22.040301060000001,"LONGITUDE":59.322389270000002}},{"type":"Feature","id":202,"geometry":{"type":"Point","coordinates":[59.201664497723932,22.224416103672475]},"properties":{"FID":202,"NAMEEN":"Al Faisal Pharmacy - Al Kamil Wa Al Wafi","WILLAYAT":" Wilayat Al Kamil Wa Al Wafi","GOV":" Ash Sharqiyah South Governorate","LATITUDE":22.224416099999999,"LONGITUDE":59.2016645}},{"type":"Feature","id":203,"geometry":{"type":"Point","coordinates":[59.227848155543327,22.181312060657042]},"properties":{"FID":203,"NAMEEN":"Al Wafi Pharmacy - Al Kamil Wa Al Wafi","WILLAYAT":" Wilayat Al Kamil Wa Al Wafi","GOV":" Ash Sharqiyah South Governorate","LATITUDE":22.18131206,"LONGITUDE":59.227848160000001}},{"type":"Feature","id":204,"geometry":{"type":"Point","coordinates":[58.684962467677934,22.583987404844223]},"properties":{"FID":204,"NAMEEN":"Al Haramain Modern Pharmacy - Ad Diriz","WILLAYAT":" Wilayat Al Qabil","GOV":" Ash Sharqiyah North Governorate","LATITUDE":22.583987400000002,"LONGITUDE":58.684962470000002}},{"type":"Feature","id":205,"geometry":{"type":"Point","coordinates":[58.808783556738604,22.453933801228761]},"properties":{"FID":205,"NAMEEN":"Al Saadi Pharmacy - Al Mintarib","WILLAYAT":" Wilayat Bidiyah","GOV":" Ash Sharqiyah North Governorate","LATITUDE":22.453933800000001,"LONGITUDE":58.808783560000002}},{"type":"Feature","id":206,"geometry":{"type":"Point","coordinates":[58.797956238338521,22.460706641149415]},"properties":{"FID":206,"NAMEEN":"Al Shariq Pharmacy - Al Mintarib","WILLAYAT":" Wilayat Bidiyah","GOV":" Ash Sharqiyah North Governorate","LATITUDE":22.460706640000001,"LONGITUDE":58.797956239999998}},{"type":"Feature","id":207,"geometry":{"type":"Point","coordinates":[58.802968672946697,22.433843411966816]},"properties":{"FID":207,"NAMEEN":"Central Pharmacy - Al Mintarib","WILLAYAT":" Wilayat Bidiyah","GOV":" Ash Sharqiyah North Governorate","LATITUDE":22.433843410000001,"LONGITUDE":58.802968669999998}},{"type":"Feature","id":208,"geometry":{"type":"Point","coordinates":[58.802989691072533,22.437881909024963]},"properties":{"FID":208,"NAMEEN":"Al Raya Pharmacy - Al Mintarib","WILLAYAT":" Wilayat Bidiyah","GOV":" Ash Sharqiyah North Governorate","LATITUDE":22.437881910000002,"LONGITUDE":58.802989689999997}},{"type":"Feature","id":209,"geometry":{"type":"Point","coordinates":[55.770751133428583,24.258925478280126]},"properties":{"FID":209,"NAMEEN":"Zohal Pharmacy - Al Buraymi","WILLAYAT":" Wilayat Al Buraymi","GOV":" Al Buraymi Governorate","LATITUDE":24.258925479999998,"LONGITUDE":55.770751130000001}},{"type":"Feature","id":210,"geometry":{"type":"Point","coordinates":[58.028062753841368,22.497206322811856]},"properties":{"FID":210,"NAMEEN":"Muscat Pharmacy - Sinaw","WILLAYAT":" Wilayat Al Mudaybi","GOV":" Ash Sharqiyah North Governorate","LATITUDE":22.49720632,"LONGITUDE":58.028062749999997}},{"type":"Feature","id":211,"geometry":{"type":"Point","coordinates":[54.081765753168412,17.01015205773178]},"properties":{"FID":211,"NAMEEN":"Naif Pharmacy - Salalah","WILLAYAT":" Wilayat Salalah","GOV":" Dhofar Governorate","LATITUDE":17.010152059999999,"LONGITUDE":54.081765750000002}},{"type":"Feature","id":212,"geometry":{"type":"Point","coordinates":[58.463792623488089,23.612225246174809]},"properties":{"FID":212,"NAMEEN":"Al Farsi Pharmacy - Bawshar","WILLAYAT":" Wilayat Bawshar","GOV":" Muscat Governorate","LATITUDE":23.612225250000002,"LONGITUDE":58.46379262}},{"type":"Feature","id":213,"geometry":{"type":"Point","coordinates":[58.170310712614295,22.836517981772278]},"properties":{"FID":213,"NAMEEN":"Al Bawareq Pharmacy - Ash Shiriah","WILLAYAT":" Wilayat Al Mudaybi","GOV":" Ash Sharqiyah North Governorate","LATITUDE":22.83651798,"LONGITUDE":58.170310710000003}},{"type":"Feature","id":214,"geometry":{"type":"Point","coordinates":[58.221423349974927,23.625599612854057]},"properties":{"FID":214,"NAMEEN":"Belqees Pharmacy - As Seeb","WILLAYAT":" Wilayat As Seeb","GOV":" Muscat Governorate","LATITUDE":23.625599609999998,"LONGITUDE":58.221423350000002}},{"type":"Feature","id":215,"geometry":{"type":"Point","coordinates":[57.758339200106853,22.943390199864876]},"properties":{"FID":215,"NAMEEN":"Al Insania Pharmacy - Izki","WILLAYAT":" Wilayat Izki","GOV":" Ad Dakhliyah Governorate","LATITUDE":22.9433902,"LONGITUDE":57.758339200000002}},{"type":"Feature","id":216,"geometry":{"type":"Point","coordinates":[56.733898713099883,24.350552684924281]},"properties":{"FID":216,"NAMEEN":"Al Raffah Pharmacy - Sohar","WILLAYAT":" Wilayat Sohar","GOV":" Al Batinah North Governorate","LATITUDE":24.35055268,"LONGITUDE":56.733898709999998}},{"type":"Feature","id":217,"geometry":{"type":"Point","coordinates":[56.516421188026904,23.219960441966045]},"properties":{"FID":217,"NAMEEN":"Al Aryaf Al Omania Pharmacy - Ibri","WILLAYAT":" Wilayat Ibri","GOV":" Adh Dhahirah Governorate","LATITUDE":23.219960440000001,"LONGITUDE":56.516421190000003}},{"type":"Feature","id":218,"geometry":{"type":"Point","coordinates":[58.405079210238483,23.589115978313465]},"properties":{"FID":218,"NAMEEN":"Scientific Pharmacy - Bawshar","WILLAYAT":" Wilayat Bawshar","GOV":" Muscat Governorate","LATITUDE":23.589115979999999,"LONGITUDE":58.405079209999997}},{"type":"Feature","id":219,"geometry":{"type":"Point","coordinates":[56.495314062757416,23.216950092015605]},"properties":{"FID":219,"NAMEEN":"Al Huda Pharmacy - Ibri","WILLAYAT":" Wilayat Ibri","GOV":" Adh Dhahirah Governorate","LATITUDE":23.216950090000001,"LONGITUDE":56.495314059999998}},{"type":"Feature","id":220,"geometry":{"type":"Point","coordinates":[56.513926812257324,23.230815426161247]},"properties":{"FID":220,"NAMEEN":"Al Mukhtar Pharmacy - Ibri","WILLAYAT":" Wilayat Ibri","GOV":" Adh Dhahirah Governorate","LATITUDE":23.23081543,"LONGITUDE":56.513926810000001}},{"type":"Feature","id":221,"geometry":{"type":"Point","coordinates":[58.544351871534715,23.594185427652111]},"properties":{"FID":221,"NAMEEN":"National Pharmacy - Mutrah","WILLAYAT":" Wilayat Mutrah","GOV":" Muscat Governorate","LATITUDE":23.59418543,"LONGITUDE":58.54435187}},{"type":"Feature","id":222,"geometry":{"type":"Point","coordinates":[58.422473776740787,23.586088536375513]},"properties":{"FID":222,"NAMEEN":"Bahwan Pharmacy - Bawshar","WILLAYAT":" Wilayat Bawshar","GOV":" Muscat Governorate","LATITUDE":23.586088539999999,"LONGITUDE":58.422473779999997}},{"type":"Feature","id":223,"geometry":{"type":"Point","coordinates":[58.544277434120119,23.58195760293313]},"properties":{"FID":223,"NAMEEN":"Muscat Pharmacy - Mutrah","WILLAYAT":" Wilayat Mutrah","GOV":" Muscat Governorate","LATITUDE":23.581957599999999,"LONGITUDE":58.544277430000001}},{"type":"Feature","id":224,"geometry":{"type":"Point","coordinates":[58.209197200243608,23.628831899878705]},"properties":{"FID":224,"NAMEEN":"Crown Pharmacy - As Seeb","WILLAYAT":" Wilayat As Seeb","GOV":" Muscat Governorate","LATITUDE":23.628831900000002,"LONGITUDE":58.209197199999998}},{"type":"Feature","id":225,"geometry":{"type":"Point","coordinates":[58.200697599688255,23.635897900275825]},"properties":{"FID":225,"NAMEEN":"Belqees Pharmacy - As Seeb","WILLAYAT":" Wilayat As Seeb","GOV":" Muscat Governorate","LATITUDE":23.6358979,"LONGITUDE":58.200697599999998}},{"type":"Feature","id":226,"geometry":{"type":"Point","coordinates":[58.200467500486567,23.63438640017695]},"properties":{"FID":226,"NAMEEN":"Waleed Pharmacy - As Seeb","WILLAYAT":" Wilayat As Seeb","GOV":" Muscat Governorate","LATITUDE":23.6343864,"LONGITUDE":58.200467500000002}},{"type":"Feature","id":227,"geometry":{"type":"Point","coordinates":[58.197416500060704,23.63088939985505]},"properties":{"FID":227,"NAMEEN":"Scientific Pharmacy - As Seeb","WILLAYAT":" Wilayat As Seeb","GOV":" Muscat Governorate","LATITUDE":23.630889400000001,"LONGITUDE":58.197416500000003}},{"type":"Feature","id":228,"geometry":{"type":"Point","coordinates":[58.198716410785956,23.63285042822594]},"properties":{"FID":228,"NAMEEN":"Muscat Pharmacy - As Seeb","WILLAYAT":" Wilayat As Seeb","GOV":" Muscat Governorate","LATITUDE":23.632850430000001,"LONGITUDE":58.198716410000003}},{"type":"Feature","id":229,"geometry":{"type":"Point","coordinates":[58.562451822700844,23.61729770037341]},"properties":{"FID":229,"NAMEEN":"Natioanl Pharmacy - Mutrah","WILLAYAT":" Wilayat Mutrah","GOV":" Muscat Governorate","LATITUDE":23.617297700000002,"LONGITUDE":58.56245182}},{"type":"Feature","id":230,"geometry":{"type":"Point","coordinates":[57.439335746051675,23.849371317791139]},"properties":{"FID":230,"NAMEEN":"Al Salhi Pharmacy - As Suwayq","WILLAYAT":" Wilayat As Suwayq","GOV":" Al Batinah North Governorate","LATITUDE":23.849371319999999,"LONGITUDE":57.439335749999998}},{"type":"Feature","id":231,"geometry":{"type":"Point","coordinates":[55.781602325875284,24.247580763829184]},"properties":{"FID":231,"NAMEEN":"Al Yamama Pharmacy - Al Buraymi","WILLAYAT":" Wilayat Al Buraymi","GOV":" Al Buraymi Governorate","LATITUDE":24.247580760000002,"LONGITUDE":55.781602329999998}},{"type":"Feature","id":232,"geometry":{"type":"Point","coordinates":[57.091437787416872,23.971592730072285]},"properties":{"FID":232,"NAMEEN":"Muscat Pharmacy - Al Khaburah","WILLAYAT":" Wilayat Al Khaburah","GOV":" Al Batinah North Governorate","LATITUDE":23.971592730000001,"LONGITUDE":57.091437790000001}},{"type":"Feature","id":233,"geometry":{"type":"Point","coordinates":[57.171442469935087,23.919471320569439]},"properties":{"FID":233,"NAMEEN":"Al Kayoomi Pharmacy - Al Bidayah","WILLAYAT":" Wilayat As Suwayq","GOV":" Al Batinah North Governorate","LATITUDE":23.91947132,"LONGITUDE":57.171442470000002}},{"type":"Feature","id":234,"geometry":{"type":"Point","coordinates":[54.100860948889192,17.014038350967464]},"properties":{"FID":234,"NAMEEN":"Scientific Pharmacy - Salalah","WILLAYAT":" Wilayat Salalah","GOV":" Dhofar Governorate","LATITUDE":17.01403835,"LONGITUDE":54.100860949999998}},{"type":"Feature","id":235,"geometry":{"type":"Point","coordinates":[56.549129436048176,23.280670652938468]},"properties":{"FID":235,"NAMEEN":"Al Iraqi Pharmacy - Al Araqi","WILLAYAT":" Wilayat Ibri","GOV":" Adh Dhahirah Governorate","LATITUDE":23.280670650000001,"LONGITUDE":56.549129440000002}},{"type":"Feature","id":236,"geometry":{"type":"Point","coordinates":[58.427724248922459,23.588441476048459]},"properties":{"FID":236,"NAMEEN":"Ibn Sina Pharmacy - Bawshar","WILLAYAT":" Wilayat Bawshar","GOV":" Muscat Governorate","LATITUDE":23.58844148,"LONGITUDE":58.427724249999997}},{"type":"Feature","id":237,"geometry":{"type":"Point","coordinates":[58.53232716896666,23.590267203759165]},"properties":{"FID":237,"NAMEEN":"Muscat Pharmacy - Mutrah","WILLAYAT":" Wilayat Mutrah","GOV":" Muscat Governorate","LATITUDE":23.5902672,"LONGITUDE":58.532327170000002}},{"type":"Feature","id":238,"geometry":{"type":"Point","coordinates":[58.224327579834252,23.604110740707664]},"properties":{"FID":238,"NAMEEN":"Al Masaa Pharmacy - As Seeb","WILLAYAT":" Wilayat As Seeb","GOV":" Muscat Governorate","LATITUDE":23.604110739999999,"LONGITUDE":58.224327580000001}},{"type":"Feature","id":239,"geometry":{"type":"Point","coordinates":[54.087807578385693,17.013936697704949]},"properties":{"FID":239,"NAMEEN":"Abu Alzahab Pharmacy - Salalah","WILLAYAT":" Wilayat Salalah","GOV":" Dhofar Governorate","LATITUDE":17.013936699999999,"LONGITUDE":54.087807580000003}},{"type":"Feature","id":240,"geometry":{"type":"Point","coordinates":[55.770334884043727,24.234973697849107]},"properties":{"FID":240,"NAMEEN":"City Pharmacy - Al Buraymi","WILLAYAT":" Wilayat Al Buraymi","GOV":" Al Buraymi Governorate","LATITUDE":24.234973700000001,"LONGITUDE":55.77033488}},{"type":"Feature","id":241,"geometry":{"type":"Point","coordinates":[58.49456106960627,23.61153830555957]},"properties":{"FID":241,"NAMEEN":"Scientific Pharmacy - Mutrah","WILLAYAT":" Wilayat Mutrah","GOV":" Muscat Governorate","LATITUDE":23.61153831,"LONGITUDE":58.494561070000003}},{"type":"Feature","id":242,"geometry":{"type":"Point","coordinates":[57.823808825944106,23.412444337567017]},"properties":{"FID":242,"NAMEEN":"Abu Obaidah Pharmacy - Nakhal","WILLAYAT":" Wilayat Nakhal","GOV":" Al Batinah South Governorate","LATITUDE":23.41244434,"LONGITUDE":57.823808829999997}},{"type":"Feature","id":243,"geometry":{"type":"Point","coordinates":[54.061448240579807,17.019642171300688]},"properties":{"FID":243,"NAMEEN":"Hamdan Pharmacy - Salalah","WILLAYAT":" Wilayat Salalah","GOV":" Dhofar Governorate","LATITUDE":17.019642170000001,"LONGITUDE":54.061448239999997}},{"type":"Feature","id":244,"geometry":{"type":"Point","coordinates":[58.54594865723606,23.586009018115963]},"properties":{"FID":244,"NAMEEN":"Muscat Pharmacy - Mutrah","WILLAYAT":" Wilayat Mutrah","GOV":" Muscat Governorate","LATITUDE":23.586009019999999,"LONGITUDE":58.545948660000001}},{"type":"Feature","id":245,"geometry":{"type":"Point","coordinates":[57.777182000185164,22.930774200394328]},"properties":{"FID":245,"NAMEEN":"Al Muna Pharmacy - Izki","WILLAYAT":" Wilayat Izki","GOV":" Ad Dakhliyah Governorate","LATITUDE":22.930774199999998,"LONGITUDE":57.777182000000003}},{"type":"Feature","id":246,"geometry":{"type":"Point","coordinates":[58.181128600223545,23.683923000414904]},"properties":{"FID":246,"NAMEEN":"Seeb Pharmacy - As Seeb","WILLAYAT":" Wilayat As Seeb","GOV":" Muscat Governorate","LATITUDE":23.683923,"LONGITUDE":58.181128600000001}},{"type":"Feature","id":247,"geometry":{"type":"Point","coordinates":[58.205519400006921,23.638938300104908]},"properties":{"FID":247,"NAMEEN":"Al Raffah Pharmacy - As Seeb","WILLAYAT":" Wilayat As Seeb","GOV":" Muscat Governorate","LATITUDE":23.6389383,"LONGITUDE":58.2055194}},{"type":"Feature","id":248,"geometry":{"type":"Point","coordinates":[58.185303200080099,23.684247299669142]},"properties":{"FID":248,"NAMEEN":"Abna Frish Pharmacy - As Seeb","WILLAYAT":" Wilayat As Seeb","GOV":" Muscat Governorate","LATITUDE":23.684247299999999,"LONGITUDE":58.1853032}},{"type":"Feature","id":249,"geometry":{"type":"Point","coordinates":[57.607061600028686,22.783629400203807]},"properties":{"FID":249,"NAMEEN":"Ajwa Um Al Qura Pharmacy - Manah","WILLAYAT":" Wilayat Manah","GOV":" Ad Dakhliyah Governorate","LATITUDE":22.783629399999999,"LONGITUDE":57.607061600000002}},{"type":"Feature","id":250,"geometry":{"type":"Point","coordinates":[57.607122699695275,22.784635100028442]},"properties":{"FID":250,"NAMEEN":"New Bahla Pharmacy - Manah","WILLAYAT":" Wilayat Manah","GOV":" Ad Dakhliyah Governorate","LATITUDE":22.784635099999999,"LONGITUDE":57.607122699999998}},{"type":"Feature","id":251,"geometry":{"type":"Point","coordinates":[57.532167599920541,22.874454499761185]},"properties":{"FID":251,"NAMEEN":"Badr Al Samaa Pharmacy - Farq","WILLAYAT":" Wilayat Nizwa","GOV":" Ad Dakhliyah Governorate","LATITUDE":22.874454499999999,"LONGITUDE":57.532167600000001}},{"type":"Feature","id":252,"geometry":{"type":"Point","coordinates":[57.536361900462126,22.867240000104896]},"properties":{"FID":252,"NAMEEN":"Basmat Nizwa Pharmacy - Farq","WILLAYAT":" Wilayat Nizwa","GOV":" Ad Dakhliyah Governorate","LATITUDE":22.867239999999999,"LONGITUDE":57.536361900000003}},{"type":"Feature","id":253,"geometry":{"type":"Point","coordinates":[57.531574899827213,22.935785100082217]},"properties":{"FID":253,"NAMEEN":"Basmat Nizwa Pharmacy - Nizwa","WILLAYAT":" Wilayat Nizwa","GOV":" Ad Dakhliyah Governorate","LATITUDE":22.9357851,"LONGITUDE":57.531574900000003}},{"type":"Feature","id":254,"geometry":{"type":"Point","coordinates":[57.543793500486757,22.970316900378791]},"properties":{"FID":254,"NAMEEN":"Qarn Al Rawdah Pharmacy - Nizwa","WILLAYAT":" Wilayat Nizwa","GOV":" Ad Dakhliyah Governorate","LATITUDE":22.9703169,"LONGITUDE":57.5437935}},{"type":"Feature","id":255,"geometry":{"type":"Point","coordinates":[57.53163039969516,22.933772199779821]},"properties":{"FID":255,"NAMEEN":"Qalaa Pharmacy - Nizwa","WILLAYAT":" Wilayat Nizwa","GOV":" Ad Dakhliyah Governorate","LATITUDE":22.9337722,"LONGITUDE":57.531630399999997}},{"type":"Feature","id":256,"geometry":{"type":"Point","coordinates":[57.886850334209633,23.667207824852536]},"properties":{"FID":256,"NAMEEN":"Capital Pharmacy - As Sawmhan","WILLAYAT":" Wilayat Barka","GOV":" Al Batinah South Governorate","LATITUDE":23.667207820000002,"LONGITUDE":57.886850330000001}},{"type":"Feature","id":257,"geometry":{"type":"Point","coordinates":[57.887602775575367,23.674875953893178]},"properties":{"FID":257,"NAMEEN":"Haya Pharmacy - Al Jihaylah","WILLAYAT":" Wilayat Barka","GOV":" Al Batinah South Governorate","LATITUDE":23.674875950000001,"LONGITUDE":57.887602780000002}},{"type":"Feature","id":258,"geometry":{"type":"Point","coordinates":[57.886702465313725,23.678851982925629]},"properties":{"FID":258,"NAMEEN":"Al Razi Pharmacy - Al Jihaylah","WILLAYAT":" Wilayat Barka","GOV":" Al Batinah South Governorate","LATITUDE":23.678851980000001,"LONGITUDE":57.886702470000003}},{"type":"Feature","id":259,"geometry":{"type":"Point","coordinates":[57.882681233689148,23.666312895367504]},"properties":{"FID":259,"NAMEEN":"Sigma Pharmacy - As Saqsuq","WILLAYAT":" Wilayat Barka","GOV":" Al Batinah South Governorate","LATITUDE":23.666312900000001,"LONGITUDE":57.882681230000003}},{"type":"Feature","id":260,"geometry":{"type":"Point","coordinates":[57.882412099481755,23.668626696016982]},"properties":{"FID":260,"NAMEEN":"Lulu Pharmacy - Al Jinaynah","WILLAYAT":" Wilayat Barka","GOV":" Al Batinah South Governorate","LATITUDE":23.668626700000001,"LONGITUDE":57.882412100000003}},{"type":"Feature","id":261,"geometry":{"type":"Point","coordinates":[57.887469668754207,23.665940032258145]},"properties":{"FID":261,"NAMEEN":"Sohar Pharmacy - As Sawmhan","WILLAYAT":" Wilayat Barka","GOV":" Al Batinah South Governorate","LATITUDE":23.665940030000002,"LONGITUDE":57.887469670000002}},{"type":"Feature","id":262,"geometry":{"type":"Point","coordinates":[54.091451695528768,17.013555338253767]},"properties":{"FID":262,"NAMEEN":"Al Razi Pharmacy - Salalah","WILLAYAT":" Wilayat Salalah","GOV":" Dhofar Governorate","LATITUDE":17.01355534,"LONGITUDE":54.0914517}},{"type":"Feature","id":263,"geometry":{"type":"Point","coordinates":[54.084887364857067,17.010918837413072]},"properties":{"FID":263,"NAMEEN":"Badr Al Samaa Pharmacy - Salalah","WILLAYAT":" Wilayat Salalah","GOV":" Dhofar Governorate","LATITUDE":17.010918839999999,"LONGITUDE":54.084887360000003}},{"type":"Feature","id":264,"geometry":{"type":"Point","coordinates":[54.097751208099048,17.019558937142524]},"properties":{"FID":264,"NAMEEN":"Dhofar Pharmacy - Salalah","WILLAYAT":" Wilayat Salalah","GOV":" Dhofar Governorate","LATITUDE":17.01955894,"LONGITUDE":54.097751209999998}},{"type":"Feature","id":265,"geometry":{"type":"Point","coordinates":[54.099278125232175,17.017513123397642]},"properties":{"FID":265,"NAMEEN":"Al Mowasah Pharmacy - Salalah","WILLAYAT":" Wilayat Salalah","GOV":" Dhofar Governorate","LATITUDE":17.01751312,"LONGITUDE":54.099278130000002}},{"type":"Feature","id":266,"geometry":{"type":"Point","coordinates":[54.080618528085083,17.011745069849201]},"properties":{"FID":266,"NAMEEN":"Nahawind Pharmacy - Salalah","WILLAYAT":" Wilayat Salalah","GOV":" Dhofar Governorate","LATITUDE":17.01174507,"LONGITUDE":54.080618530000002}},{"type":"Feature","id":267,"geometry":{"type":"Point","coordinates":[56.881200527523312,24.152037344618826]},"properties":{"FID":267,"NAMEEN":"Hisn Saham Pharmacy - Al Huwayl","WILLAYAT":" Wilayat Saham","GOV":" Al Batinah North Governorate","LATITUDE":24.15203734,"LONGITUDE":56.881200530000001}},{"type":"Feature","id":268,"geometry":{"type":"Point","coordinates":[56.888694119453525,24.157880718103044]},"properties":{"FID":268,"NAMEEN":"Al Naimi Pharmacy - Al Huwayl","WILLAYAT":" Wilayat Saham","GOV":" Al Batinah North Governorate","LATITUDE":24.157880720000001,"LONGITUDE":56.888694119999997}},{"type":"Feature","id":269,"geometry":{"type":"Point","coordinates":[56.890171909110641,24.172241813418335]},"properties":{"FID":269,"NAMEEN":"Al Shifa Pharmacy - Saham","WILLAYAT":" Wilayat Saham","GOV":" Al Batinah North Governorate","LATITUDE":24.172241809999999,"LONGITUDE":56.890171909999999}},{"type":"Feature","id":270,"geometry":{"type":"Point","coordinates":[57.09487861174086,23.96384555173244]},"properties":{"FID":270,"NAMEEN":"Lulu Pharmacy - Al Khaburah","WILLAYAT":" Wilayat Al Khaburah","GOV":" Al Batinah North Governorate","LATITUDE":23.963845549999998,"LONGITUDE":57.094878610000002}},{"type":"Feature","id":271,"geometry":{"type":"Point","coordinates":[58.111625000421959,23.450899000000405]},"properties":{"FID":271,"NAMEEN":"Bidbid Pharmacy - Fanja","WILLAYAT":" Wilayat Bidbid","GOV":" Ad Dakhliyah Governorate","LATITUDE":23.450899,"LONGITUDE":58.111624999999997}},{"type":"Feature","id":272,"geometry":{"type":"Point","coordinates":[58.12315189988454,23.413893399749512]},"properties":{"FID":272,"NAMEEN":"Al Jabri Pharmacy - Bidbid","WILLAYAT":" Wilayat Bidbid","GOV":" Ad Dakhliyah Governorate","LATITUDE":23.413893399999999,"LONGITUDE":58.123151900000003}},{"type":"Feature","id":273,"geometry":{"type":"Point","coordinates":[58.116373800006073,23.466367900039423]},"properties":{"FID":273,"NAMEEN":"Abu Mustafa Pharmacy - Fanja","WILLAYAT":" Wilayat Bidbid","GOV":" Ad Dakhliyah Governorate","LATITUDE":23.466367900000002,"LONGITUDE":58.116373799999998}},{"type":"Feature","id":274,"geometry":{"type":"Point","coordinates":[57.423580352254689,23.431039189659451]},"properties":{"FID":274,"NAMEEN":"Badar Al Jashmi Pharmacy - Ar Rustaq","WILLAYAT":" Wilayat Ar Rustaq","GOV":" Al Batinah South Governorate","LATITUDE":23.43103919,"LONGITUDE":57.423580350000002}},{"type":"Feature","id":275,"geometry":{"type":"Point","coordinates":[57.421196719919429,23.43342758775448]},"properties":{"FID":275,"NAMEEN":"Bahwan Pharmacy - Ar Rustaq","WILLAYAT":" Wilayat Ar Rustaq","GOV":" Al Batinah South Governorate","LATITUDE":23.433427590000001,"LONGITUDE":57.421196719999998}},{"type":"Feature","id":276,"geometry":{"type":"Point","coordinates":[57.432448414406998,23.446810239379566]},"properties":{"FID":276,"NAMEEN":"Awafi Pharmacy - Ar Rustaq","WILLAYAT":" Wilayat Ar Rustaq","GOV":" Al Batinah South Governorate","LATITUDE":23.446810240000001,"LONGITUDE":57.432448409999999}},{"type":"Feature","id":277,"geometry":{"type":"Point","coordinates":[54.068287265913931,17.009003857249098]},"properties":{"FID":277,"NAMEEN":"Internatioanl Pharmacy - Salalah","WILLAYAT":" Wilayat Salalah","GOV":" Dhofar Governorate","LATITUDE":17.00900386,"LONGITUDE":54.068287269999999}},{"type":"Feature","id":278,"geometry":{"type":"Point","coordinates":[54.021640963297926,17.008707759394976]},"properties":{"FID":278,"NAMEEN":"Naif Pharmacy - Salalah","WILLAYAT":" Wilayat Salalah","GOV":" Dhofar Governorate","LATITUDE":17.00870776,"LONGITUDE":54.021640959999999}},{"type":"Feature","id":279,"geometry":{"type":"Point","coordinates":[54.152558295737656,17.051249755200814]},"properties":{"FID":279,"NAMEEN":"Laya Pharmacy - Salalah","WILLAYAT":" Wilayat Salalah","GOV":" Dhofar Governorate","LATITUDE":17.051249760000001,"LONGITUDE":54.152558300000003}},{"type":"Feature","id":280,"geometry":{"type":"Point","coordinates":[56.260954000486244,25.609398799882399]},"properties":{"FID":280,"NAMEEN":"Centuries Pharmacy - Daba","WILLAYAT":" Wilayat Daba","GOV":" Musandam Governorate","LATITUDE":25.609398800000001,"LONGITUDE":56.260953999999998}},{"type":"Feature","id":281,"geometry":{"type":"Point","coordinates":[56.548423446264827,23.278724602079016]},"properties":{"FID":281,"NAMEEN":"Al Zayana Pharmacy - Al Araqi","WILLAYAT":" Wilayat Ibri","GOV":" Adh Dhahirah Governorate","LATITUDE":23.2787246,"LONGITUDE":56.548423450000001}},{"type":"Feature","id":282,"geometry":{"type":"Point","coordinates":[56.492225782090429,23.217375438944536]},"properties":{"FID":282,"NAMEEN":"Muscat Pharmacy - Ibri","WILLAYAT":" Wilayat Ibri","GOV":" Adh Dhahirah Governorate","LATITUDE":23.217375440000001,"LONGITUDE":56.492225779999998}},{"type":"Feature","id":283,"geometry":{"type":"Point","coordinates":[56.513435980807756,23.229347534135599]},"properties":{"FID":283,"NAMEEN":"Sarah Pharmacy - Ibri","WILLAYAT":" Wilayat Ibri","GOV":" Adh Dhahirah Governorate","LATITUDE":23.229347529999998,"LONGITUDE":56.513435979999997}},{"type":"Feature","id":284,"geometry":{"type":"Point","coordinates":[56.617856897018193,23.321641413963388]},"properties":{"FID":284,"NAMEEN":"Wahat Al Shifaa Pharmacy - Ad Dariz","WILLAYAT":" Wilayat Ibri","GOV":" Adh Dhahirah Governorate","LATITUDE":23.321641410000002,"LONGITUDE":56.6178569}},{"type":"Feature","id":285,"geometry":{"type":"Point","coordinates":[56.548946184940974,23.591226503328592]},"properties":{"FID":285,"NAMEEN":"Abu Bader Alhosni Pharmacy - Yanqul","WILLAYAT":" Wilayat Yanqul","GOV":" Adh Dhahirah Governorate","LATITUDE":23.591226500000001,"LONGITUDE":56.548946180000002}},{"type":"Feature","id":286,"geometry":{"type":"Point","coordinates":[56.264943070995344,23.566953245144052]},"properties":{"FID":286,"NAMEEN":"Al Mandhari Pharmacy - Dank","WILLAYAT":" Wilayat Dank","GOV":" Adh Dhahirah Governorate","LATITUDE":23.566953250000001,"LONGITUDE":56.264943070000001}},{"type":"Feature","id":287,"geometry":{"type":"Point","coordinates":[56.249133687133856,23.557661210435306]},"properties":{"FID":287,"NAMEEN":"Dhank Pharmacy - Dank","WILLAYAT":" Wilayat Dank","GOV":" Adh Dhahirah Governorate","LATITUDE":23.557661209999999,"LONGITUDE":56.249133690000001}},{"type":"Feature","id":288,"geometry":{"type":"Point","coordinates":[56.725744783607269,24.331857269360636]},"properties":{"FID":288,"NAMEEN":"Ali Al Fazari Pharmacy - Sohar","WILLAYAT":" Wilayat Sohar","GOV":" Al Batinah North Governorate","LATITUDE":24.33185727,"LONGITUDE":56.725744779999999}},{"type":"Feature","id":289,"geometry":{"type":"Point","coordinates":[56.729821987396861,24.339426356172297]},"properties":{"FID":289,"NAMEEN":"Al Bayan Pharmacy - Sohar","WILLAYAT":" Wilayat Sohar","GOV":" Al Batinah North Governorate","LATITUDE":24.339426360000001,"LONGITUDE":56.729821989999998}},{"type":"Feature","id":290,"geometry":{"type":"Point","coordinates":[56.739326999935656,24.344136000035622]},"properties":{"FID":290,"NAMEEN":"Dunya Pharmacy - Sohar","WILLAYAT":" Wilayat Sohar","GOV":" Al Batinah North Governorate","LATITUDE":24.344135999999999,"LONGITUDE":56.739327000000003}},{"type":"Feature","id":291,"geometry":{"type":"Point","coordinates":[56.734939000131966,24.350040000357325]},"properties":{"FID":291,"NAMEEN":"Al Naimi Pharmacy - Sohar","WILLAYAT":" Wilayat Sohar","GOV":" Al Batinah North Governorate","LATITUDE":24.35004,"LONGITUDE":56.734938999999997}},{"type":"Feature","id":292,"geometry":{"type":"Point","coordinates":[56.700054628750216,24.384223365725916]},"properties":{"FID":292,"NAMEEN":"Scientific Pharmacy - Sohar","WILLAYAT":" Wilayat Sohar","GOV":" Al Batinah North Governorate","LATITUDE":24.384223370000001,"LONGITUDE":56.700054629999997}},{"type":"Feature","id":293,"geometry":{"type":"Point","coordinates":[56.736586000050288,24.34858300007091]},"properties":{"FID":293,"NAMEEN":"Waleed Pharmacy - Sohar","WILLAYAT":" Wilayat Sohar","GOV":" Al Batinah North Governorate","LATITUDE":24.348583000000001,"LONGITUDE":56.736586000000003}},{"type":"Feature","id":294,"geometry":{"type":"Point","coordinates":[56.735904999664825,24.348795999947896]},"properties":{"FID":294,"NAMEEN":"Ibn Sina Pharmacy - Sohar","WILLAYAT":" Wilayat Sohar","GOV":" Al Batinah North Governorate","LATITUDE":24.348796,"LONGITUDE":56.735905000000002}},{"type":"Feature","id":295,"geometry":{"type":"Point","coordinates":[56.827981582407631,24.231924345557776]},"properties":{"FID":295,"NAMEEN":"A'Sondos Pharmacy - Sohar","WILLAYAT":" Wilayat Sohar","GOV":" Al Batinah North Governorate","LATITUDE":24.23192435,"LONGITUDE":56.827981579999999}},{"type":"Feature","id":296,"geometry":{"type":"Point","coordinates":[56.73118593016568,24.349523636657182]},"properties":{"FID":296,"NAMEEN":"Sama Pharmacy - Sohar","WILLAYAT":" Wilayat Sohar","GOV":" Al Batinah North Governorate","LATITUDE":24.349523640000001,"LONGITUDE":56.731185930000002}},{"type":"Feature","id":297,"geometry":{"type":"Point","coordinates":[56.73523200032885,24.348861000103362]},"properties":{"FID":297,"NAMEEN":"Capital Pharmacy - Sohar","WILLAYAT":" Wilayat Sohar","GOV":" Al Batinah North Governorate","LATITUDE":24.348860999999999,"LONGITUDE":56.735232000000003}},{"type":"Feature","id":298,"geometry":{"type":"Point","coordinates":[56.7326533834541,24.351688040316976]},"properties":{"FID":298,"NAMEEN":"Sharifa Al Zadjali Pharmacy - Sohar","WILLAYAT":" Wilayat Sohar","GOV":" Al Batinah North Governorate","LATITUDE":24.351688039999999,"LONGITUDE":56.732653380000002}},{"type":"Feature","id":299,"geometry":{"type":"Point","coordinates":[56.729249000039395,24.343730999661648]},"properties":{"FID":299,"NAMEEN":"Badr Al Samaa Pharmacy - Sohar","WILLAYAT":" Wilayat Sohar","GOV":" Al Batinah North Governorate","LATITUDE":24.343730999999998,"LONGITUDE":56.729249000000003}},{"type":"Feature","id":300,"geometry":{"type":"Point","coordinates":[56.608384204906905,24.43770292924367]},"properties":{"FID":300,"NAMEEN":"Al Pha Pharmacy - Sohar","WILLAYAT":" Wilayat Sohar","GOV":" Al Batinah North Governorate","LATITUDE":24.43770293,"LONGITUDE":56.608384200000003}},{"type":"Feature","id":301,"geometry":{"type":"Point","coordinates":[56.610667823821117,24.425847389070277]},"properties":{"FID":301,"NAMEEN":"Sun Pharmacy - Sohar","WILLAYAT":" Wilayat Sohar","GOV":" Al Batinah North Governorate","LATITUDE":24.425847390000001,"LONGITUDE":56.610667820000003}},{"type":"Feature","id":302,"geometry":{"type":"Point","coordinates":[56.435441488834549,24.803951284303633]},"properties":{"FID":302,"NAMEEN":"Al Aqar Pharmacy - Al Aqur","WILLAYAT":" Wilayat Shinas","GOV":" Al Batinah North Governorate","LATITUDE":24.80395128,"LONGITUDE":56.435441490000002}},{"type":"Feature","id":303,"geometry":{"type":"Point","coordinates":[56.871295312072348,24.140498111262623]},"properties":{"FID":303,"NAMEEN":"Saham Pharmacy - Murtafaat Saham","WILLAYAT":" Wilayat Saham","GOV":" Al Batinah North Governorate","LATITUDE":24.140498109999999,"LONGITUDE":56.871295310000001}},{"type":"Feature","id":304,"geometry":{"type":"Point","coordinates":[56.892629566710859,24.160292449814229]},"properties":{"FID":304,"NAMEEN":"Three Sails Pharmacy - Saham","WILLAYAT":" Wilayat Saham","GOV":" Al Batinah North Governorate","LATITUDE":24.16029245,"LONGITUDE":56.892629569999997}},{"type":"Feature","id":305,"geometry":{"type":"Point","coordinates":[56.87739799964006,24.144286999634662]},"properties":{"FID":305,"NAMEEN":"Muscat Pharmacy - Saham","WILLAYAT":" Wilayat Saham","GOV":" Al Batinah North Governorate","LATITUDE":24.144286999999998,"LONGITUDE":56.877397999999999}},{"type":"Feature","id":306,"geometry":{"type":"Point","coordinates":[58.802741989614937,22.451280801183181]},"properties":{"FID":306,"NAMEEN":"Al Haramain Modern Pharmacy - Al Mintarib","WILLAYAT":" Wilayat Bidiyah","GOV":" Ash Sharqiyah North Governorate","LATITUDE":22.451280799999999,"LONGITUDE":58.802741990000001}},{"type":"Feature","id":307,"geometry":{"type":"Point","coordinates":[59.097644260438187,22.57713119095348]},"properties":{"FID":307,"NAMEEN":"Al Saedi Pharmacy - Mizayra","WILLAYAT":" Wilayat Wadi Bani Khalid","GOV":" Ash Sharqiyah North Governorate","LATITUDE":22.577131189999999,"LONGITUDE":59.097644260000003}},{"type":"Feature","id":308,"geometry":{"type":"Point","coordinates":[58.540505057782561,22.71003574562312]},"properties":{"FID":308,"NAMEEN":"Um  Balqis Pharmacy - Ibra","WILLAYAT":" Wilayat Ibra","GOV":" Ash Sharqiyah North Governorate","LATITUDE":22.710035749999999,"LONGITUDE":58.540505060000001}},{"type":"Feature","id":309,"geometry":{"type":"Point","coordinates":[58.546196994567751,22.697296885075012]},"properties":{"FID":309,"NAMEEN":"Al Jabri Pharmacy - Ibra","WILLAYAT":" Wilayat Ibra","GOV":" Ash Sharqiyah North Governorate","LATITUDE":22.697296890000001,"LONGITUDE":58.546196989999999}},{"type":"Feature","id":310,"geometry":{"type":"Point","coordinates":[58.545987231375115,22.695424601019941]},"properties":{"FID":310,"NAMEEN":"Muscat Pharmacy - Ibra","WILLAYAT":" Wilayat Ibra","GOV":" Ash Sharqiyah North Governorate","LATITUDE":22.695424599999999,"LONGITUDE":58.545987230000001}},{"type":"Feature","id":311,"geometry":{"type":"Point","coordinates":[58.545724090472454,22.694770829185408]},"properties":{"FID":311,"NAMEEN":"Ibn Saleem Pharmacy - Ibra","WILLAYAT":" Wilayat Ibra","GOV":" Ash Sharqiyah North Governorate","LATITUDE":22.69477083,"LONGITUDE":58.54572409}},{"type":"Feature","id":312,"geometry":{"type":"Point","coordinates":[58.545370650008223,22.693332980241024]},"properties":{"FID":312,"NAMEEN":"Shams Ibra Pharmacy - Ibra","WILLAYAT":" Wilayat Ibra","GOV":" Ash Sharqiyah North Governorate","LATITUDE":22.693332980000001,"LONGITUDE":58.545370650000002}},{"type":"Feature","id":313,"geometry":{"type":"Point","coordinates":[58.548551282293673,22.692820216937388]},"properties":{"FID":313,"NAMEEN":"Al Lama Pharmacy - Ibra","WILLAYAT":" Wilayat Ibra","GOV":" Ash Sharqiyah North Governorate","LATITUDE":22.692820220000002,"LONGITUDE":58.548551279999998}},{"type":"Feature","id":314,"geometry":{"type":"Point","coordinates":[55.789828632743642,24.250733195565619]},"properties":{"FID":314,"NAMEEN":"Al Jazeel Pharmacy - Al Buraymi","WILLAYAT":" Wilayat Al Buraymi","GOV":" Al Buraymi Governorate","LATITUDE":24.250733199999999,"LONGITUDE":55.789828630000002}},{"type":"Feature","id":315,"geometry":{"type":"Point","coordinates":[55.768965824057318,24.2579628020186]},"properties":{"FID":315,"NAMEEN":"Dar Al Amana Pharmacy - Al Buraymi","WILLAYAT":" Wilayat Al Buraymi","GOV":" Al Buraymi Governorate","LATITUDE":24.257962800000001,"LONGITUDE":55.768965819999998}},{"type":"Feature","id":316,"geometry":{"type":"Point","coordinates":[55.799191019528081,24.25480207890946]},"properties":{"FID":316,"NAMEEN":"Zam Zam Pharmacy - Al Buraymi","WILLAYAT":" Wilayat Al Buraymi","GOV":" Al Buraymi Governorate","LATITUDE":24.254802080000001,"LONGITUDE":55.799191020000002}},{"type":"Feature","id":317,"geometry":{"type":"Point","coordinates":[55.799406287858922,24.248900671064273]},"properties":{"FID":317,"NAMEEN":"Dar Al Shomookh Pharmacy - Al Buraymi","WILLAYAT":" Wilayat Al Buraymi","GOV":" Al Buraymi Governorate","LATITUDE":24.248900670000001,"LONGITUDE":55.79940629}},{"type":"Feature","id":318,"geometry":{"type":"Point","coordinates":[55.829694491093662,24.246530355450542]},"properties":{"FID":318,"NAMEEN":"Lulu Pharmacy - Al Buraymi","WILLAYAT":" Wilayat Al Buraymi","GOV":" Al Buraymi Governorate","LATITUDE":24.246530360000001,"LONGITUDE":55.829694490000001}},{"type":"Feature","id":319,"geometry":{"type":"Point","coordinates":[57.646435680075669,23.741685388163511]},"properties":{"FID":319,"NAMEEN":"Awafi Pharmacy - Ash Shuaybah","WILLAYAT":" Wilayat Al Musanaah","GOV":" Al Batinah South Governorate","LATITUDE":23.741685390000001,"LONGITUDE":57.646435680000003}},{"type":"Feature","id":320,"geometry":{"type":"Point","coordinates":[57.676834259515537,23.736706804583356]},"properties":{"FID":320,"NAMEEN":"Al Qurum Pharmacy - Al Maghsar","WILLAYAT":" Wilayat Al Musanaah","GOV":" Al Batinah South Governorate","LATITUDE":23.7367068,"LONGITUDE":57.67683426}},{"type":"Feature","id":321,"geometry":{"type":"Point","coordinates":[57.646471121081099,23.74040029921462]},"properties":{"FID":321,"NAMEEN":"Al Thuraya Pharmacy - Ash Shuaybah","WILLAYAT":" Wilayat Al Musanaah","GOV":" Al Batinah South Governorate","LATITUDE":23.740400300000001,"LONGITUDE":57.646471120000001}},{"type":"Feature","id":322,"geometry":{"type":"Point","coordinates":[57.476832060784503,23.804539014257831]},"properties":{"FID":322,"NAMEEN":"Al Hashmi Pharmacy - Umm Sayh","WILLAYAT":" Wilayat As Suwayq","GOV":" Al Batinah North Governorate","LATITUDE":23.804539009999999,"LONGITUDE":57.47683206}},{"type":"Feature","id":323,"geometry":{"type":"Point","coordinates":[57.893817868818104,23.708609402114273]},"properties":{"FID":323,"NAMEEN":"Muscat Pharmacy - Barka","WILLAYAT":" Wilayat Barka","GOV":" Al Batinah South Governorate","LATITUDE":23.7086094,"LONGITUDE":57.893817869999999}},{"type":"Feature","id":324,"geometry":{"type":"Point","coordinates":[57.882766104995845,23.707535311784422]},"properties":{"FID":324,"NAMEEN":"Abu Bader Alhosni Pharmacy - Barka","WILLAYAT":" Wilayat Barka","GOV":" Al Batinah South Governorate","LATITUDE":23.707535310000001,"LONGITUDE":57.882766099999998}},{"type":"Feature","id":325,"geometry":{"type":"Point","coordinates":[57.899231881105322,23.706322143710199]},"properties":{"FID":325,"NAMEEN":"Al Shamar Pharmacy - Barka","WILLAYAT":" Wilayat Barka","GOV":" Al Batinah South Governorate","LATITUDE":23.706322140000001,"LONGITUDE":57.899231880000002}},{"type":"Feature","id":326,"geometry":{"type":"Point","coordinates":[58.598803127126267,23.038193414662747]},"properties":{"FID":326,"NAMEEN":"Al Bawareq Pharmacy - Mihlah","WILLAYAT":" Wilayat Dama Wa At Taiyin","GOV":" Ash Sharqiyah North Governorate","LATITUDE":23.038193410000002,"LONGITUDE":58.59880313}},{"type":"Feature","id":327,"geometry":{"type":"Point","coordinates":[58.122135999543175,23.65477100023983]},"properties":{"FID":327,"NAMEEN":"Mohammed Jameel Pharmacy - As Seeb","WILLAYAT":" Wilayat As Seeb","GOV":" Muscat Governorate","LATITUDE":23.654771,"LONGITUDE":58.122135999999998}},{"type":"Feature","id":328,"geometry":{"type":"Point","coordinates":[58.117339600393407,23.65667089970275]},"properties":{"FID":328,"NAMEEN":"Al Bawareq Pharmacy - As Seeb","WILLAYAT":" Wilayat As Seeb","GOV":" Muscat Governorate","LATITUDE":23.656670900000002,"LONGITUDE":58.117339600000001}},{"type":"Feature","id":329,"geometry":{"type":"Point","coordinates":[58.10804049955221,23.654340500398536]},"properties":{"FID":329,"NAMEEN":"Somar Pharmacy - As Seeb","WILLAYAT":" Wilayat As Seeb","GOV":" Muscat Governorate","LATITUDE":23.6543405,"LONGITUDE":58.108040500000001}},{"type":"Feature","id":330,"geometry":{"type":"Point","coordinates":[58.140644300363086,23.672418899743029]},"properties":{"FID":330,"NAMEEN":"Aflag Pharmacy - As Seeb","WILLAYAT":" Wilayat As Seeb","GOV":" Muscat Governorate","LATITUDE":23.6724189,"LONGITUDE":58.140644299999998}},{"type":"Feature","id":331,"geometry":{"type":"Point","coordinates":[58.233320309315992,23.628776249821254]},"properties":{"FID":331,"NAMEEN":"Aflag Pharmacy - As Seeb","WILLAYAT":" Wilayat As Seeb","GOV":" Muscat Governorate","LATITUDE":23.628776250000001,"LONGITUDE":58.233320310000003}},{"type":"Feature","id":332,"geometry":{"type":"Point","coordinates":[58.213245243669952,23.623312007707025]},"properties":{"FID":332,"NAMEEN":"Kinaan Pharmacy - As Seeb","WILLAYAT":" Wilayat As Seeb","GOV":" Muscat Governorate","LATITUDE":23.623312009999999,"LONGITUDE":58.213245239999999}},{"type":"Feature","id":333,"geometry":{"type":"Point","coordinates":[58.233193892791782,23.631184961065625]},"properties":{"FID":333,"NAMEEN":"Taiba Modern Pharmacy - As Seeb","WILLAYAT":" Wilayat As Seeb","GOV":" Muscat Governorate","LATITUDE":23.631184959999999,"LONGITUDE":58.233193890000003}},{"type":"Feature","id":334,"geometry":{"type":"Point","coordinates":[58.232049495651204,23.632551899722721]},"properties":{"FID":334,"NAMEEN":"Muscat Pharmacy - As Seeb","WILLAYAT":" Wilayat As Seeb","GOV":" Muscat Governorate","LATITUDE":23.632551899999999,"LONGITUDE":58.232049500000002}},{"type":"Feature","id":335,"geometry":{"type":"Point","coordinates":[58.203099599532187,23.621832100042322]},"properties":{"FID":335,"NAMEEN":"Al Montaser Pharmacy - As Seeb","WILLAYAT":" Wilayat As Seeb","GOV":" Muscat Governorate","LATITUDE":23.621832099999999,"LONGITUDE":58.203099600000002}},{"type":"Feature","id":336,"geometry":{"type":"Point","coordinates":[58.136602400235766,23.676487000069745]},"properties":{"FID":336,"NAMEEN":"Capital Pharmacy - As Seeb","WILLAYAT":" Wilayat As Seeb","GOV":" Muscat Governorate","LATITUDE":23.676487000000002,"LONGITUDE":58.136602400000001}},{"type":"Feature","id":337,"geometry":{"type":"Point","coordinates":[58.137837600205636,23.676283300021989]},"properties":{"FID":337,"NAMEEN":"Al Salam Pharmacy - As Seeb","WILLAYAT":" Wilayat As Seeb","GOV":" Muscat Governorate","LATITUDE":23.676283300000001,"LONGITUDE":58.137837599999997}},{"type":"Feature","id":338,"geometry":{"type":"Point","coordinates":[58.177106400031455,23.683337899890788]},"properties":{"FID":338,"NAMEEN":"Scientific Pharmacy - As Seeb","WILLAYAT":" Wilayat As Seeb","GOV":" Muscat Governorate","LATITUDE":23.683337900000001,"LONGITUDE":58.1771064}},{"type":"Feature","id":339,"geometry":{"type":"Point","coordinates":[58.184013099686673,23.681315400004618]},"properties":{"FID":339,"NAMEEN":"Al BadeyaPharmacy - As Seeb","WILLAYAT":" Wilayat As Seeb","GOV":" Muscat Governorate","LATITUDE":23.681315399999999,"LONGITUDE":58.184013100000001}},{"type":"Feature","id":340,"geometry":{"type":"Point","coordinates":[58.247719716465937,23.604340788101457]},"properties":{"FID":340,"NAMEEN":"Star Care Pharmacy - As Seeb","WILLAYAT":" Wilayat As Seeb","GOV":" Muscat Governorate","LATITUDE":23.604340789999998,"LONGITUDE":58.247719719999999}},{"type":"Feature","id":341,"geometry":{"type":"Point","coordinates":[58.24672499959344,23.614039000242361]},"properties":{"FID":341,"NAMEEN":"Mhadah Pharmacy - As Seeb","WILLAYAT":" Wilayat As Seeb","GOV":" Muscat Governorate","LATITUDE":23.614038999999998,"LONGITUDE":58.246724999999998}},{"type":"Feature","id":342,"geometry":{"type":"Point","coordinates":[58.235183753029936,23.611951339136894]},"properties":{"FID":342,"NAMEEN":"Al Bader Pharmacy - As Seeb","WILLAYAT":" Wilayat As Seeb","GOV":" Muscat Governorate","LATITUDE":23.611951340000001,"LONGITUDE":58.235183749999997}},{"type":"Feature","id":343,"geometry":{"type":"Point","coordinates":[58.570509297877912,23.571550870188279]},"properties":{"FID":343,"NAMEEN":"Balsam Pharmacy - Mutrah","WILLAYAT":" Wilayat Mutrah","GOV":" Muscat Governorate","LATITUDE":23.571550869999999,"LONGITUDE":58.570509299999998}},{"type":"Feature","id":344,"geometry":{"type":"Point","coordinates":[57.529070030663007,23.780830459686179]},"properties":{"FID":344,"NAMEEN":"Al Juman Pharmacy - Al Qarat","WILLAYAT":" Wilayat Al Musanaah","GOV":" Al Batinah South Governorate","LATITUDE":23.780830460000001,"LONGITUDE":57.52907003}},{"type":"Feature","id":345,"geometry":{"type":"Point","coordinates":[57.436774276209626,23.842464606850445]},"properties":{"FID":345,"NAMEEN":"Abu Bader Alhosni Pharmacy - As Suwayq","WILLAYAT":" Wilayat As Suwayq","GOV":" Al Batinah North Governorate","LATITUDE":23.84246461,"LONGITUDE":57.436774280000002}},{"type":"Feature","id":346,"geometry":{"type":"Point","coordinates":[57.330120808526857,23.858805263198807]},"properties":{"FID":346,"NAMEEN":"Um Alqura Pharmacy - Khadra Al Saad","WILLAYAT":" Wilayat As Suwayq","GOV":" Al Batinah North Governorate","LATITUDE":23.85880526,"LONGITUDE":57.330120809999997}},{"type":"Feature","id":347,"geometry":{"type":"Point","coordinates":[57.310495494564826,23.866707266390751]},"properties":{"FID":347,"NAMEEN":"Vision Pharmacy - Khadra Al Burishid","WILLAYAT":" Wilayat As Suwayq","GOV":" Al Batinah North Governorate","LATITUDE":23.866707269999999,"LONGITUDE":57.310495490000001}},{"type":"Feature","id":348,"geometry":{"type":"Point","coordinates":[57.219744999778413,23.902428999566684]},"properties":{"FID":348,"NAMEEN":"Al Wasan Pharmacy - Diyan Al Bu Said","WILLAYAT":" Wilayat As Suwayq","GOV":" Al Batinah North Governorate","LATITUDE":23.902429000000001,"LONGITUDE":57.219745000000003}},{"type":"Feature","id":349,"geometry":{"type":"Point","coordinates":[57.17421124212018,23.918445721617747]},"properties":{"FID":349,"NAMEEN":"Abu Bader Alhosni Pharmacy - Al Bidayah","WILLAYAT":" Wilayat As Suwayq","GOV":" Al Batinah North Governorate","LATITUDE":23.918445720000001,"LONGITUDE":57.174211239999998}},{"type":"Feature","id":350,"geometry":{"type":"Point","coordinates":[57.15911675602365,23.925641625384682]},"properties":{"FID":350,"NAMEEN":"Al Manal Pharmacy - Hijayrat As Sahil","WILLAYAT":" Wilayat As Suwayq","GOV":" Al Batinah North Governorate","LATITUDE":23.925641630000001,"LONGITUDE":57.159116760000003}},{"type":"Feature","id":351,"geometry":{"type":"Point","coordinates":[57.167089079580428,23.921321324153404]},"properties":{"FID":351,"NAMEEN":"Al Masaa Pharmacy - Al Bidayah","WILLAYAT":" Wilayat As Suwayq","GOV":" Al Batinah North Governorate","LATITUDE":23.921321320000001,"LONGITUDE":57.167089079999997}},{"type":"Feature","id":352,"geometry":{"type":"Point","coordinates":[57.093774999704983,23.972271000439338]},"properties":{"FID":352,"NAMEEN":"Al Naimi Pharmacy - Al Khaburah","WILLAYAT":" Wilayat Al Khaburah","GOV":" Al Batinah North Governorate","LATITUDE":23.972270999999999,"LONGITUDE":57.093775000000001}},{"type":"Feature","id":353,"geometry":{"type":"Point","coordinates":[56.870371422195333,24.139065977138547]},"properties":{"FID":353,"NAMEEN":"Al Muzaini Pharmacy - Murtafaat Saham","WILLAYAT":" Wilayat Saham","GOV":" Al Batinah North Governorate","LATITUDE":24.139065980000002,"LONGITUDE":56.870371419999998}},{"type":"Feature","id":354,"geometry":{"type":"Point","coordinates":[56.694128231273304,24.393081257415528]},"properties":{"FID":354,"NAMEEN":"Al Rawaea Pharmacy - Sohar","WILLAYAT":" Wilayat Sohar","GOV":" Al Batinah North Governorate","LATITUDE":24.393081259999999,"LONGITUDE":56.694128229999997}},{"type":"Feature","id":355,"geometry":{"type":"Point","coordinates":[56.612263219147081,24.424824274428143]},"properties":{"FID":355,"NAMEEN":"Ideal Pharmacy - Sohar","WILLAYAT":" Wilayat Sohar","GOV":" Al Batinah North Governorate","LATITUDE":24.424824269999998,"LONGITUDE":56.612263220000003}},{"type":"Feature","id":356,"geometry":{"type":"Point","coordinates":[57.519656500190422,23.312121878122245]},"properties":{"FID":356,"NAMEEN":"Abu Bader Alhosni Pharmacy - Al Awabi","WILLAYAT":" Wilayat Al Awabi","GOV":" Al Batinah South Governorate","LATITUDE":23.312121879999999,"LONGITUDE":57.519656500000004}},{"type":"Feature","id":357,"geometry":{"type":"Point","coordinates":[57.758140999772387,22.940275000008285]},"properties":{"FID":357,"NAMEEN":"Adam Pharmacy - Izki","WILLAYAT":" Wilayat Izki","GOV":" Ad Dakhliyah Governorate","LATITUDE":22.940275,"LONGITUDE":57.758141000000002}},{"type":"Feature","id":358,"geometry":{"type":"Point","coordinates":[58.448929994272042,23.601537118209464]},"properties":{"FID":358,"NAMEEN":"Balsam Pharmacy - Bawshar","WILLAYAT":" Wilayat Bawshar","GOV":" Muscat Governorate","LATITUDE":23.60153712,"LONGITUDE":58.448929990000003}},{"type":"Feature","id":359,"geometry":{"type":"Point","coordinates":[58.429525471838694,23.589603008756594]},"properties":{"FID":359,"NAMEEN":"Al Hashar Pharmacy - Bawshar","WILLAYAT":" Wilayat Bawshar","GOV":" Muscat Governorate","LATITUDE":23.589603010000001,"LONGITUDE":58.429525470000002}},{"type":"Feature","id":360,"geometry":{"type":"Point","coordinates":[58.386330558213793,23.59834944374672]},"properties":{"FID":360,"NAMEEN":"Haya Pharmacy - Bawshar","WILLAYAT":" Wilayat Bawshar","GOV":" Muscat Governorate","LATITUDE":23.59834944,"LONGITUDE":58.386330559999998}},{"type":"Feature","id":361,"geometry":{"type":"Point","coordinates":[58.40385019212885,23.597211249641262]},"properties":{"FID":361,"NAMEEN":"Al Rahma Pharmacy - Bawshar","WILLAYAT":" Wilayat Bawshar","GOV":" Muscat Governorate","LATITUDE":23.597211250000001,"LONGITUDE":58.40385019}},{"type":"Feature","id":362,"geometry":{"type":"Point","coordinates":[58.381066332078049,23.599000867365874]},"properties":{"FID":362,"NAMEEN":"Aflag Pharmacy - Bawshar","WILLAYAT":" Wilayat Bawshar","GOV":" Muscat Governorate","LATITUDE":23.599000870000001,"LONGITUDE":58.381066330000003}},{"type":"Feature","id":363,"geometry":{"type":"Point","coordinates":[58.362338215345396,23.588274501577953]},"properties":{"FID":363,"NAMEEN":"Al Hashar Pharmacy - Bawshar","WILLAYAT":" Wilayat Bawshar","GOV":" Muscat Governorate","LATITUDE":23.588274500000001,"LONGITUDE":58.362338219999998}},{"type":"Feature","id":364,"geometry":{"type":"Point","coordinates":[58.362441633773727,23.548058018825468]},"properties":{"FID":364,"NAMEEN":"Scientific Pharmacy - Bawshar","WILLAYAT":" Wilayat Bawshar","GOV":" Muscat Governorate","LATITUDE":23.548058019999999,"LONGITUDE":58.362441629999999}},{"type":"Feature","id":365,"geometry":{"type":"Point","coordinates":[58.39031222267004,23.593153450584062]},"properties":{"FID":365,"NAMEEN":"Al Khwair Pharmacy - Bawshar","WILLAYAT":" Wilayat Bawshar","GOV":" Muscat Governorate","LATITUDE":23.593153449999999,"LONGITUDE":58.390312219999998}},{"type":"Feature","id":366,"geometry":{"type":"Point","coordinates":[58.395709754601725,23.585012499390849]},"properties":{"FID":366,"NAMEEN":"Muscat Pharmacy - Bawshar","WILLAYAT":" Wilayat Bawshar","GOV":" Muscat Governorate","LATITUDE":23.585012500000001,"LONGITUDE":58.395709750000002}},{"type":"Feature","id":367,"geometry":{"type":"Point","coordinates":[58.396790896196393,23.586700909275915]},"properties":{"FID":367,"NAMEEN":"Ghala Pharmacy - Bawshar","WILLAYAT":" Wilayat Bawshar","GOV":" Muscat Governorate","LATITUDE":23.586700910000001,"LONGITUDE":58.396790899999999}},{"type":"Feature","id":368,"geometry":{"type":"Point","coordinates":[58.365853066339945,23.601856613660203]},"properties":{"FID":368,"NAMEEN":"Med Life Pharmacy - Bawshar","WILLAYAT":" Wilayat Bawshar","GOV":" Muscat Governorate","LATITUDE":23.601856609999999,"LONGITUDE":58.36585307}},{"type":"Feature","id":369,"geometry":{"type":"Point","coordinates":[58.401559080316979,23.585366343414275]},"properties":{"FID":369,"NAMEEN":"Capital Pharmacy - Bawshar","WILLAYAT":" Wilayat Bawshar","GOV":" Muscat Governorate","LATITUDE":23.58536634,"LONGITUDE":58.401559079999998}},{"type":"Feature","id":370,"geometry":{"type":"Point","coordinates":[58.398146236105987,23.575294932248912]},"properties":{"FID":370,"NAMEEN":"Al Pha Pharmacy - Bawshar","WILLAYAT":" Wilayat Bawshar","GOV":" Muscat Governorate","LATITUDE":23.575294929999998,"LONGITUDE":58.398146240000003}},{"type":"Feature","id":371,"geometry":{"type":"Point","coordinates":[58.395538949235075,23.576470705425386]},"properties":{"FID":371,"NAMEEN":"Healthy Community Pharmacy - Bawshar","WILLAYAT":" Wilayat Bawshar","GOV":" Muscat Governorate","LATITUDE":23.576470709999999,"LONGITUDE":58.395538950000002}},{"type":"Feature","id":372,"geometry":{"type":"Point","coordinates":[58.437780155185166,23.589881394852302]},"properties":{"FID":372,"NAMEEN":"Al Hakeem United Pharmacy - Bawshar","WILLAYAT":" Wilayat Bawshar","GOV":" Muscat Governorate","LATITUDE":23.589881389999999,"LONGITUDE":58.437780160000003}},{"type":"Feature","id":373,"geometry":{"type":"Point","coordinates":[58.422398651663272,23.586593538631867]},"properties":{"FID":373,"NAMEEN":"Lama Pharmacy - Bawshar","WILLAYAT":" Wilayat Bawshar","GOV":" Muscat Governorate","LATITUDE":23.586593539999999,"LONGITUDE":58.422398649999998}},{"type":"Feature","id":374,"geometry":{"type":"Point","coordinates":[58.406655217391751,23.588092386656221]},"properties":{"FID":374,"NAMEEN":"Al Raffah Pharmacy - Bawshar","WILLAYAT":" Wilayat Bawshar","GOV":" Muscat Governorate","LATITUDE":23.58809239,"LONGITUDE":58.406655219999998}},{"type":"Feature","id":375,"geometry":{"type":"Point","coordinates":[58.407125591688192,23.58978846583884]},"properties":{"FID":375,"NAMEEN":"Al Hayat International Hospital Pharmacy - Bawshar","WILLAYAT":" Wilayat Bawshar","GOV":" Muscat Governorate","LATITUDE":23.589788469999998,"LONGITUDE":58.40712559}},{"type":"Feature","id":376,"geometry":{"type":"Point","coordinates":[58.426914626797384,23.594005868637957]},"properties":{"FID":376,"NAMEEN":"Al Amal Medical Center Pharmacy - Bawshar","WILLAYAT":" Wilayat Bawshar","GOV":" Muscat Governorate","LATITUDE":23.59400587,"LONGITUDE":58.426914629999999}},{"type":"Feature","id":377,"geometry":{"type":"Point","coordinates":[58.422520533780883,23.595175936910064]},"properties":{"FID":377,"NAMEEN":"Nova Medical Centers Middle East Pharmacy - Bawshar","WILLAYAT":" Wilayat Bawshar","GOV":" Muscat Governorate","LATITUDE":23.595175940000001,"LONGITUDE":58.42252053}},{"type":"Feature","id":378,"geometry":{"type":"Point","coordinates":[58.412346227271463,23.589753028679294]},"properties":{"FID":378,"NAMEEN":"Bahwan Pharmacy - Bawshar","WILLAYAT":" Wilayat Bawshar","GOV":" Muscat Governorate","LATITUDE":23.589753030000001,"LONGITUDE":58.412346229999997}},{"type":"Feature","id":379,"geometry":{"type":"Point","coordinates":[58.376542108738342,23.591185574726403]},"properties":{"FID":379,"NAMEEN":"Muscat Pharmacy - Bawshar","WILLAYAT":" Wilayat Bawshar","GOV":" Muscat Governorate","LATITUDE":23.59118557,"LONGITUDE":58.376542110000003}},{"type":"Feature","id":380,"geometry":{"type":"Point","coordinates":[58.361266548632315,23.589806942454722]},"properties":{"FID":380,"NAMEEN":"Hatat  Pharmacy - Bawshar","WILLAYAT":" Wilayat Bawshar","GOV":" Muscat Governorate","LATITUDE":23.589806939999999,"LONGITUDE":58.361266550000003}},{"type":"Feature","id":381,"geometry":{"type":"Point","coordinates":[58.439069250695567,23.596509668775475]},"properties":{"FID":381,"NAMEEN":"First Medical Centre Pharmacy - Bawshar","WILLAYAT":" Wilayat Bawshar","GOV":" Muscat Governorate","LATITUDE":23.59650967,"LONGITUDE":58.439069250000003}},{"type":"Feature","id":382,"geometry":{"type":"Point","coordinates":[58.350865051936466,23.537033810942557]},"properties":{"FID":382,"NAMEEN":"Seeb Pharmacy - Bawshar","WILLAYAT":" Wilayat Bawshar","GOV":" Muscat Governorate","LATITUDE":23.53703381,"LONGITUDE":58.350865050000003}},{"type":"Feature","id":383,"geometry":{"type":"Point","coordinates":[58.027134971526728,22.497799256203514]},"properties":{"FID":383,"NAMEEN":"Al Montaser Pharmacy - Sinaw","WILLAYAT":" Wilayat Al Mudaybi","GOV":" Ash Sharqiyah North Governorate","LATITUDE":22.497799260000001,"LONGITUDE":58.027134969999999}},{"type":"Feature","id":384,"geometry":{"type":"Point","coordinates":[58.032415502818644,22.504315429328098]},"properties":{"FID":384,"NAMEEN":"Abu Al Khuzama Pharmacy - Sinaw","WILLAYAT":" Wilayat Al Mudaybi","GOV":" Ash Sharqiyah North Governorate","LATITUDE":22.504315429999998,"LONGITUDE":58.032415499999999}},{"type":"Feature","id":385,"geometry":{"type":"Point","coordinates":[58.115209587284404,22.562811792694333]},"properties":{"FID":385,"NAMEEN":"Ibn Al Haitham Pharmacy - Al Mudaybi","WILLAYAT":" Wilayat Al Mudaybi","GOV":" Ash Sharqiyah North Governorate","LATITUDE":22.562811790000001,"LONGITUDE":58.115209589999999}},{"type":"Feature","id":386,"geometry":{"type":"Point","coordinates":[58.11758133594175,22.569529718619393]},"properties":{"FID":386,"NAMEEN":"Ibn Saleem Pharmacy - Al Mudaybi","WILLAYAT":" Wilayat Al Mudaybi","GOV":" Ash Sharqiyah North Governorate","LATITUDE":22.569529719999998,"LONGITUDE":58.117581340000001}},{"type":"Feature","id":387,"geometry":{"type":"Point","coordinates":[58.121209134960026,22.573398106903362]},"properties":{"FID":387,"NAMEEN":"Badar Al Jashmi Pharmacy - Al Mudaybi","WILLAYAT":" Wilayat Al Mudaybi","GOV":" Ash Sharqiyah North Governorate","LATITUDE":22.573398109999999,"LONGITUDE":58.121209129999997}},{"type":"Feature","id":388,"geometry":{"type":"Point","coordinates":[58.02683390222623,22.496952444283281]},"properties":{"FID":388,"NAMEEN":"Badar Al Jashmi Pharmacy - Sinaw","WILLAYAT":" Wilayat Al Mudaybi","GOV":" Ash Sharqiyah North Governorate","LATITUDE":22.496952440000001,"LONGITUDE":58.0268339}},{"type":"Feature","id":389,"geometry":{"type":"Point","coordinates":[58.563477516532259,23.587167904832292]},"properties":{"FID":389,"NAMEEN":"Ibn Sina Pharmacy - Mutrah","WILLAYAT":" Wilayat Mutrah","GOV":" Muscat Governorate","LATITUDE":23.587167900000001,"LONGITUDE":58.563477519999999}},{"type":"Feature","id":390,"geometry":{"type":"Point","coordinates":[58.561833935578562,23.579339915580139]},"properties":{"FID":390,"NAMEEN":"Lulu Pharmacy - Mutrah","WILLAYAT":" Wilayat Mutrah","GOV":" Muscat Governorate","LATITUDE":23.579339919999999,"LONGITUDE":58.56183394}},{"type":"Feature","id":391,"geometry":{"type":"Point","coordinates":[58.548313415383475,23.601809304372402]},"properties":{"FID":391,"NAMEEN":"Al Shola Pharmacy - Mutrah","WILLAYAT":" Wilayat Mutrah","GOV":" Muscat Governorate","LATITUDE":23.601809299999999,"LONGITUDE":58.548313419999999}},{"type":"Feature","id":392,"geometry":{"type":"Point","coordinates":[58.544567785521842,23.590840669701198]},"properties":{"FID":392,"NAMEEN":"Sohar Pharmacy - Mutrah","WILLAYAT":" Wilayat Mutrah","GOV":" Muscat Governorate","LATITUDE":23.590840669999999,"LONGITUDE":58.544567790000002}},{"type":"Feature","id":393,"geometry":{"type":"Point","coordinates":[58.54247079818883,23.597442651062643]},"properties":{"FID":393,"NAMEEN":"Star Pharmacy - Mutrah","WILLAYAT":" Wilayat Mutrah","GOV":" Muscat Governorate","LATITUDE":23.597442650000001,"LONGITUDE":58.542470799999997}},{"type":"Feature","id":394,"geometry":{"type":"Point","coordinates":[56.562309944182687,24.518053335280563]},"properties":{"FID":394,"NAMEEN":"Al Raffah Pharmacy - Liwa","WILLAYAT":" Wilayat Liwa","GOV":" Al Batinah North Governorate","LATITUDE":24.518053340000002,"LONGITUDE":56.562309939999999}},{"type":"Feature","id":395,"geometry":{"type":"Point","coordinates":[56.563011999754174,24.518787999690726]},"properties":{"FID":395,"NAMEEN":"Al Gefaily Pharmacy - Liwa","WILLAYAT":" Wilayat Liwa","GOV":" Al Batinah North Governorate","LATITUDE":24.518788000000001,"LONGITUDE":56.563012000000001}},{"type":"Feature","id":396,"geometry":{"type":"Point","coordinates":[59.281826894172781,22.080902736046578]},"properties":{"FID":396,"NAMEEN":"Abu Amal Pharmacy - Jaalan Bani Bu Hasan","WILLAYAT":" Wilayat Jaalan Bani Bu Hasan","GOV":" Ash Sharqiyah South Governorate","LATITUDE":22.080902739999999,"LONGITUDE":59.281826889999998}},{"type":"Feature","id":397,"geometry":{"type":"Point","coordinates":[59.285645438538793,22.081383509403789]},"properties":{"FID":397,"NAMEEN":"Abu Bader Alhosni Pharmacy - Jaalan Bani Bu Hasan","WILLAYAT":" Wilayat Jaalan Bani Bu Hasan","GOV":" Ash Sharqiyah South Governorate","LATITUDE":22.081383509999998,"LONGITUDE":59.285645440000003}},{"type":"Feature","id":398,"geometry":{"type":"Point","coordinates":[59.286740454861963,22.070481642609469]},"properties":{"FID":398,"NAMEEN":"Al Sawai Pharmacy - Jaalan Bani Bu Hasan","WILLAYAT":" Wilayat Jaalan Bani Bu Hasan","GOV":" Ash Sharqiyah South Governorate","LATITUDE":22.070481640000001,"LONGITUDE":59.286740450000003}},{"type":"Feature","id":399,"geometry":{"type":"Point","coordinates":[59.28345551193609,22.079490338985856]},"properties":{"FID":399,"NAMEEN":"Ibn Nafiea Pharmacy - Jaalan Bani Bu Hasan","WILLAYAT":" Wilayat Jaalan Bani Bu Hasan","GOV":" Ash Sharqiyah South Governorate","LATITUDE":22.07949034,"LONGITUDE":59.283455510000003}},{"type":"Feature","id":400,"geometry":{"type":"Point","coordinates":[59.523533523137267,22.570578172845032]},"properties":{"FID":400,"NAMEEN":"Al Yafei Pharmacy - Sur","WILLAYAT":" Wilayat Sur","GOV":" Ash Sharqiyah South Governorate","LATITUDE":22.570578170000001,"LONGITUDE":59.523533520000001}},{"type":"Feature","id":401,"geometry":{"type":"Point","coordinates":[59.526532171545021,22.571234465425356]},"properties":{"FID":401,"NAMEEN":"Al Safa Pharmacy - Sur","WILLAYAT":" Wilayat Sur","GOV":" Ash Sharqiyah South Governorate","LATITUDE":22.57123447,"LONGITUDE":59.526532170000003}},{"type":"Feature","id":402,"geometry":{"type":"Point","coordinates":[59.511672124844971,22.580033766731749]},"properties":{"FID":402,"NAMEEN":"Ibn Saleem Pharmacy - Sur","WILLAYAT":" Wilayat Sur","GOV":" Ash Sharqiyah South Governorate","LATITUDE":22.58003377,"LONGITUDE":59.51167212}},{"type":"Feature","id":403,"geometry":{"type":"Point","coordinates":[59.502601430152581,22.575903004200516]},"properties":{"FID":403,"NAMEEN":"Muscat Pharmacy - Perfumes & Cosmetics - Sur","WILLAYAT":" Wilayat Sur","GOV":" Ash Sharqiyah South Governorate","LATITUDE":22.575903,"LONGITUDE":59.502601429999999}},{"type":"Feature","id":404,"geometry":{"type":"Point","coordinates":[59.482527640478722,22.547878962888745]},"properties":{"FID":404,"NAMEEN":"Al Naqa Pharmacy - Sur","WILLAYAT":" Wilayat Sur","GOV":" Ash Sharqiyah South Governorate","LATITUDE":22.547878959999998,"LONGITUDE":59.482527640000001}},{"type":"Feature","id":405,"geometry":{"type":"Point","coordinates":[58.915877232113822,23.262336521101314]},"properties":{"FID":405,"NAMEEN":"Al Shati Phrmacy - Qurayyat","WILLAYAT":" Wilayat Qurayyat","GOV":" Muscat Governorate","LATITUDE":23.262336520000002,"LONGITUDE":58.91587723}},{"type":"Feature","id":406,"geometry":{"type":"Point","coordinates":[58.916535183122711,23.264351748578914]},"properties":{"FID":406,"NAMEEN":"Badar Al Jashmi Pharmacy - Qurayyat","WILLAYAT":" Wilayat Qurayyat","GOV":" Muscat Governorate","LATITUDE":23.264351749999999,"LONGITUDE":58.916535179999997}},{"type":"Feature","id":407,"geometry":{"type":"Point","coordinates":[58.902166147005836,23.240924403253192]},"properties":{"FID":407,"NAMEEN":"Al Foaris Phrmacy - Qurayyat","WILLAYAT":" Wilayat Qurayyat","GOV":" Muscat Governorate","LATITUDE":23.240924400000001,"LONGITUDE":58.902166149999999}},{"type":"Feature","id":408,"geometry":{"type":"Point","coordinates":[58.491059917779907,23.474813952061286]},"properties":{"FID":408,"NAMEEN":"Muscat Pharmacy - Al Amrat","WILLAYAT":" Wilayat Al Amrat","GOV":" Muscat Governorate","LATITUDE":23.474813950000001,"LONGITUDE":58.491059919999998}},{"type":"Feature","id":409,"geometry":{"type":"Point","coordinates":[59.514992254805591,22.578848897320146]},"properties":{"FID":409,"NAMEEN":"Al Noor Medical Complex Pharmacy - Sur","WILLAYAT":" Wilayat Sur","GOV":" Ash Sharqiyah South Governorate","LATITUDE":22.578848900000001,"LONGITUDE":59.514992249999999}},{"type":"Feature","id":410,"geometry":{"type":"Point","coordinates":[59.527330974053996,22.568145728368627]},"properties":{"FID":410,"NAMEEN":"Sur Pharmacy - Sur","WILLAYAT":" Wilayat Sur","GOV":" Ash Sharqiyah South Governorate","LATITUDE":22.568145730000001,"LONGITUDE":59.527330970000001}},{"type":"Feature","id":411,"geometry":{"type":"Point","coordinates":[59.526784009658051,22.569171737868157]},"properties":{"FID":411,"NAMEEN":"Ibn Sina Pharmacy - Sur","WILLAYAT":" Wilayat Sur","GOV":" Ash Sharqiyah South Governorate","LATITUDE":22.569171740000002,"LONGITUDE":59.52678401}},{"type":"Feature","id":412,"geometry":{"type":"Point","coordinates":[59.492418877535172,22.557844880308021]},"properties":{"FID":412,"NAMEEN":"City Center Pharmacy - Sur","WILLAYAT":" Wilayat Sur","GOV":" Ash Sharqiyah South Governorate","LATITUDE":22.557844880000001,"LONGITUDE":59.492418880000002}},{"type":"Feature","id":413,"geometry":{"type":"Point","coordinates":[59.498540348547102,22.570507344319079]},"properties":{"FID":413,"NAMEEN":"Badr Al Samaa Pharmacy - Sur","WILLAYAT":" Wilayat Sur","GOV":" Ash Sharqiyah South Governorate","LATITUDE":22.570507339999999,"LONGITUDE":59.498540349999999}},{"type":"Feature","id":414,"geometry":{"type":"Point","coordinates":[59.51659698019764,22.573285327143786]},"properties":{"FID":414,"NAMEEN":"Sur Private Hospital Pharmacy - Sur","WILLAYAT":" Wilayat Sur","GOV":" Ash Sharqiyah South Governorate","LATITUDE":22.573285330000001,"LONGITUDE":59.516596980000003}},{"type":"Feature","id":415,"geometry":{"type":"Point","coordinates":[58.200508960828778,23.661782804856639]},"properties":{"FID":415,"NAMEEN":"Ibn Said Pharmacy - As Seeb","WILLAYAT":" Wilayat As Seeb","GOV":" Muscat Governorate","LATITUDE":23.661782800000001,"LONGITUDE":58.200508960000001}},{"type":"Feature","id":416,"geometry":{"type":"Point","coordinates":[58.423092747276961,23.592747503910559]},"properties":{"FID":416,"NAMEEN":"Sultan Medical Center Pharmacy - Bawshar","WILLAYAT":" Wilayat Bawshar","GOV":" Muscat Governorate","LATITUDE":23.592747500000002,"LONGITUDE":58.423092750000002}},{"type":"Feature","id":417,"geometry":{"type":"Point","coordinates":[58.553138346627144,23.589721296282463]},"properties":{"FID":417,"NAMEEN":"Kimjiz Pharmacy - Mutrah","WILLAYAT":" Wilayat Mutrah","GOV":" Muscat Governorate","LATITUDE":23.589721300000001,"LONGITUDE":58.553138349999998}},{"type":"Feature","id":418,"geometry":{"type":"Point","coordinates":[57.51495759953113,22.39463960030886]},"properties":{"FID":418,"NAMEEN":"Ibn Sina Pharmacy - Adam","WILLAYAT":" Wilayat Adam","GOV":" Ad Dakhliyah Governorate","LATITUDE":22.394639600000001,"LONGITUDE":57.514957600000002}},{"type":"Feature","id":419,"geometry":{"type":"Point","coordinates":[57.524956999673094,22.38859179961776]},"properties":{"FID":419,"NAMEEN":"Adam Pharmacy - Adam","WILLAYAT":" Wilayat Adam","GOV":" Ad Dakhliyah Governorate","LATITUDE":22.3885918,"LONGITUDE":57.524957000000001}},{"type":"Feature","id":420,"geometry":{"type":"Point","coordinates":[55.775061712736189,24.259000908691323]},"properties":{"FID":420,"NAMEEN":"Yas Pharmacy - Al Buraymi","WILLAYAT":" Wilayat Al Buraymi","GOV":" Al Buraymi Governorate","LATITUDE":24.259000910000001,"LONGITUDE":55.775061710000003}},{"type":"Feature","id":421,"geometry":{"type":"Point","coordinates":[58.492432684135181,23.473912182072798]},"properties":{"FID":421,"NAMEEN":"Al Razi Pharmacy - Al Amrat","WILLAYAT":" Wilayat Al Amrat","GOV":" Muscat Governorate","LATITUDE":23.473912179999999,"LONGITUDE":58.49243268}},{"type":"Feature","id":422,"geometry":{"type":"Point","coordinates":[58.503624535557982,23.5209551388105]},"properties":{"FID":422,"NAMEEN":"AL Hikma International Pharmacy - Al Amrat","WILLAYAT":" Wilayat Al Amrat","GOV":" Muscat Governorate","LATITUDE":23.520955140000002,"LONGITUDE":58.503624539999997}},{"type":"Feature","id":423,"geometry":{"type":"Point","coordinates":[58.503171578450171,23.500083395397382]},"properties":{"FID":423,"NAMEEN":"Al Raffah Pharmacy - Al Amrat","WILLAYAT":" Wilayat Al Amrat","GOV":" Muscat Governorate","LATITUDE":23.500083400000001,"LONGITUDE":58.50317158}},{"type":"Feature","id":424,"geometry":{"type":"Point","coordinates":[59.51532931551376,22.57750453262156]},"properties":{"FID":424,"NAMEEN":"Masirah Pharmacy - Sur","WILLAYAT":" Wilayat Sur","GOV":" Ash Sharqiyah South Governorate","LATITUDE":22.577504529999999,"LONGITUDE":59.515329319999999}},{"type":"Feature","id":425,"geometry":{"type":"Point","coordinates":[58.495254702738833,23.605948192260886]},"properties":{"FID":425,"NAMEEN":"Al Abrar Pharmacy - Mutrah","WILLAYAT":" Wilayat Mutrah","GOV":" Muscat Governorate","LATITUDE":23.605948189999999,"LONGITUDE":58.495254699999997}},{"type":"Feature","id":426,"geometry":{"type":"Point","coordinates":[59.199425479478727,22.216883382351977]},"properties":{"FID":426,"NAMEEN":"Al Mamoora Pharmacy - Al Kamil Wa Al Wafi","WILLAYAT":" Wilayat Al Kamil Wa Al Wafi","GOV":" Ash Sharqiyah South Governorate","LATITUDE":22.216883379999999,"LONGITUDE":59.199425480000002}},{"type":"Feature","id":427,"geometry":{"type":"Point","coordinates":[58.246778227534882,23.614182552900726]},"properties":{"FID":427,"NAMEEN":"Muscat Pharmacy  - As Seeb","WILLAYAT":" Wilayat As Seeb","GOV":" Muscat Governorate","LATITUDE":23.614182549999999,"LONGITUDE":58.246778229999997}},{"type":"Feature","id":428,"geometry":{"type":"Point","coordinates":[58.248397839316958,23.598737730981462]},"properties":{"FID":428,"NAMEEN":"Muscat Pharmacy - As Seeb","WILLAYAT":" Wilayat As Seeb","GOV":" Muscat Governorate","LATITUDE":23.59873773,"LONGITUDE":58.248397840000003}},{"type":"Feature","id":429,"geometry":{"type":"Point","coordinates":[58.494952241219856,23.611883603180321]},"properties":{"FID":429,"NAMEEN":"Muscat Pharmacy  - Mutrah","WILLAYAT":" Wilayat Mutrah","GOV":" Muscat Governorate","LATITUDE":23.611883599999999,"LONGITUDE":58.494952240000003}},{"type":"Feature","id":430,"geometry":{"type":"Point","coordinates":[58.547618067913916,23.618299867874011]},"properties":{"FID":430,"NAMEEN":"Ibn Sina Pharmacy Warehouse - Mutrah","WILLAYAT":" Wilayat Mutrah","GOV":" Muscat Governorate","LATITUDE":23.618299870000001,"LONGITUDE":58.547618069999999}},{"type":"Feature","id":431,"geometry":{"type":"Point","coordinates":[58.541235607532805,23.616223167825563]},"properties":{"FID":431,"NAMEEN":"Muscat Pharmacy  - Mutrah","WILLAYAT":" Wilayat Mutrah","GOV":" Muscat Governorate","LATITUDE":23.616223170000001,"LONGITUDE":58.541235610000001}},{"type":"Feature","id":432,"geometry":{"type":"Point","coordinates":[58.542543703437417,23.603483279086959]},"properties":{"FID":432,"NAMEEN":"Muscat Pharmacy  - Mutrah","WILLAYAT":" Wilayat Mutrah","GOV":" Muscat Governorate","LATITUDE":23.603483279999999,"LONGITUDE":58.542543700000003}},{"type":"Feature","id":433,"geometry":{"type":"Point","coordinates":[59.48160968148408,22.536801132010666]},"properties":{"FID":433,"NAMEEN":"Medical Pharmacy - Sur","WILLAYAT":" Wilayat Sur","GOV":" Ash Sharqiyah South Governorate","LATITUDE":22.536801130000001,"LONGITUDE":59.481609679999998}},{"type":"Feature","id":434,"geometry":{"type":"Point","coordinates":[58.561791086914184,23.584245360060461]},"properties":{"FID":434,"NAMEEN":"Al Sawaqam Pharmacy - Mutrah","WILLAYAT":" Wilayat Mutrah","GOV":" Muscat Governorate","LATITUDE":23.584245360000001,"LONGITUDE":58.56179109}},{"type":"Feature","id":435,"geometry":{"type":"Point","coordinates":[58.225177580075396,23.607397800069009]},"properties":{"FID":435,"NAMEEN":"Al Razi Pharmacy - As Seeb","WILLAYAT":" Wilayat As Seeb","GOV":" Muscat Governorate","LATITUDE":23.607397800000001,"LONGITUDE":58.22517758}},{"type":"Feature","id":436,"geometry":{"type":"Point","coordinates":[57.641875464657737,23.77773857293116]},"properties":{"FID":436,"NAMEEN":"Al Sadi Pharmacy - Al Musanaah","WILLAYAT":" Wilayat Al Musanaah","GOV":" Al Batinah South Governorate","LATITUDE":23.77773857,"LONGITUDE":57.641875460000001}},{"type":"Feature","id":437,"geometry":{"type":"Point","coordinates":[57.62274156925082,23.747642269859927]},"properties":{"FID":437,"NAMEEN":"Al Redha Pharmacy - At Turayf","WILLAYAT":" Wilayat Al Musanaah","GOV":" Al Batinah South Governorate","LATITUDE":23.74764227,"LONGITUDE":57.622741570000002}},{"type":"Feature","id":438,"geometry":{"type":"Point","coordinates":[57.620287538983021,23.745692608568234]},"properties":{"FID":438,"NAMEEN":"Modern Light Pharmacy - At Turayf","WILLAYAT":" Wilayat Al Musanaah","GOV":" Al Batinah South Governorate","LATITUDE":23.745692609999999,"LONGITUDE":57.62028754}},{"type":"Feature","id":439,"geometry":{"type":"Point","coordinates":[57.577970422001385,23.748505642810109]},"properties":{"FID":439,"NAMEEN":"Haya Pharmacy - Al Muladdah","WILLAYAT":" Wilayat Al Musanaah","GOV":" Al Batinah South Governorate","LATITUDE":23.748505640000001,"LONGITUDE":57.57797042}},{"type":"Feature","id":440,"geometry":{"type":"Point","coordinates":[57.545569517249227,23.769045272718071]},"properties":{"FID":440,"NAMEEN":"Al Rahamat Pharmacy - Wudam Al Ghaf","WILLAYAT":" Wilayat Al Musanaah","GOV":" Al Batinah South Governorate","LATITUDE":23.769045269999999,"LONGITUDE":57.545569520000001}},{"type":"Feature","id":441,"geometry":{"type":"Point","coordinates":[57.520461210005216,23.786852160760969]},"properties":{"FID":441,"NAMEEN":"Al Tharmad Pharmacy - Ath Tharmad","WILLAYAT":" Wilayat As Suwayq","GOV":" Al Batinah North Governorate","LATITUDE":23.786852159999999,"LONGITUDE":57.520461210000001}},{"type":"Feature","id":442,"geometry":{"type":"Point","coordinates":[57.518813794978648,23.788842966634434]},"properties":{"FID":442,"NAMEEN":"Al Momtaz Pharmacy - Ath Tharmad","WILLAYAT":" Wilayat As Suwayq","GOV":" Al Batinah North Governorate","LATITUDE":23.788842970000001,"LONGITUDE":57.518813790000003}},{"type":"Feature","id":443,"geometry":{"type":"Point","coordinates":[58.221167612968841,23.613378955685114]},"properties":{"FID":443,"NAMEEN":"Sohar Pharmacy - As Seeb","WILLAYAT":" Wilayat As Seeb","GOV":" Muscat Governorate","LATITUDE":23.613378959999999,"LONGITUDE":58.221167610000002}},{"type":"Feature","id":444,"geometry":{"type":"Point","coordinates":[58.489685059189895,23.60809326192971]},"properties":{"FID":444,"NAMEEN":"Muscat Pharmacy - Bawshar","WILLAYAT":" Wilayat Bawshar","GOV":" Muscat Governorate","LATITUDE":23.60809326,"LONGITUDE":58.489685059999999}},{"type":"Feature","id":445,"geometry":{"type":"Point","coordinates":[57.727191746447566,23.726425805337779]},"properties":{"FID":445,"NAMEEN":"Al Farooq Pharmacy - As Sawadi Al Hakman","WILLAYAT":" Wilayat Barka","GOV":" Al Batinah South Governorate","LATITUDE":23.726425809999999,"LONGITUDE":57.727191750000003}},{"type":"Feature","id":446,"geometry":{"type":"Point","coordinates":[57.628752664087813,23.743722433981105]},"properties":{"FID":446,"NAMEEN":"Ibn Al Tabary Pharmacy - At Turayf","WILLAYAT":" Wilayat Al Musanaah","GOV":" Al Batinah South Governorate","LATITUDE":23.743722429999998,"LONGITUDE":57.628752660000004}},{"type":"Feature","id":447,"geometry":{"type":"Point","coordinates":[58.119054436830162,23.417127934089212]},"properties":{"FID":447,"NAMEEN":"Bidbid Pharmacy - Bidbid","WILLAYAT":" Wilayat Bidbid","GOV":" Ad Dakhliyah Governorate","LATITUDE":23.417127929999999,"LONGITUDE":58.119054439999999}},{"type":"Feature","id":448,"geometry":{"type":"Point","coordinates":[57.421717952848994,23.825664767703262]},"properties":{"FID":448,"NAMEEN":"Rawad Muscat Pharmacy - As Suwayq","WILLAYAT":" Wilayat As Suwayq","GOV":" Al Batinah North Governorate","LATITUDE":23.825664769999999,"LONGITUDE":57.421717950000001}},{"type":"Feature","id":449,"geometry":{"type":"Point","coordinates":[57.423277157853811,23.825397974946373]},"properties":{"FID":449,"NAMEEN":"Al Misk Pharmacy - As Suwayq","WILLAYAT":" Wilayat As Suwayq","GOV":" Al Batinah North Governorate","LATITUDE":23.825397970000001,"LONGITUDE":57.423277159999998}},{"type":"Feature","id":450,"geometry":{"type":"Point","coordinates":[57.100961164332816,23.978423926201703]},"properties":{"FID":450,"NAMEEN":"Jamal Al Naimi Pharmacy - Al Khaburah","WILLAYAT":" Wilayat Al Khaburah","GOV":" Al Batinah North Governorate","LATITUDE":23.978423930000002,"LONGITUDE":57.100961159999997}},{"type":"Feature","id":451,"geometry":{"type":"Point","coordinates":[57.606963402758453,22.782354744552286]},"properties":{"FID":451,"NAMEEN":"Ajwa Um Al Qura Pharmacy - Manah","WILLAYAT":" Wilayat Manah","GOV":" Ad Dakhliyah Governorate","LATITUDE":22.782354739999999,"LONGITUDE":57.606963399999998}},{"type":"Feature","id":452,"geometry":{"type":"Point","coordinates":[57.767592431549211,22.949820320998739]},"properties":{"FID":452,"NAMEEN":"Badr Al Samaa Pharmacy - Izki","WILLAYAT":" Wilayat Izki","GOV":" Ad Dakhliyah Governorate","LATITUDE":22.949820320000001,"LONGITUDE":57.767592430000001}},{"type":"Feature","id":453,"geometry":{"type":"Point","coordinates":[58.553443664339071,23.595379021855226]},"properties":{"FID":453,"NAMEEN":"Atlas Pharmacy - Mutrah","WILLAYAT":" Wilayat Mutrah","GOV":" Muscat Governorate","LATITUDE":23.595379019999999,"LONGITUDE":58.553443659999999}},{"type":"Feature","id":454,"geometry":{"type":"Point","coordinates":[58.522544502855723,23.592207336903073]},"properties":{"FID":454,"NAMEEN":"Hatat Pharmacy - Mutrah","WILLAYAT":" Wilayat Mutrah","GOV":" Muscat Governorate","LATITUDE":23.592207340000002,"LONGITUDE":58.522544500000002}},{"type":"Feature","id":455,"geometry":{"type":"Point","coordinates":[58.536326699210733,23.58634236539428]},"properties":{"FID":455,"NAMEEN":"Al Ahad Al Zahir Pharmacy - Mutrah","WILLAYAT":" Wilayat Mutrah","GOV":" Muscat Governorate","LATITUDE":23.586342370000001,"LONGITUDE":58.536326699999996}},{"type":"Feature","id":456,"geometry":{"type":"Point","coordinates":[58.544958453021856,23.595241982260614]},"properties":{"FID":456,"NAMEEN":"Sigma Pharmacy - Mutrah","WILLAYAT":" Wilayat Mutrah","GOV":" Muscat Governorate","LATITUDE":23.595241980000001,"LONGITUDE":58.544958450000003}},{"type":"Feature","id":457,"geometry":{"type":"Point","coordinates":[58.545879179968644,23.59390369089159]},"properties":{"FID":457,"NAMEEN":"Bombay Pharmacy - Mutrah","WILLAYAT":" Wilayat Mutrah","GOV":" Muscat Governorate","LATITUDE":23.593903690000001,"LONGITUDE":58.54587918}},{"type":"Feature","id":458,"geometry":{"type":"Point","coordinates":[58.397970981717748,23.549456290052348]},"properties":{"FID":458,"NAMEEN":"Muscat Private Hospital Pharmacy  - Bawshar","WILLAYAT":" Wilayat Bawshar","GOV":" Muscat Governorate","LATITUDE":23.549456289999998,"LONGITUDE":58.397970979999997}},{"type":"Feature","id":459,"geometry":{"type":"Point","coordinates":[58.40296693217082,23.592365264901336]},"properties":{"FID":459,"NAMEEN":"National Center Pharmacy  - Bawshar","WILLAYAT":" Wilayat Bawshar","GOV":" Muscat Governorate","LATITUDE":23.592365260000001,"LONGITUDE":58.402966929999998}},{"type":"Feature","id":460,"geometry":{"type":"Point","coordinates":[58.429542594125948,23.592417498446352]},"properties":{"FID":460,"NAMEEN":"Al Bashayer Medical Center Pharmacy  - Bawshar","WILLAYAT":" Wilayat Bawshar","GOV":" Muscat Governorate","LATITUDE":23.5924175,"LONGITUDE":58.429542589999997}},{"type":"Feature","id":461,"geometry":{"type":"Point","coordinates":[58.499427884848402,23.61328533560286]},"properties":{"FID":461,"NAMEEN":"Al Massaraat Medical Center Pharmacy  - Mutrah","WILLAYAT":" Wilayat Mutrah","GOV":" Muscat Governorate","LATITUDE":23.613285340000001,"LONGITUDE":58.499427879999999}},{"type":"Feature","id":462,"geometry":{"type":"Point","coordinates":[58.495880328397099,23.612505345177507]},"properties":{"FID":462,"NAMEEN":"AL Zahra Medical Center Pharmacy - Mutrah","WILLAYAT":" Wilayat Mutrah","GOV":" Muscat Governorate","LATITUDE":23.612505349999999,"LONGITUDE":58.495880329999999}},{"type":"Feature","id":463,"geometry":{"type":"Point","coordinates":[58.45314972068855,23.606586287672581]},"properties":{"FID":463,"NAMEEN":"Emirates Medical Center Pharmacy - Bawshar","WILLAYAT":" Wilayat Bawshar","GOV":" Muscat Governorate","LATITUDE":23.606586289999999,"LONGITUDE":58.453149719999999}},{"type":"Feature","id":464,"geometry":{"type":"Point","coordinates":[58.454437852133523,23.599787966595656]},"properties":{"FID":464,"NAMEEN":"Ibra Pharmacy - Bawshar","WILLAYAT":" Wilayat Bawshar","GOV":" Muscat Governorate","LATITUDE":23.599787970000001,"LONGITUDE":58.454437849999998}},{"type":"Feature","id":465,"geometry":{"type":"Point","coordinates":[58.369352482315179,23.596490063651618]},"properties":{"FID":465,"NAMEEN":"Taiba Pharmacy  - Bawshar","WILLAYAT":" Wilayat Bawshar","GOV":" Muscat Governorate","LATITUDE":23.596490060000001,"LONGITUDE":58.369352480000003}},{"type":"Feature","id":466,"geometry":{"type":"Point","coordinates":[58.495594673449155,23.612793503349483]},"properties":{"FID":466,"NAMEEN":"Medical Gulf Center Pharmacy  - Mutrah","WILLAYAT":" Wilayat Mutrah","GOV":" Muscat Governorate","LATITUDE":23.612793499999999,"LONGITUDE":58.495594670000003}},{"type":"Feature","id":467,"geometry":{"type":"Point","coordinates":[58.445634170571054,23.599204219363585]},"properties":{"FID":467,"NAMEEN":"Al Noor Family Care Center Pharmacy - Bawshar","WILLAYAT":" Wilayat Bawshar","GOV":" Muscat Governorate","LATITUDE":23.599204220000001,"LONGITUDE":58.445634169999998}},{"type":"Feature","id":468,"geometry":{"type":"Point","coordinates":[58.402654119012062,23.55974821126938]},"properties":{"FID":468,"NAMEEN":"Creative Complex Pharmacy - Bawshar","WILLAYAT":" Wilayat Bawshar","GOV":" Muscat Governorate","LATITUDE":23.559748209999999,"LONGITUDE":58.402654120000001}},{"type":"Feature","id":469,"geometry":{"type":"Point","coordinates":[58.492954709443829,23.473738120958718]},"properties":{"FID":469,"NAMEEN":"Um Salam Polyclinic Pharmacy - Al Amrat","WILLAYAT":" Wilayat Al Amrat","GOV":" Muscat Governorate","LATITUDE":23.47373812,"LONGITUDE":58.492954709999999}},{"type":"Feature","id":470,"geometry":{"type":"Point","coordinates":[56.610879920815592,24.436053857709293]},"properties":{"FID":470,"NAMEEN":"Majees Pharmacy - Sohar","WILLAYAT":" Wilayat Sohar","GOV":" Al Batinah North Governorate","LATITUDE":24.436053860000001,"LONGITUDE":56.610879920000002}},{"type":"Feature","id":471,"geometry":{"type":"Point","coordinates":[56.606567407943189,24.436937235350484]},"properties":{"FID":471,"NAMEEN":"Blessing Pharmacy - Sohar","WILLAYAT":" Wilayat Sohar","GOV":" Al Batinah North Governorate","LATITUDE":24.436937239999999,"LONGITUDE":56.606567409999997}},{"type":"Feature","id":472,"geometry":{"type":"Point","coordinates":[56.613407602385031,24.422299808716023]},"properties":{"FID":472,"NAMEEN":"Al Jahwari Pharmacy - Sohar","WILLAYAT":" Wilayat Sohar","GOV":" Al Batinah North Governorate","LATITUDE":24.422299809999998,"LONGITUDE":56.613407600000002}},{"type":"Feature","id":473,"geometry":{"type":"Point","coordinates":[56.615870909516417,24.421295324065845]},"properties":{"FID":473,"NAMEEN":"Said Pharmacy - Sohar","WILLAYAT":" Wilayat Sohar","GOV":" Al Batinah North Governorate","LATITUDE":24.421295319999999,"LONGITUDE":56.615870909999998}},{"type":"Feature","id":474,"geometry":{"type":"Point","coordinates":[56.617888282731585,24.420668008857678]},"properties":{"FID":474,"NAMEEN":"Ocean Pharmacy - Sohar","WILLAYAT":" Wilayat Sohar","GOV":" Al Batinah North Governorate","LATITUDE":24.42066801,"LONGITUDE":56.617888280000003}},{"type":"Feature","id":475,"geometry":{"type":"Point","coordinates":[56.746596348779455,24.363118945752142]},"properties":{"FID":475,"NAMEEN":"Al Hayat Polyclinic Pharmacy - Sohar","WILLAYAT":" Wilayat Sohar","GOV":" Al Batinah North Governorate","LATITUDE":24.36311895,"LONGITUDE":56.746596349999997}},{"type":"Feature","id":476,"geometry":{"type":"Point","coordinates":[56.709618538845476,24.348215966317728]},"properties":{"FID":476,"NAMEEN":"Rayan Muscat Pharmacy - Sohar","WILLAYAT":" Wilayat Sohar","GOV":" Al Batinah North Governorate","LATITUDE":24.348215969999998,"LONGITUDE":56.709618540000001}},{"type":"Feature","id":477,"geometry":{"type":"Point","coordinates":[56.745258549854924,24.369090200658253]},"properties":{"FID":477,"NAMEEN":"Scientific Pharmacy - Sohar","WILLAYAT":" Wilayat Sohar","GOV":" Al Batinah North Governorate","LATITUDE":24.369090199999999,"LONGITUDE":56.745258550000003}},{"type":"Feature","id":478,"geometry":{"type":"Point","coordinates":[56.746921044856315,24.36633430498885]},"properties":{"FID":478,"NAMEEN":"Muscat Pharmacy - Sohar","WILLAYAT":" Wilayat Sohar","GOV":" Al Batinah North Governorate","LATITUDE":24.366334299999998,"LONGITUDE":56.746921039999997}},{"type":"Feature","id":479,"geometry":{"type":"Point","coordinates":[54.093237965226926,17.015365330360829]},"properties":{"FID":479,"NAMEEN":"Al Mowasah Pharmacy - Salalah","WILLAYAT":" Wilayat Salalah","GOV":" Dhofar Governorate","LATITUDE":17.015365330000002,"LONGITUDE":54.093237969999997}},{"type":"Feature","id":480,"geometry":{"type":"Point","coordinates":[54.396072084396792,17.037964292291814]},"properties":{"FID":480,"NAMEEN":"Al Mowasah Pharmacy - Taqah","WILLAYAT":" Wilayat Taqah","GOV":" Dhofar Governorate","LATITUDE":17.037964290000001,"LONGITUDE":54.396072080000003}},{"type":"Feature","id":481,"geometry":{"type":"Point","coordinates":[54.096989332626372,17.01696493479524]},"properties":{"FID":481,"NAMEEN":"Rahat Al Afeyah Pharmacy - Salalah","WILLAYAT":" Wilayat Salalah","GOV":" Dhofar Governorate","LATITUDE":17.01696493,"LONGITUDE":54.09698933}},{"type":"Feature","id":482,"geometry":{"type":"Point","coordinates":[54.031245663277041,17.011084751601548]},"properties":{"FID":482,"NAMEEN":"Care Pharmacy - Salalah","WILLAYAT":" Wilayat Salalah","GOV":" Dhofar Governorate","LATITUDE":17.011084749999998,"LONGITUDE":54.031245660000003}},{"type":"Feature","id":483,"geometry":{"type":"Point","coordinates":[54.07526999976168,17.012083000282381]},"properties":{"FID":483,"NAMEEN":"Muscat Pharmacy - Salalah","WILLAYAT":" Wilayat Salalah","GOV":" Dhofar Governorate","LATITUDE":17.012083000000001,"LONGITUDE":54.075270000000003}},{"type":"Feature","id":484,"geometry":{"type":"Point","coordinates":[54.092941217653674,17.018617070083614]},"properties":{"FID":484,"NAMEEN":"Laya Pharmacy - Salalah","WILLAYAT":" Wilayat Salalah","GOV":" Dhofar Governorate","LATITUDE":17.018617070000001,"LONGITUDE":54.09294122}},{"type":"Feature","id":485,"geometry":{"type":"Point","coordinates":[54.061766050527133,17.01730693442693]},"properties":{"FID":485,"NAMEEN":"Lulu Pharmacy - Salalah","WILLAYAT":" Wilayat Salalah","GOV":" Dhofar Governorate","LATITUDE":17.01730693,"LONGITUDE":54.061766050000003}},{"type":"Feature","id":486,"geometry":{"type":"Point","coordinates":[59.504156111146656,22.573949064210616]},"properties":{"FID":486,"NAMEEN":"Akadh Pharmacy - Sur","WILLAYAT":" Wilayat Sur","GOV":" Ash Sharqiyah South Governorate","LATITUDE":22.57394906,"LONGITUDE":59.504156109999997}},{"type":"Feature","id":487,"geometry":{"type":"Point","coordinates":[58.495492008258985,23.612918606136891]},"properties":{"FID":487,"NAMEEN":"Al Hashar Pharmacy - Mutrah","WILLAYAT":" Wilayat Mutrah","GOV":" Muscat Governorate","LATITUDE":23.612918610000001,"LONGITUDE":58.49549201}},{"type":"Feature","id":488,"geometry":{"type":"Point","coordinates":[57.635519259230733,19.627309251623799]},"properties":{"FID":488,"NAMEEN":"Ibn Sina Pharmacy - Wadi Say","WILLAYAT":" Wilayat Ad Duqm","GOV":" Al Wusta Governorate","LATITUDE":19.62730925,"LONGITUDE":57.635519260000002}},{"type":"Feature","id":489,"geometry":{"type":"Point","coordinates":[59.514099508104628,22.579909163943114]},"properties":{"FID":489,"NAMEEN":"Ibn Al Nafees Pharmacy - Sur","WILLAYAT":" Wilayat Sur","GOV":" Ash Sharqiyah South Governorate","LATITUDE":22.57990916,"LONGITUDE":59.514099510000001}},{"type":"Feature","id":490,"geometry":{"type":"Point","coordinates":[59.526389091622512,22.569857856025511]},"properties":{"FID":490,"NAMEEN":"Ibn Saleem Pharmacy - Sur","WILLAYAT":" Wilayat Sur","GOV":" Ash Sharqiyah South Governorate","LATITUDE":22.569857859999999,"LONGITUDE":59.526389090000002}},{"type":"Feature","id":491,"geometry":{"type":"Point","coordinates":[59.508000835840207,22.581073782041514]},"properties":{"FID":491,"NAMEEN":"Al Ameen Pharmacy - Sur","WILLAYAT":" Wilayat Sur","GOV":" Ash Sharqiyah South Governorate","LATITUDE":22.581073780000001,"LONGITUDE":59.508000840000001}},{"type":"Feature","id":492,"geometry":{"type":"Point","coordinates":[54.051392323305237,17.021195954450949]},"properties":{"FID":492,"NAMEEN":"Al-Mawasa Pharmacy - Salalah","WILLAYAT":" Wilayat Salalah","GOV":" Dhofar Governorate","LATITUDE":17.021195949999999,"LONGITUDE":54.051392319999998}},{"type":"Feature","id":493,"geometry":{"type":"Point","coordinates":[58.423590320763189,23.582761973210797]},"properties":{"FID":493,"NAMEEN":"Apex Pharmacy - Bawshar","WILLAYAT":" Wilayat Bawshar","GOV":" Muscat Governorate","LATITUDE":23.58276197,"LONGITUDE":58.423590320000002}},{"type":"Feature","id":494,"geometry":{"type":"Point","coordinates":[58.215743989384777,23.632023479704358]},"properties":{"FID":494,"NAMEEN":"Al Thara Pharmacy - As Seeb","WILLAYAT":" Wilayat As Seeb","GOV":" Muscat Governorate","LATITUDE":23.632023480000001,"LONGITUDE":58.21574399}},{"type":"Feature","id":495,"geometry":{"type":"Point","coordinates":[55.780630000315426,24.24693999973135]},"properties":{"FID":495,"NAMEEN":"Al Yamama Pharmacy - Al Buraymi","WILLAYAT":" Wilayat Al Buraymi","GOV":" Al Buraymi Governorate","LATITUDE":24.246939999999999,"LONGITUDE":55.780630000000002}},{"type":"Feature","id":496,"geometry":{"type":"Point","coordinates":[56.738102716272984,24.356621517629641]},"properties":{"FID":496,"NAMEEN":"Al Farabi Pharmacy - Sohar","WILLAYAT":" Wilayat Sohar","GOV":" Al Batinah North Governorate","LATITUDE":24.356621520000001,"LONGITUDE":56.738102720000001}},{"type":"Feature","id":497,"geometry":{"type":"Point","coordinates":[58.561161953587145,23.621578806429138]},"properties":{"FID":497,"NAMEEN":"Muscat Pharmacy - Mutrah","WILLAYAT":" Wilayat Mutrah","GOV":" Muscat Governorate","LATITUDE":23.621578809999999,"LONGITUDE":58.561161949999999}},{"type":"Feature","id":498,"geometry":{"type":"Point","coordinates":[58.5395471534246,23.600272138911627]},"properties":{"FID":498,"NAMEEN":"Al Hashar Pharmacy  - Mutrah","WILLAYAT":" Wilayat Mutrah","GOV":" Muscat Governorate","LATITUDE":23.600272140000001,"LONGITUDE":58.539547149999997}},{"type":"Feature","id":499,"geometry":{"type":"Point","coordinates":[58.200215640919673,23.59108907617431]},"properties":{"FID":499,"NAMEEN":"Al Makook Medical Coordinance Center - As Seeb","WILLAYAT":" Wilayat As Seeb","GOV":" Muscat Governorate","LATITUDE":23.59108908,"LONGITUDE":58.200215640000003}},{"type":"Feature","id":500,"geometry":{"type":"Point","coordinates":[58.425186160668822,23.584762814841937]},"properties":{"FID":500,"NAMEEN":"Traditonal Omani Medical Center  - Bawshar","WILLAYAT":" Wilayat Bawshar","GOV":" Muscat Governorate","LATITUDE":23.584762810000001,"LONGITUDE":58.425186160000003}},{"type":"Feature","id":501,"geometry":{"type":"Point","coordinates":[58.19118667172863,23.615051677554142]},"properties":{"FID":501,"NAMEEN":"Seeb Speciilty Polyclinc - As Seeb","WILLAYAT":" Wilayat As Seeb","GOV":" Muscat Governorate","LATITUDE":23.615051680000001,"LONGITUDE":58.19118667}},{"type":"Feature","id":502,"geometry":{"type":"Point","coordinates":[58.384765680987421,23.592114591293562]},"properties":{"FID":502,"NAMEEN":"ASSP - Bawshar","WILLAYAT":" Wilayat Bawshar","GOV":" Muscat Governorate","LATITUDE":23.592114590000001,"LONGITUDE":58.384765680000001}},{"type":"Feature","id":503,"geometry":{"type":"Point","coordinates":[58.371157966181038,23.587826811033764]},"properties":{"FID":503,"NAMEEN":"American Spine Center - Bawshar","WILLAYAT":" Wilayat Bawshar","GOV":" Muscat Governorate","LATITUDE":23.587826809999999,"LONGITUDE":58.371157969999999}},{"type":"Feature","id":504,"geometry":{"type":"Point","coordinates":[58.412029951976912,23.576796446417593]},"properties":{"FID":504,"NAMEEN":"Al Basmah Polyclinic - Bawshar","WILLAYAT":" Wilayat Bawshar","GOV":" Muscat Governorate","LATITUDE":23.57679645,"LONGITUDE":58.412029949999997}},{"type":"Feature","id":505,"geometry":{"type":"Point","coordinates":[58.577852989189097,23.58790745419849]},"properties":{"FID":505,"NAMEEN":"Muscat Pharmacy and Store  - Mutrah","WILLAYAT":" Wilayat Mutrah","GOV":" Muscat Governorate","LATITUDE":23.587907449999999,"LONGITUDE":58.577852989999997}},{"type":"Feature","id":506,"geometry":{"type":"Point","coordinates":[54.083948165303745,17.010658489076501]},"properties":{"FID":506,"NAMEEN":"Scientfic Pharmacy - Salalah","WILLAYAT":" Wilayat Salalah","GOV":" Dhofar Governorate","LATITUDE":17.010658490000001,"LONGITUDE":54.083948169999999}},{"type":"Feature","id":507,"geometry":{"type":"Point","coordinates":[55.773053298642971,24.241171530176835]},"properties":{"FID":507,"NAMEEN":"Scientfic Pharmacy - Al Buraymi","WILLAYAT":" Wilayat Al Buraymi","GOV":" Al Buraymi Governorate","LATITUDE":24.241171529999999,"LONGITUDE":55.773053300000001}},{"type":"Feature","id":508,"geometry":{"type":"Point","coordinates":[58.459734002000189,23.60927243430125]},"properties":{"FID":508,"NAMEEN":"Tahan Medical Center  - Bawshar","WILLAYAT":" Wilayat Bawshar","GOV":" Muscat Governorate","LATITUDE":23.609272430000001,"LONGITUDE":58.459733999999997}},{"type":"Feature","id":509,"geometry":{"type":"Point","coordinates":[58.542314176876737,23.592886017051583]},"properties":{"FID":509,"NAMEEN":"Mazoon Pharmacy - Mutrah","WILLAYAT":" Wilayat Mutrah","GOV":" Muscat Governorate","LATITUDE":23.592886020000002,"LONGITUDE":58.542314179999998}},{"type":"Feature","id":510,"geometry":{"type":"Point","coordinates":[58.418290194596374,23.59194389911271]},"properties":{"FID":510,"NAMEEN":"Oman Chinese Medical Center - Bawshar","WILLAYAT":" Wilayat Bawshar","GOV":" Muscat Governorate","LATITUDE":23.5919439,"LONGITUDE":58.41829019}},{"type":"Feature","id":511,"geometry":{"type":"Point","coordinates":[58.379747210094997,23.599994292181577]},"properties":{"FID":511,"NAMEEN":"Malak Dental Center - Bawshar","WILLAYAT":" Wilayat Bawshar","GOV":" Muscat Governorate","LATITUDE":23.599994290000001,"LONGITUDE":58.379747209999998}},{"type":"Feature","id":512,"geometry":{"type":"Point","coordinates":[58.572931804174566,23.570168510376398]},"properties":{"FID":512,"NAMEEN":"Khimji Pharmacy - Mutrah","WILLAYAT":" Wilayat Mutrah","GOV":" Muscat Governorate","LATITUDE":23.570168509999998,"LONGITUDE":58.572931799999999}},{"type":"Feature","id":513,"geometry":{"type":"Point","coordinates":[58.12656530447385,23.661321786895272]},"properties":{"FID":513,"NAMEEN":"Scientific Pharmacy  - As Seeb","WILLAYAT":" Wilayat As Seeb","GOV":" Muscat Governorate","LATITUDE":23.661321789999999,"LONGITUDE":58.126565300000003}},{"type":"Feature","id":514,"geometry":{"type":"Point","coordinates":[58.133752698182704,23.616858238735048]},"properties":{"FID":514,"NAMEEN":"Future Center for treatment intensive rehabilitation - As Seeb","WILLAYAT":" Wilayat As Seeb","GOV":" Muscat Governorate","LATITUDE":23.616858239999999,"LONGITUDE":58.133752700000002}},{"type":"Feature","id":515,"geometry":{"type":"Point","coordinates":[58.390054972183741,23.599579896606571]},"properties":{"FID":515,"NAMEEN":"Hudoa for Medical Coordination - Bawshar","WILLAYAT":" Wilayat Bawshar","GOV":" Muscat Governorate","LATITUDE":23.599579899999998,"LONGITUDE":58.390054970000001}},{"type":"Feature","id":516,"geometry":{"type":"Point","coordinates":[58.416451240638033,23.578587073277362]},"properties":{"FID":516,"NAMEEN":"Al Razi Pharmacy - Bawshar","WILLAYAT":" Wilayat Bawshar","GOV":" Muscat Governorate","LATITUDE":23.578587070000001,"LONGITUDE":58.416451240000001}},{"type":"Feature","id":517,"geometry":{"type":"Point","coordinates":[58.195329999569381,23.626580000432384]},"properties":{"FID":517,"NAMEEN":"Health for All Pharmacy - As Seeb","WILLAYAT":" Wilayat As Seeb","GOV":" Muscat Governorate","LATITUDE":23.626580000000001,"LONGITUDE":58.195329999999998}},{"type":"Feature","id":518,"geometry":{"type":"Point","coordinates":[58.892592504566231,23.223446624811565]},"properties":{"FID":518,"NAMEEN":"Kawthar River Pharmacy - Qurayyat","WILLAYAT":" Wilayat Qurayyat","GOV":" Muscat Governorate","LATITUDE":23.223446620000001,"LONGITUDE":58.892592499999999}},{"type":"Feature","id":519,"geometry":{"type":"Point","coordinates":[55.795404064559065,24.26730866167512]},"properties":{"FID":519,"NAMEEN":"Rofyda Pharmacy - Al Buraymi","WILLAYAT":" Wilayat Al Buraymi","GOV":" Al Buraymi Governorate","LATITUDE":24.267308660000001,"LONGITUDE":55.795404060000003}},{"type":"Feature","id":520,"geometry":{"type":"Point","coordinates":[58.548540793604609,23.611337190625616]},"properties":{"FID":520,"NAMEEN":"Oriental Pharmacy Warehouse  - Mutrah","WILLAYAT":" Wilayat Mutrah","GOV":" Muscat Governorate","LATITUDE":23.61133719,"LONGITUDE":58.548540789999997}},{"type":"Feature","id":521,"geometry":{"type":"Point","coordinates":[58.228941226162746,23.596471988789311]},"properties":{"FID":521,"NAMEEN":"Stars Medical Complex - As Seeb","WILLAYAT":" Wilayat As Seeb","GOV":" Muscat Governorate","LATITUDE":23.596471990000001,"LONGITUDE":58.228941229999997}},{"type":"Feature","id":522,"geometry":{"type":"Point","coordinates":[58.424404569802377,23.587748665242827]},"properties":{"FID":522,"NAMEEN":"The Specialty Center for Autism - Bawshar","WILLAYAT":" Wilayat Bawshar","GOV":" Muscat Governorate","LATITUDE":23.58774867,"LONGITUDE":58.42440457}},{"type":"Feature","id":523,"geometry":{"type":"Point","coordinates":[58.43823912141162,23.596669366380102]},"properties":{"FID":523,"NAMEEN":"Al Khuwair Pharmacy - Bawshar","WILLAYAT":" Wilayat Bawshar","GOV":" Muscat Governorate","LATITUDE":23.596669370000001,"LONGITUDE":58.438239119999999}},{"type":"Feature","id":524,"geometry":{"type":"Point","coordinates":[58.542554043094015,23.588339651343926]},"properties":{"FID":524,"NAMEEN":"Um Salma Pharmacy  - Mutrah","WILLAYAT":" Wilayat Mutrah","GOV":" Muscat Governorate","LATITUDE":23.588339650000002,"LONGITUDE":58.542554039999999}},{"type":"Feature","id":525,"geometry":{"type":"Point","coordinates":[58.542307083305609,23.593154656221845]},"properties":{"FID":525,"NAMEEN":"Specialist Medical Center  - Mutrah","WILLAYAT":" Wilayat Mutrah","GOV":" Muscat Governorate","LATITUDE":23.59315466,"LONGITUDE":58.54230708}},{"type":"Feature","id":526,"geometry":{"type":"Point","coordinates":[58.437490276384288,23.596587561887155]},"properties":{"FID":526,"NAMEEN":"Al Lamki Polyclinic - Bawshar","WILLAYAT":" Wilayat Bawshar","GOV":" Muscat Governorate","LATITUDE":23.59658756,"LONGITUDE":58.437490279999999}},{"type":"Feature","id":527,"geometry":{"type":"Point","coordinates":[58.353187748308734,23.576788683211554]},"properties":{"FID":527,"NAMEEN":"Nahid Pharmacy - Bawshar","WILLAYAT":" Wilayat Bawshar","GOV":" Muscat Governorate","LATITUDE":23.57678868,"LONGITUDE":58.353187749999996}},{"type":"Feature","id":528,"geometry":{"type":"Point","coordinates":[58.57465784786752,23.568983895168351]},"properties":{"FID":528,"NAMEEN":"Mazoon Pharmacy Offices - Mutrah","WILLAYAT":" Wilayat Mutrah","GOV":" Muscat Governorate","LATITUDE":23.568983899999999,"LONGITUDE":58.574657850000001}},{"type":"Feature","id":529,"geometry":{"type":"Point","coordinates":[58.523025463878966,23.587579640876243]},"properties":{"FID":529,"NAMEEN":"Muscat Pharmacy  - Mutrah","WILLAYAT":" Wilayat Mutrah","GOV":" Muscat Governorate","LATITUDE":23.587579640000001,"LONGITUDE":58.523025459999999}},{"type":"Feature","id":530,"geometry":{"type":"Point","coordinates":[58.434677692664565,23.593688042272763]},"properties":{"FID":530,"NAMEEN":"Gulf Chinese Center - Bawshar","WILLAYAT":" Wilayat Bawshar","GOV":" Muscat Governorate","LATITUDE":23.59368804,"LONGITUDE":58.434677690000001}},{"type":"Feature","id":531,"geometry":{"type":"Point","coordinates":[58.427723535144629,23.589066027305442]},"properties":{"FID":531,"NAMEEN":"Al Amal Medical Health Center  - Bawshar","WILLAYAT":" Wilayat Bawshar","GOV":" Muscat Governorate","LATITUDE":23.589066030000001,"LONGITUDE":58.427723540000002}},{"type":"Feature","id":532,"geometry":{"type":"Point","coordinates":[58.560868397152049,23.58951829454799]},"properties":{"FID":532,"NAMEEN":"Muscat Pharmacy Office Complex - Mutrah","WILLAYAT":" Wilayat Mutrah","GOV":" Muscat Governorate","LATITUDE":23.589518290000001,"LONGITUDE":58.560868399999997}},{"type":"Feature","id":533,"geometry":{"type":"Point","coordinates":[58.519139650006096,23.600372354078143]},"properties":{"FID":533,"NAMEEN":"International Medical Specialty Centre - Mutrah","WILLAYAT":" Wilayat Mutrah","GOV":" Muscat Governorate","LATITUDE":23.600372350000001,"LONGITUDE":58.51913965}},{"type":"Feature","id":534,"geometry":{"type":"Point","coordinates":[58.520010089736616,23.599520058747139]},"properties":{"FID":534,"NAMEEN":"National life & General Insurance Co. - Mutrah","WILLAYAT":" Wilayat Mutrah","GOV":" Muscat Governorate","LATITUDE":23.59952006,"LONGITUDE":58.52001009}},{"type":"Feature","id":535,"geometry":{"type":"Point","coordinates":[58.246303203475883,23.625642454043057]},"properties":{"FID":535,"NAMEEN":"Romantic Medical & Health Care Centre - As Seeb","WILLAYAT":" Wilayat As Seeb","GOV":" Muscat Governorate","LATITUDE":23.625642450000001,"LONGITUDE":58.2463032}},{"type":"Feature","id":536,"geometry":{"type":"Point","coordinates":[58.380585236956925,23.580075922793817]},"properties":{"FID":536,"NAMEEN":"Ghala Clinic - Bawshar","WILLAYAT":" Wilayat Bawshar","GOV":" Muscat Governorate","LATITUDE":23.580075919999999,"LONGITUDE":58.380585240000002}},{"type":"Feature","id":537,"geometry":{"type":"Point","coordinates":[58.549837536394733,23.586796814600426]},"properties":{"FID":537,"NAMEEN":"Mazoon Pharmacy - Mutrah","WILLAYAT":" Wilayat Mutrah","GOV":" Muscat Governorate","LATITUDE":23.586796809999999,"LONGITUDE":58.549837539999999}},{"type":"Feature","id":538,"geometry":{"type":"Point","coordinates":[58.559759256422396,23.591022171629639]},"properties":{"FID":538,"NAMEEN":"Muscat Pharmacy Warehouse  - Mutrah","WILLAYAT":" Wilayat Mutrah","GOV":" Muscat Governorate","LATITUDE":23.591022169999999,"LONGITUDE":58.55975926}},{"type":"Feature","id":539,"geometry":{"type":"Point","coordinates":[58.144578687534469,23.590517694957505]},"properties":{"FID":539,"NAMEEN":"Al Shamar Medical Center - As Seeb","WILLAYAT":" Wilayat As Seeb","GOV":" Muscat Governorate","LATITUDE":23.590517689999999,"LONGITUDE":58.144578690000003}},{"type":"Feature","id":540,"geometry":{"type":"Point","coordinates":[58.157802455161537,23.601419921761639]},"properties":{"FID":540,"NAMEEN":"Medical Coordination Offices - As Seeb","WILLAYAT":" Wilayat As Seeb","GOV":" Muscat Governorate","LATITUDE":23.601419920000001,"LONGITUDE":58.157802459999999}},{"type":"Feature","id":541,"geometry":{"type":"Point","coordinates":[58.560970480025432,23.589095781119589]},"properties":{"FID":541,"NAMEEN":"Muscat Pharmacy & Stores - Mutrah","WILLAYAT":" Wilayat Mutrah","GOV":" Muscat Governorate","LATITUDE":23.589095780000001,"LONGITUDE":58.560970480000002}},{"type":"Feature","id":542,"geometry":{"type":"Point","coordinates":[58.380066382922308,23.599898996592696]},"properties":{"FID":542,"NAMEEN":"Ibin Sina Group - Bawshar","WILLAYAT":" Wilayat Bawshar","GOV":" Muscat Governorate","LATITUDE":23.599899000000001,"LONGITUDE":58.380066380000002}},{"type":"Feature","id":543,"geometry":{"type":"Point","coordinates":[58.20679728947907,23.639109264336177]},"properties":{"FID":543,"NAMEEN":"Finloind Eye Center - As Seeb","WILLAYAT":" Wilayat As Seeb","GOV":" Muscat Governorate","LATITUDE":23.639109260000001,"LONGITUDE":58.206797289999997}},{"type":"Feature","id":544,"geometry":{"type":"Point","coordinates":[58.519749400745496,23.599853456886475]},"properties":{"FID":544,"NAMEEN":"Magrabi Medical Center - Mutrah","WILLAYAT":" Wilayat Mutrah","GOV":" Muscat Governorate","LATITUDE":23.599853459999999,"LONGITUDE":58.519749400000002}},{"type":"Feature","id":545,"geometry":{"type":"Point","coordinates":[58.158660620045268,23.601589488047676]},"properties":{"FID":545,"NAMEEN":"Medical Simulation Center - As Seeb","WILLAYAT":" Wilayat As Seeb","GOV":" Muscat Governorate","LATITUDE":23.601589489999999,"LONGITUDE":58.158660619999999}},{"type":"Feature","id":546,"geometry":{"type":"Point","coordinates":[58.230001009106459,23.632900118008852]},"properties":{"FID":546,"NAMEEN":"Ibra  Pharmacy - As Seeb","WILLAYAT":" Wilayat As Seeb","GOV":" Muscat Governorate","LATITUDE":23.632900119999999,"LONGITUDE":58.230001010000002}},{"type":"Feature","id":547,"geometry":{"type":"Point","coordinates":[58.227217496196332,23.631309229448203]},"properties":{"FID":547,"NAMEEN":"Ibra  Pharmacy - As Seeb","WILLAYAT":" Wilayat As Seeb","GOV":" Muscat Governorate","LATITUDE":23.631309229999999,"LONGITUDE":58.227217500000002}},{"type":"Feature","id":548,"geometry":{"type":"Point","coordinates":[58.548214722312359,23.611426938587847]},"properties":{"FID":548,"NAMEEN":"Syed Fayyaz Complex - Mutrah","WILLAYAT":" Wilayat Mutrah","GOV":" Muscat Governorate","LATITUDE":23.611426940000001,"LONGITUDE":58.548214719999997}},{"type":"Feature","id":549,"geometry":{"type":"Point","coordinates":[58.115355981142358,23.656259557216455]},"properties":{"FID":549,"NAMEEN":"Scientific Pharmacy  - As Seeb","WILLAYAT":" Wilayat As Seeb","GOV":" Muscat Governorate","LATITUDE":23.656259559999999,"LONGITUDE":58.115355979999997}},{"type":"Feature","id":550,"geometry":{"type":"Point","coordinates":[58.403803808477804,23.57663733254704]},"properties":{"FID":550,"NAMEEN":"Medical Examination Center - Bawshar","WILLAYAT":" Wilayat Bawshar","GOV":" Muscat Governorate","LATITUDE":23.576637330000001,"LONGITUDE":58.403803809999999}},{"type":"Feature","id":551,"geometry":{"type":"Point","coordinates":[58.197892705834526,23.615506381301699]},"properties":{"FID":551,"NAMEEN":"Renda for Natural Therapy Center - As Seeb","WILLAYAT":" Wilayat As Seeb","GOV":" Muscat Governorate","LATITUDE":23.615506379999999,"LONGITUDE":58.197892709999998}},{"type":"Feature","id":552,"geometry":{"type":"Point","coordinates":[58.206147781325889,23.659157675354983]},"properties":{"FID":552,"NAMEEN":"Life Line Pharmacy - As Seeb","WILLAYAT":" Wilayat As Seeb","GOV":" Muscat Governorate","LATITUDE":23.65915768,"LONGITUDE":58.206147780000002}},{"type":"Feature","id":553,"geometry":{"type":"Point","coordinates":[58.573402929302468,23.571017934088726]},"properties":{"FID":553,"NAMEEN":"Ibin Sina Pharmacy  - Mutrah","WILLAYAT":" Wilayat Mutrah","GOV":" Muscat Governorate","LATITUDE":23.57101793,"LONGITUDE":58.57340293}},{"type":"Feature","id":554,"geometry":{"type":"Point","coordinates":[58.232347070695063,23.607051004434972]},"properties":{"FID":554,"NAMEEN":"Al Zahar  Specialzed Polyclinic - As Seeb","WILLAYAT":" Wilayat As Seeb","GOV":" Muscat Governorate","LATITUDE":23.607050999999998,"LONGITUDE":58.232347070000003}},{"type":"Feature","id":555,"geometry":{"type":"Point","coordinates":[58.349239900205902,23.531257270136045]},"properties":{"FID":555,"NAMEEN":"Al Mazuoona Medical Complex - Bawshar","WILLAYAT":" Wilayat Bawshar","GOV":" Muscat Governorate","LATITUDE":23.531257270000001,"LONGITUDE":58.349239900000001}},{"type":"Feature","id":556,"geometry":{"type":"Point","coordinates":[58.176356925951872,23.683941895439268]},"properties":{"FID":556,"NAMEEN":"Al Jesri Polyclinic - As Seeb","WILLAYAT":" Wilayat As Seeb","GOV":" Muscat Governorate","LATITUDE":23.683941900000001,"LONGITUDE":58.176356929999997}},{"type":"Feature","id":557,"geometry":{"type":"Point","coordinates":[58.136026619247744,23.676617032176551]},"properties":{"FID":557,"NAMEEN":"Capital Pharmacy - As Seeb","WILLAYAT":" Wilayat As Seeb","GOV":" Muscat Governorate","LATITUDE":23.676617029999999,"LONGITUDE":58.136026620000003}},{"type":"Feature","id":558,"geometry":{"type":"Point","coordinates":[58.551917594137343,23.609210996927462]},"properties":{"FID":558,"NAMEEN":"Capital Pharmacy  - Mutrah","WILLAYAT":" Wilayat Mutrah","GOV":" Muscat Governorate","LATITUDE":23.609210999999998,"LONGITUDE":58.551917590000002}},{"type":"Feature","id":559,"geometry":{"type":"Point","coordinates":[58.322663999112201,23.564358167875689]},"properties":{"FID":559,"NAMEEN":"Scientific Pharmacy  -","WILLAYAT":" Wilayat Bawshar","GOV":" Muscat Governorate","LATITUDE":23.564358169999998,"LONGITUDE":58.322664000000003}},{"type":"Feature","id":560,"geometry":{"type":"Point","coordinates":[58.49844009579931,23.614523085694213]},"properties":{"FID":560,"NAMEEN":"lavender Ayurved & Natural Herbs Center - Mutrah","WILLAYAT":" Wilayat Mutrah","GOV":" Muscat Governorate","LATITUDE":23.614523089999999,"LONGITUDE":58.498440100000003}},{"type":"Feature","id":561,"geometry":{"type":"Point","coordinates":[58.429980270219872,23.590263314289885]},"properties":{"FID":561,"NAMEEN":"Muscat Pharmacy  - Bawshar","WILLAYAT":" Wilayat Bawshar","GOV":" Muscat Governorate","LATITUDE":23.590263310000001,"LONGITUDE":58.429980270000001}},{"type":"Feature","id":562,"geometry":{"type":"Point","coordinates":[58.497988354919144,23.614787094576823]},"properties":{"FID":562,"NAMEEN":"Int French Medical Center - Mutrah","WILLAYAT":" Wilayat Mutrah","GOV":" Muscat Governorate","LATITUDE":23.61478709,"LONGITUDE":58.49798835}},{"type":"Feature","id":563,"geometry":{"type":"Point","coordinates":[58.557154119318547,23.584520412892619]},"properties":{"FID":563,"NAMEEN":"Muscat Pharmacy - Mutrah","WILLAYAT":" Wilayat Mutrah","GOV":" Muscat Governorate","LATITUDE":23.58452041,"LONGITUDE":58.55715412}},{"type":"Feature","id":564,"geometry":{"type":"Point","coordinates":[58.563080938192613,23.593875408868669]},"properties":{"FID":564,"NAMEEN":"Muscat Pharmacy Warehouse  - Mutrah","WILLAYAT":" Wilayat Mutrah","GOV":" Muscat Governorate","LATITUDE":23.593875409999999,"LONGITUDE":58.563080939999999}},{"type":"Feature","id":565,"geometry":{"type":"Point","coordinates":[58.370939291437828,23.587832299435668]},"properties":{"FID":565,"NAMEEN":"Bahwan Pharmacy - Bawshar","WILLAYAT":" Wilayat Bawshar","GOV":" Muscat Governorate","LATITUDE":23.587832299999999,"LONGITUDE":58.370939290000003}},{"type":"Feature","id":566,"geometry":{"type":"Point","coordinates":[58.169957474139387,23.681845479349654]},"properties":{"FID":566,"NAMEEN":"Al Zahra Pharmacy - As Seeb","WILLAYAT":" Wilayat As Seeb","GOV":" Muscat Governorate","LATITUDE":23.68184548,"LONGITUDE":58.16995747}},{"type":"Feature","id":567,"geometry":{"type":"Point","coordinates":[58.366420876508542,23.601954991653088]},"properties":{"FID":567,"NAMEEN":"Pharmacy lifetime - Bawshar","WILLAYAT":" Wilayat Bawshar","GOV":" Muscat Governorate","LATITUDE":23.601954989999999,"LONGITUDE":58.36642088}},{"type":"Feature","id":568,"geometry":{"type":"Point","coordinates":[58.144144185717721,23.644867569729968]},"properties":{"FID":568,"NAMEEN":"Al Meera Medial Center - As Seeb","WILLAYAT":" Wilayat As Seeb","GOV":" Muscat Governorate","LATITUDE":23.644867569999999,"LONGITUDE":58.144144189999999}},{"type":"Feature","id":569,"geometry":{"type":"Point","coordinates":[58.143820928614488,23.644984965138015]},"properties":{"FID":569,"NAMEEN":"Ibn Sina Pharmacy - As Seeb","WILLAYAT":" Wilayat As Seeb","GOV":" Muscat Governorate","LATITUDE":23.644984969999999,"LONGITUDE":58.143820929999997}},{"type":"Feature","id":570,"geometry":{"type":"Point","coordinates":[58.184416175975116,23.68496041432175]},"properties":{"FID":570,"NAMEEN":"Abna Freish Centere for Natural Herbal Treatmant  - As Seeb","WILLAYAT":" Wilayat As Seeb","GOV":" Muscat Governorate","LATITUDE":23.684960409999999,"LONGITUDE":58.184416179999999}},{"type":"Feature","id":571,"geometry":{"type":"Point","coordinates":[58.184629739761185,23.684830846327092]},"properties":{"FID":571,"NAMEEN":" Pharmacy Freish - As Seeb","WILLAYAT":" Wilayat As Seeb","GOV":" Muscat Governorate","LATITUDE":23.684830850000001,"LONGITUDE":58.184629739999998}},{"type":"Feature","id":572,"geometry":{"type":"Point","coordinates":[58.261920017916772,23.624385158924365]},"properties":{"FID":572,"NAMEEN":" Pharmacy Exspress - As Seeb","WILLAYAT":" Wilayat As Seeb","GOV":" Muscat Governorate","LATITUDE":23.624385159999999,"LONGITUDE":58.261920019999998}},{"type":"Feature","id":573,"geometry":{"type":"Point","coordinates":[58.223227196336993,23.603743333023324]},"properties":{"FID":573,"NAMEEN":"Ibn AL nafees Natural Mediclinc Center  - As Seeb","WILLAYAT":" Wilayat As Seeb","GOV":" Muscat Governorate","LATITUDE":23.60374333,"LONGITUDE":58.223227199999997}},{"type":"Feature","id":574,"geometry":{"type":"Point","coordinates":[58.221961756779713,23.604130710778726]},"properties":{"FID":574,"NAMEEN":"Mothernal & Fetal Care Center - As Seeb","WILLAYAT":" Wilayat As Seeb","GOV":" Muscat Governorate","LATITUDE":23.60413071,"LONGITUDE":58.221961759999999}},{"type":"Feature","id":575,"geometry":{"type":"Point","coordinates":[58.113982747781272,23.636392881623227]},"properties":{"FID":575,"NAMEEN":"The Wave Pharmacy - As Seeb","WILLAYAT":" Wilayat As Seeb","GOV":" Muscat Governorate","LATITUDE":23.636392879999999,"LONGITUDE":58.113982749999998}},{"type":"Feature","id":576,"geometry":{"type":"Point","coordinates":[58.134550677151665,23.650803722269103]},"properties":{"FID":576,"NAMEEN":"Star Care Medical Center - As Seeb","WILLAYAT":" Wilayat As Seeb","GOV":" Muscat Governorate","LATITUDE":23.650803719999999,"LONGITUDE":58.134550679999997}},{"type":"Feature","id":577,"geometry":{"type":"Point","coordinates":[58.411965440480195,23.576881011940781]},"properties":{"FID":577,"NAMEEN":"Al Basmah Pharmacy - Bawshar","WILLAYAT":" Wilayat Bawshar","GOV":" Muscat Governorate","LATITUDE":23.576881010000001,"LONGITUDE":58.411965440000003}},{"type":"Feature","id":578,"geometry":{"type":"Point","coordinates":[58.458105064267691,23.610116161423022]},"properties":{"FID":578,"NAMEEN":"Diet &nutrition Center - Bawshar","WILLAYAT":" Wilayat Bawshar","GOV":" Muscat Governorate","LATITUDE":23.61011616,"LONGITUDE":58.458105060000001}},{"type":"Feature","id":579,"geometry":{"type":"Point","coordinates":[58.418530336017042,23.576566534830413]},"properties":{"FID":579,"NAMEEN":"Al Amthal Polyclinic - Bawshar","WILLAYAT":" Wilayat Bawshar","GOV":" Muscat Governorate","LATITUDE":23.576566530000001,"LONGITUDE":58.418530339999997}},{"type":"Feature","id":580,"geometry":{"type":"Point","coordinates":[58.416803084579421,23.575554130147676]},"properties":{"FID":580,"NAMEEN":"Suzan Dental Center - Bawshar","WILLAYAT":" Wilayat Bawshar","GOV":" Muscat Governorate","LATITUDE":23.57555413,"LONGITUDE":58.416803080000001}},{"type":"Feature","id":581,"geometry":{"type":"Point","coordinates":[58.36130857811817,23.547013177316632]},"properties":{"FID":581,"NAMEEN":"Aisha Mohammed Medical Center - Bawshar","WILLAYAT":" Wilayat Bawshar","GOV":" Muscat Governorate","LATITUDE":23.54701318,"LONGITUDE":58.361308579999999}},{"type":"Feature","id":582,"geometry":{"type":"Point","coordinates":[58.125726088443329,23.651875950643593]},"properties":{"FID":582,"NAMEEN":"Balqees Pharmacy - As Seeb","WILLAYAT":" Wilayat As Seeb","GOV":" Muscat Governorate","LATITUDE":23.651875950000001,"LONGITUDE":58.125726090000001}},{"type":"Feature","id":583,"geometry":{"type":"Point","coordinates":[58.189418661349322,23.677184225008276]},"properties":{"FID":583,"NAMEEN":"Medical Care Center  - As Seeb","WILLAYAT":" Wilayat As Seeb","GOV":" Muscat Governorate","LATITUDE":23.677184230000002,"LONGITUDE":58.189418660000001}},{"type":"Feature","id":584,"geometry":{"type":"Point","coordinates":[58.13520707801537,23.648411720392929]},"properties":{"FID":584,"NAMEEN":"Azhar Polyclinic - As Seeb","WILLAYAT":" Wilayat As Seeb","GOV":" Muscat Governorate","LATITUDE":23.648411719999999,"LONGITUDE":58.135207080000001}},{"type":"Feature","id":585,"geometry":{"type":"Point","coordinates":[58.448834739855904,23.60348710460061]},"properties":{"FID":585,"NAMEEN":"Royal Medical Center - Bawshar","WILLAYAT":" Wilayat Bawshar","GOV":" Muscat Governorate","LATITUDE":23.603487099999999,"LONGITUDE":58.448834740000002}},{"type":"Feature","id":586,"geometry":{"type":"Point","coordinates":[58.224371125511773,23.594554683072314]},"properties":{"FID":586,"NAMEEN":"Al Massa Pharmacy - As Seeb","WILLAYAT":" Wilayat As Seeb","GOV":" Muscat Governorate","LATITUDE":23.594554680000002,"LONGITUDE":58.224371130000002}},{"type":"Feature","id":587,"geometry":{"type":"Point","coordinates":[58.232707298530308,23.636296629410637]},"properties":{"FID":587,"NAMEEN":"Al Salam Pharmacy - As Seeb","WILLAYAT":" Wilayat As Seeb","GOV":" Muscat Governorate","LATITUDE":23.63629663,"LONGITUDE":58.232707300000001}},{"type":"Feature","id":588,"geometry":{"type":"Point","coordinates":[58.478693408123561,23.472291468783268]},"properties":{"FID":588,"NAMEEN":"Am Bayan Pharmacy - Al Amrat","WILLAYAT":" Wilayat Al Amrat","GOV":" Muscat Governorate","LATITUDE":23.472291469999998,"LONGITUDE":58.478693409999998}},{"type":"Feature","id":589,"geometry":{"type":"Point","coordinates":[58.094978207929898,23.641175892858627]},"properties":{"FID":589,"NAMEEN":"Al Ajmi  Phamcay - As Seeb","WILLAYAT":" Wilayat As Seeb","GOV":" Muscat Governorate","LATITUDE":23.64117589,"LONGITUDE":58.094978210000001}},{"type":"Feature","id":590,"geometry":{"type":"Point","coordinates":[58.098961222297348,23.640739809130221]},"properties":{"FID":590,"NAMEEN":"Apple Pharmacy - As Seeb","WILLAYAT":" Wilayat As Seeb","GOV":" Muscat Governorate","LATITUDE":23.640739809999999,"LONGITUDE":58.09896122}},{"type":"Feature","id":591,"geometry":{"type":"Point","coordinates":[58.379396096419974,23.596176781545491]},"properties":{"FID":591,"NAMEEN":"Al Bawarak Pharmacy - Bawshar","WILLAYAT":" Wilayat Bawshar","GOV":" Muscat Governorate","LATITUDE":23.59617678,"LONGITUDE":58.379396100000001}},{"type":"Feature","id":592,"geometry":{"type":"Point","coordinates":[58.425464318844213,23.596233982872263]},"properties":{"FID":592,"NAMEEN":"Ar Rimah Medical Center - Bawshar","WILLAYAT":" Wilayat Bawshar","GOV":" Muscat Governorate","LATITUDE":23.596233980000001,"LONGITUDE":58.425464320000003}},{"type":"Feature","id":593,"geometry":{"type":"Point","coordinates":[58.53599588436272,23.586678511289112]},"properties":{"FID":593,"NAMEEN":"Al Ahad Al Muzher Pharmacy  - Mutrah","WILLAYAT":" Wilayat Mutrah","GOV":" Muscat Governorate","LATITUDE":23.586678509999999,"LONGITUDE":58.535995880000002}},{"type":"Feature","id":594,"geometry":{"type":"Point","coordinates":[58.501264052662172,23.497323870718493]},"properties":{"FID":594,"NAMEEN":"Asrar Al Hayah Pharmacy - Al Amrat","WILLAYAT":" Wilayat Al Amrat","GOV":" Muscat Governorate","LATITUDE":23.497323869999999,"LONGITUDE":58.501264050000003}},{"type":"Feature","id":595,"geometry":{"type":"Point","coordinates":[58.417573489298711,23.595501456357919]},"properties":{"FID":595,"NAMEEN":"Addirham Care Center - Bawshar","WILLAYAT":" Wilayat Bawshar","GOV":" Muscat Governorate","LATITUDE":23.595501460000001,"LONGITUDE":58.417573490000002}},{"type":"Feature","id":596,"geometry":{"type":"Point","coordinates":[58.187955604533954,23.678823606984743]},"properties":{"FID":596,"NAMEEN":"Sohar Pharmacy - As Seeb","WILLAYAT":" Wilayat As Seeb","GOV":" Muscat Governorate","LATITUDE":23.678823609999998,"LONGITUDE":58.187955600000002}},{"type":"Feature","id":597,"geometry":{"type":"Point","coordinates":[58.120553243275204,23.64839271995017]},"properties":{"FID":597,"NAMEEN":"New Taiba Pharmacy - As Seeb","WILLAYAT":" Wilayat As Seeb","GOV":" Muscat Governorate","LATITUDE":23.64839272,"LONGITUDE":58.12055324}},{"type":"Feature","id":598,"geometry":{"type":"Point","coordinates":[58.549710229689218,23.599543418581845]},"properties":{"FID":598,"NAMEEN":"Sundus Specialized Medical Complex - Mutrah","WILLAYAT":" Wilayat Mutrah","GOV":" Muscat Governorate","LATITUDE":23.59954342,"LONGITUDE":58.549710230000002}},{"type":"Feature","id":599,"geometry":{"type":"Point","coordinates":[58.389836791282626,23.599543619056455]},"properties":{"FID":599,"NAMEEN":"Modern Crystal Dental - Bawshar","WILLAYAT":" Wilayat Bawshar","GOV":" Muscat Governorate","LATITUDE":23.599543619999999,"LONGITUDE":58.389836789999997}}]}